{"type": "FeatureCollection", "features": [{"type": "Feature", "geometry": {"type": "MultiPolygon", "coordinates": [[[[-118.8654231, 37.5872118], [-118.86534, 37.5876029], [-118.8653359, 37.5877563], [-118.8651299, 37.5881379], [-118.864863, 37.5884059], [-118.8644798, 37.5887871], [-118.864079, 37.5888982], [-118.8639434, 37.5889358], [-118.8636077, 37.5890698], [-118.8632378, 37.5893274], [-118.8627462, 37.5894321], [-118.862548, 37.589608], [-118.8617156, 37.5898509], [-118.861047, 37.5900331], [-118.8609031, 37.590111], [-118.8604365, 37.5903639], [-118.8600612, 37.5904875], [-118.8592958, 37.5910434], [-118.8590622, 37.5912848], [-118.8589277, 37.5915246], [-118.8587849, 37.5916679], [-118.8582736, 37.5921806], [-118.8580027, 37.5922931], [-118.8578102, 37.5924205], [-118.8576906, 37.5926559], [-118.8575, 37.5927625], [-118.8573374, 37.592727], [-118.8572199, 37.5927722], [-118.856575, 37.5935695], [-118.8560705, 37.59399], [-118.8557472, 37.5941913], [-118.8551514, 37.5944606], [-118.8548259, 37.5946311], [-118.8544522, 37.5947451], [-118.8537982, 37.5948724], [-118.85315, 37.5949861], [-118.8529333, 37.5949957], [-118.8528422, 37.5949566], [-118.8528441, 37.5948717], [-118.8528043, 37.5948439], [-118.8527356, 37.5948824], [-118.8527085, 37.5948706], [-118.8526814, 37.5949261], [-118.8526188, 37.5949039], [-118.8525618, 37.5948573], [-118.8525497, 37.5948662], [-118.8523656, 37.5947632], [-118.852147, 37.5946789], [-118.8519545, 37.594607], [-118.8519858, 37.5945411], [-118.85205, 37.5944863], [-118.8521495, 37.5945025], [-118.852353, 37.5946042], [-118.8525281, 37.5946331], [-118.8527039, 37.5946994], [-118.8527625, 37.5947287], [-118.8529542, 37.5947666], [-118.8530199, 37.5947527], [-118.8530231, 37.5947164], [-118.8528862, 37.5946771], [-118.8527449, 37.5946261], [-118.8526308, 37.5945784], [-118.8524673, 37.5945451], [-118.8523861, 37.5945485], [-118.8522502, 37.5944999], [-118.8521183, 37.5944419], [-118.8520603, 37.594431], [-118.8519998, 37.5944639], [-118.8519081, 37.5945706], [-118.8518333, 37.5945567], [-118.8517969, 37.5945722], [-118.8517418, 37.5945508], [-118.8516991, 37.5945433], [-118.8516838, 37.5944975], [-118.8516278, 37.5944471], [-118.851625, 37.5943938], [-118.8516619, 37.5943317], [-118.851619, 37.594229], [-118.8515186, 37.5940206], [-118.851438, 37.5936186], [-118.8514494, 37.5935797], [-118.8513791, 37.593184], [-118.851282, 37.5927862], [-118.8513234, 37.5924835], [-118.8514348, 37.5922402], [-118.8516018, 37.5919852], [-118.8518846, 37.5918188], [-118.8521753, 37.5914963], [-118.8522919, 37.591261], [-118.8525056, 37.5909205], [-118.8527197, 37.5907718], [-118.8529707, 37.5906985], [-118.8533252, 37.5904861], [-118.853753, 37.5900891], [-118.8539749, 37.5899509], [-118.8541913, 37.5899036], [-118.8544136, 37.5898692], [-118.8546356, 37.5897352], [-118.8548396, 37.5894478], [-118.8549712, 37.5891237], [-118.855003, 37.5889834], [-118.8549475, 37.588841], [-118.8548649, 37.588678], [-118.8548814, 37.588462], [-118.8551219, 37.588127], [-118.8552701, 37.587979], [-118.8553809, 37.587572], [-118.8556226, 37.5873337], [-118.8558618, 37.5869542], [-118.8560602, 37.5868171], [-118.8563534, 37.5867281], [-118.8565991, 37.5865878], [-118.8568, 37.5865689], [-118.857088, 37.5864789], [-118.8572255, 37.5863134], [-118.8572697, 37.5861243], [-118.85738, 37.5859304], [-118.8574535, 37.5858895], [-118.8576219, 37.5858318], [-118.8580962, 37.585717], [-118.8588377, 37.5854982], [-118.8591546, 37.5853229], [-118.8594215, 37.5851156], [-118.8597572, 37.5850234], [-118.8599682, 37.5848965], [-118.8602619, 37.5846821], [-118.860497, 37.5846048], [-118.8608373, 37.5845744], [-118.8611129, 37.5843868], [-118.8612476, 37.5843533], [-118.8612993, 37.5842401], [-118.8616467, 37.5841585], [-118.8623734, 37.5836999], [-118.8626972, 37.5836141], [-118.8628729, 37.5834988], [-118.8630368, 37.5834653], [-118.8632072, 37.5836031], [-118.8632957, 37.5836747], [-118.8636102, 37.584058], [-118.8636472, 37.5842946], [-118.8635917, 37.5844433], [-118.8635776, 37.5846143], [-118.8635663, 37.5847507], [-118.8637912, 37.5849877], [-118.8640172, 37.5854946], [-118.8643052, 37.5857606], [-118.8643528, 37.5859239], [-118.8645801, 37.5861291], [-118.8649338, 37.5863674], [-118.8650264, 37.5865361], [-118.8653888, 37.5869794], [-118.8654231, 37.5872118]]]]}, "properties": {"id": "convict_lake", "name": "Convict Lake", "osm": ["way/29185425"], "found_by": "name", "area_km2": 0.7124}}]}