{"type": "FeatureCollection", "features": [{"type": "Feature", "geometry": {"type": "MultiPolygon", "coordinates": [[[[-122.1630851, 42.9395771], [-122.1629525, 42.9397092], [-122.1629791, 42.9398929], [-122.1630517, 42.9399541], [-122.1630857, 42.9400256], [-122.1630006, 42.940185], [-122.1628187, 42.9402204], [-122.1624685, 42.9403444], [-122.1622888, 42.9405094], [-122.1621128, 42.9406214], [-122.162106, 42.9406574], [-122.1619878, 42.9406913], [-122.1620364, 42.9408004], [-122.1620477, 42.9408397], [-122.1620193, 42.9408959], [-122.1620428, 42.9409354], [-122.1621889, 42.9409595], [-122.1622259, 42.9410112], [-122.1621979, 42.9410657], [-122.1623832, 42.941217], [-122.1620303, 42.9416029], [-122.1619813, 42.9417298], [-122.1617212, 42.9417608], [-122.1613109, 42.9419565], [-122.1613922, 42.942085], [-122.1614418, 42.9421409], [-122.1611138, 42.942194], [-122.1611726, 42.9425382], [-122.1617529, 42.9429834], [-122.1622078, 42.9433038], [-122.1621552, 42.943401], [-122.161821, 42.9436391], [-122.1615558, 42.9437534], [-122.1615073, 42.9439182], [-122.161323, 42.943924], [-122.1613066, 42.9438905], [-122.1605172, 42.9439606], [-122.1604533, 42.9439995], [-122.1603662, 42.9440542], [-122.1603975, 42.9441866], [-122.1604148, 42.9442362], [-122.1603587, 42.944446], [-122.1605133, 42.9444435], [-122.160577, 42.9445262], [-122.1605217, 42.9446431], [-122.1604098, 42.9447009], [-122.1603436, 42.9446683], [-122.1602404, 42.9446958], [-122.1601111, 42.9447413], [-122.1600379, 42.9447697], [-122.1597769, 42.9448043], [-122.1596441, 42.9448938], [-122.159597, 42.9449027], [-122.1595945, 42.9450691], [-122.1597845, 42.9453344], [-122.1599976, 42.9454698], [-122.160037, 42.9455682], [-122.1599799, 42.9456104], [-122.1599985, 42.9457345], [-122.1599837, 42.9457993], [-122.1598031, 42.9459394], [-122.1597842, 42.9460659], [-122.1597496, 42.9461102], [-122.1594727, 42.9461169], [-122.1594404, 42.9461962], [-122.1593061, 42.9462646], [-122.1591013, 42.946323], [-122.1590419, 42.9464287], [-122.1591441, 42.9465889], [-122.1590926, 42.9467046], [-122.1591432, 42.9468162], [-122.1591343, 42.9469355], [-122.1591141, 42.9471375], [-122.1589786, 42.9475692], [-122.1590285, 42.9476783], [-122.1590417, 42.9477108], [-122.1588947, 42.9477617], [-122.1589406, 42.9478478], [-122.1588544, 42.9479339], [-122.1586799, 42.9479207], [-122.1583803, 42.9479531], [-122.1581885, 42.947966], [-122.1579632, 42.9480502], [-122.1579446, 42.9482778], [-122.1578942, 42.9484433], [-122.1578852, 42.9485501], [-122.1580064, 42.9486124], [-122.1580421, 42.9487093], [-122.15842, 42.9489102], [-122.1584948, 42.9488984], [-122.1585465, 42.9489292], [-122.1586315, 42.9490462], [-122.1586565, 42.9491], [-122.1586131, 42.9491664], [-122.1585512, 42.9491726], [-122.1584998, 42.9492831], [-122.1584892, 42.9495496], [-122.1584568, 42.9496849], [-122.1583933, 42.9497937], [-122.1583831, 42.9499769], [-122.1584908, 42.950069], [-122.1586095, 42.9502166], [-122.1586799, 42.9506169], [-122.1586115, 42.9510943], [-122.1583282, 42.9514838], [-122.1578588, 42.9520465], [-122.1577789, 42.9524324], [-122.1574613, 42.9528659], [-122.1574957, 42.9533056], [-122.1572553, 42.9537893], [-122.1573583, 42.9540783], [-122.1569206, 42.9544552], [-122.1563799, 42.9547505], [-122.1564142, 42.9550708], [-122.1562082, 42.9553472], [-122.1560623, 42.9553849], [-122.1560354, 42.9555557], [-122.1558241, 42.9558329], [-122.1555237, 42.9561234], [-122.1553183, 42.9562404], [-122.1551257, 42.9565105], [-122.1549546, 42.9568136], [-122.1547309, 42.9570254], [-122.1546407, 42.9572722], [-122.153792, 42.9582345], [-122.1530668, 42.9587707], [-122.1523544, 42.9590471], [-122.1515905, 42.9594177], [-122.1508095, 42.9603411], [-122.1509897, 42.9605798], [-122.1508953, 42.9606928], [-122.1505605, 42.9605672], [-122.150037, 42.9608059], [-122.1494104, 42.960988], [-122.1486723, 42.9610823], [-122.1481144, 42.9607996], [-122.1477625, 42.9606112], [-122.1475136, 42.9609818], [-122.1470157, 42.9609504], [-122.1467754, 42.9610383], [-122.1465179, 42.9612393], [-122.1460201, 42.9615596], [-122.1456596, 42.9615471], [-122.1457025, 42.9617732], [-122.145591, 42.9620998], [-122.14596, 42.9624767], [-122.1457283, 42.9629038], [-122.1458484, 42.963802], [-122.1461746, 42.9645368], [-122.1455223, 42.9651775], [-122.1449987, 42.9650079], [-122.1450931, 42.9653534], [-122.1448356, 42.9657867], [-122.1429731, 42.9667477], [-122.1417629, 42.9673757], [-122.1411363, 42.9676332], [-122.1402008, 42.9676646], [-122.1389906, 42.9677714], [-122.1382868, 42.9675893], [-122.1371967, 42.9679347], [-122.1366646, 42.9684497], [-122.1362268, 42.9685062], [-122.135626, 42.9681985], [-122.134723, 42.9681314], [-122.1334631, 42.9685], [-122.1324846, 42.9689521], [-122.1319782, 42.9689396], [-122.1313946, 42.9691468], [-122.1306564, 42.9692159], [-122.1294977, 42.9696618], [-122.1288625, 42.9699382], [-122.1285707, 42.9702145], [-122.1287081, 42.9709116], [-122.1288883, 42.9708488], [-122.1290514, 42.9712947], [-122.1288565, 42.9713885], [-122.128339, 42.9720797], [-122.1282102, 42.9718411], [-122.1279175, 42.9719655], [-122.1276663, 42.9720722], [-122.1276438, 42.972356], [-122.1271974, 42.9725884], [-122.1258156, 42.9734927], [-122.12488, 42.9737816], [-122.1241382, 42.9743054], [-122.1233694, 42.9745101], [-122.1228438, 42.9747988], [-122.1222107, 42.9749811], [-122.1218158, 42.9752888], [-122.1198732, 42.9758215], [-122.1191965, 42.9759105], [-122.1186573, 42.9761617], [-122.1182968, 42.9761868], [-122.1177904, 42.9764191], [-122.116254, 42.9765761], [-122.1156961, 42.9768901], [-122.1151544, 42.9771517], [-122.11434, 42.9772292], [-122.1136705, 42.9770973], [-122.1132671, 42.9771664], [-122.1130918, 42.9773907], [-122.1126062, 42.9774553], [-122.1120828, 42.9774924], [-122.1115934, 42.9773862], [-122.1111728, 42.9771162], [-122.1110012, 42.9769969], [-122.1105978, 42.9769843], [-122.1098768, 42.9767143], [-122.1092159, 42.9765259], [-122.1084232, 42.9761321], [-122.1077654, 42.9753767], [-122.1072418, 42.9749245], [-122.1069586, 42.97424], [-122.1063921, 42.9733609], [-122.1048557, 42.9728271], [-122.1040575, 42.9730029], [-122.1034052, 42.9729275], [-122.1028566, 42.9730425], [-122.1028586, 42.9732375], [-122.1024696, 42.9733295], [-122.1017938, 42.9734082], [-122.1014826, 42.9731725], [-122.1010019, 42.9732541], [-122.1005642, 42.9738004], [-122.0997144, 42.9745164], [-122.099826, 42.9747927], [-122.099679, 42.9748708], [-122.099826, 42.9752825], [-122.0994913, 42.9755462], [-122.0986416, 42.9757535], [-122.0981266, 42.9756656], [-122.0977318, 42.9757598], [-122.0971232, 42.9762292], [-122.096616, 42.9762621], [-122.0961096, 42.9761303], [-122.0956632, 42.9760486], [-122.0951739, 42.9760511], [-122.0950367, 42.9761303], [-122.0946419, 42.9761617], [-122.0944273, 42.9761114], [-122.0940582, 42.9763312], [-122.09326, 42.9764694], [-122.0930368, 42.9762998], [-122.0926494, 42.9762832], [-122.0924703, 42.9763626], [-122.0912779, 42.9763134], [-122.0909985, 42.9762019], [-122.0902989, 42.9761236], [-122.0900388, 42.9761268], [-122.0896485, 42.9760179], [-122.0894701, 42.9758997], [-122.0893785, 42.9757862], [-122.0892415, 42.9757591], [-122.089205, 42.9757708], [-122.0891986, 42.9758532], [-122.0892338, 42.9758635], [-122.0892159, 42.9758921], [-122.0891976, 42.9758836], [-122.0891732, 42.9759057], [-122.089152, 42.9759011], [-122.0891059, 42.9759371], [-122.0889561, 42.9759334], [-122.0887973, 42.9759685], [-122.0887703, 42.9759886], [-122.0887198, 42.9760069], [-122.0885489, 42.9761906], [-122.0884198, 42.9763485], [-122.0882932, 42.9764612], [-122.088346, 42.976587], [-122.0879702, 42.9768485], [-122.0875118, 42.9771221], [-122.0864193, 42.9771727], [-122.0858957, 42.977179], [-122.0850225, 42.9773774], [-122.0842634, 42.9773527], [-122.0837414, 42.9775055], [-122.0831491, 42.9775306], [-122.0826771, 42.9773485], [-122.0825826, 42.9774867], [-122.0821106, 42.9776562], [-122.0815098, 42.9782025], [-122.0808731, 42.9784492], [-122.0801708, 42.9787237], [-122.0791494, 42.9787426], [-122.0783769, 42.9786484], [-122.077613, 42.9784286], [-122.0764788, 42.9777721], [-122.0757334, 42.9772794], [-122.075227, 42.976865], [-122.0751583, 42.9765259], [-122.074875, 42.9760361], [-122.0747978, 42.9755651], [-122.0750124, 42.9750313], [-122.0755359, 42.9744975], [-122.075802, 42.9739763], [-122.0758793, 42.9734048], [-122.076214, 42.9731097], [-122.0763213, 42.9728961], [-122.0764243, 42.9726481], [-122.0762827, 42.972199], [-122.0757505, 42.9718976], [-122.0751154, 42.9715648], [-122.0748493, 42.9711879], [-122.0743526, 42.9710414], [-122.0742399, 42.9711063], [-122.0740167, 42.9710309], [-122.0737406, 42.9708608], [-122.0730592, 42.9706598], [-122.0723774, 42.9706227], [-122.071562, 42.9702773], [-122.0710041, 42.9695676], [-122.0708324, 42.9689145], [-122.0703861, 42.9679221], [-122.0699723, 42.9675866], [-122.069359, 42.9673521], [-122.0688068, 42.9673192], [-122.0680955, 42.9674855], [-122.0674732, 42.9674829], [-122.0669632, 42.9674032], [-122.0666521, 42.9672564], [-122.0652878, 42.9664274], [-122.0646269, 42.9660945], [-122.0643179, 42.9659186], [-122.0638829, 42.9657489], [-122.0636765, 42.9655255], [-122.062936, 42.9651084], [-122.0626887, 42.9648589], [-122.0625249, 42.9645691], [-122.0622943, 42.9643394], [-122.061909, 42.9641746], [-122.061355, 42.9638031], [-122.0612078, 42.9636294], [-122.06087, 42.9633527], [-122.0606777, 42.9632348], [-122.060345, 42.9629514], [-122.0601204, 42.9628487], [-122.0598352, 42.9627468], [-122.0596166, 42.9627536], [-122.0593494, 42.9627276], [-122.0588796, 42.9625902], [-122.0577432, 42.9624202], [-122.057251, 42.962261], [-122.0567236, 42.962074], [-122.0564027, 42.9619978], [-122.0561698, 42.9619237], [-122.0559059, 42.96177], [-122.0555685, 42.9615685], [-122.0553379, 42.9614812], [-122.0549934, 42.9613709], [-122.054344, 42.9611448], [-122.0541766, 42.9609651], [-122.0540258, 42.960807], [-122.0538173, 42.9606776], [-122.0535858, 42.9605952], [-122.0519239, 42.959066], [-122.0514386, 42.9583856], [-122.0511896, 42.9579739], [-122.0509228, 42.9574801], [-122.050854, 42.9571399], [-122.0508524, 42.9569354], [-122.0508444, 42.9568271], [-122.050696, 42.9567309], [-122.0504786, 42.956358], [-122.0504478, 42.9560607], [-122.05034, 42.955621], [-122.0501129, 42.9548196], [-122.0501558, 42.9543044], [-122.0499756, 42.9535632], [-122.0502674, 42.9529224], [-122.0504373, 42.9526709], [-122.0505633, 42.9525283], [-122.0507296, 42.9524306], [-122.0508191, 42.9523582], [-122.0508879, 42.9522999], [-122.0509424, 42.9521965], [-122.0509262, 42.9520687], [-122.0510185, 42.9518944], [-122.0511834, 42.9517507], [-122.0513614, 42.9515516], [-122.0515713, 42.9512642], [-122.0517034, 42.9511787], [-122.0518187, 42.9510538], [-122.0520084, 42.9508236], [-122.0520669, 42.9507548], [-122.0521183, 42.9507515], [-122.0521866, 42.9506662], [-122.0522256, 42.9506536], [-122.0522753, 42.9506285], [-122.0523383, 42.9505218], [-122.0523191, 42.950468], [-122.0523469, 42.9503669], [-122.0523431, 42.9503029], [-122.0523265, 42.9502204], [-122.0523208, 42.9501751], [-122.0523468, 42.9501024], [-122.0523956, 42.9500189], [-122.052476, 42.9499359], [-122.0525374, 42.9499045], [-122.0525996, 42.9498682], [-122.0526403, 42.9498665], [-122.0527161, 42.9498206], [-122.0527942, 42.9497221], [-122.05282, 42.9496765], [-122.0528345, 42.9496122], [-122.0529167, 42.9494781], [-122.0529671, 42.949439], [-122.0530421, 42.9493912], [-122.0531294, 42.9493658], [-122.0532491, 42.9493615], [-122.0533466, 42.9493714], [-122.0534047, 42.9494206], [-122.0534017, 42.9494745], [-122.0534411, 42.9494938], [-122.0534816, 42.9495108], [-122.0535403, 42.9494965], [-122.0535587, 42.9494547], [-122.053601, 42.9493962], [-122.0536831, 42.9493208], [-122.0538047, 42.9492453], [-122.053859, 42.9492009], [-122.0539955, 42.9492615], [-122.0540009, 42.9492825], [-122.0540193, 42.9492815], [-122.0540525, 42.9492537], [-122.0540855, 42.9492618], [-122.0540979, 42.9492951], [-122.0541418, 42.9493289], [-122.0541754, 42.9493115], [-122.0542297, 42.9493086], [-122.0542953, 42.9492973], [-122.0542818, 42.9492677], [-122.0542898, 42.9492487], [-122.054246, 42.9491925], [-122.054196, 42.9491199], [-122.0541734, 42.9490327], [-122.0542161, 42.9489495], [-122.0542494, 42.9489136], [-122.0543274, 42.9488674], [-122.054306, 42.9487706], [-122.0543032, 42.9486521], [-122.0543521, 42.948502], [-122.0546386, 42.9482989], [-122.0547229, 42.9481787], [-122.0546778, 42.9481217], [-122.0546695, 42.948064], [-122.0547038, 42.9479935], [-122.0548091, 42.9478906], [-122.0548822, 42.9478184], [-122.0548861, 42.9477098], [-122.0548924, 42.9476324], [-122.054957, 42.9475508], [-122.0549855, 42.9475102], [-122.0550267, 42.9474996], [-122.0550416, 42.9474327], [-122.0551399, 42.9474193], [-122.0551661, 42.9474259], [-122.0551869, 42.9473911], [-122.0552581, 42.9473328], [-122.0553269, 42.9472972], [-122.0554036, 42.9472819], [-122.0554898, 42.9472748], [-122.055545, 42.9472786], [-122.0556336, 42.9472543], [-122.0557137, 42.9472264], [-122.0558382, 42.9472218], [-122.0559007, 42.9472302], [-122.0559432, 42.9472443], [-122.0559898, 42.9472748], [-122.0560276, 42.9473004], [-122.0560651, 42.9473084], [-122.0560916, 42.9473288], [-122.056108, 42.947414], [-122.0561273, 42.9474697], [-122.0561789, 42.947489], [-122.0562326, 42.9474786], [-122.0562809, 42.9474437], [-122.0563282, 42.9474102], [-122.0563512, 42.9473855], [-122.0564016, 42.9473844], [-122.0564018, 42.9473619], [-122.0563745, 42.9473334], [-122.0562782, 42.9472914], [-122.0562137, 42.9472604], [-122.0561809, 42.9472037], [-122.0561709, 42.9471415], [-122.0561796, 42.9470759], [-122.0561892, 42.9469951], [-122.0562385, 42.9468994], [-122.0562667, 42.9468503], [-122.0564235, 42.9468246], [-122.056554, 42.9468248], [-122.0565716, 42.9468579], [-122.0566046, 42.9468797], [-122.0566167, 42.9468991], [-122.0566414, 42.9469068], [-122.0566697, 42.946898], [-122.056701, 42.9469001], [-122.0567228, 42.9469204], [-122.0567318, 42.9469379], [-122.0567695, 42.9469343], [-122.0567918, 42.9469375], [-122.0568068, 42.9469296], [-122.0568021, 42.946909], [-122.0567717, 42.9468974], [-122.0567269, 42.9468836], [-122.0567024, 42.9468635], [-122.056695, 42.9468523], [-122.0566892, 42.9468292], [-122.0567029, 42.9468002], [-122.0567318, 42.9467682], [-122.0567749, 42.9467589], [-122.0567998, 42.9467544], [-122.0568223, 42.9467516], [-122.0568268, 42.9467596], [-122.0568564, 42.9467433], [-122.0568663, 42.9467191], [-122.0568932, 42.9466927], [-122.0569271, 42.9466643], [-122.0569494, 42.9466299], [-122.0569666, 42.9465327], [-122.0569852, 42.9464645], [-122.0570237, 42.946455], [-122.0570424, 42.9464286], [-122.0571908, 42.9457097], [-122.0570791, 42.945639], [-122.0569533, 42.9455937], [-122.0568282, 42.9454615], [-122.0567443, 42.9453541], [-122.0566987, 42.9452421], [-122.0566447, 42.9451327], [-122.0566832, 42.9450923], [-122.0567404, 42.9451127], [-122.0567847, 42.9451335], [-122.0568593, 42.9450561], [-122.0568946, 42.9450146], [-122.0568901, 42.9449385], [-122.0569784, 42.9449007], [-122.0569389, 42.9448739], [-122.0569168, 42.9448575], [-122.0568801, 42.9448664], [-122.0567824, 42.9447761], [-122.0568255, 42.9447318], [-122.0568515, 42.944677], [-122.056817, 42.9446014], [-122.056814, 42.9445722], [-122.0568168, 42.9445473], [-122.0568038, 42.9445214], [-122.056727, 42.9445015], [-122.0565997, 42.9444213], [-122.0565646, 42.9443629], [-122.0564708, 42.94434], [-122.0564262, 42.9443084], [-122.0564266, 42.9442734], [-122.0563901, 42.9442397], [-122.0564072, 42.9442026], [-122.0564262, 42.9442023], [-122.0564748, 42.9441394], [-122.0565863, 42.944026], [-122.0566001, 42.943997], [-122.0565602, 42.9439288], [-122.0566506, 42.9437984], [-122.0566422, 42.9437724], [-122.0566353, 42.9437246], [-122.0565342, 42.9437102], [-122.0564213, 42.9436501], [-122.0563694, 42.9435804], [-122.0563194, 42.9435184], [-122.05633, 42.943478], [-122.056355, 42.943438], [-122.0564132, 42.9433947], [-122.0564747, 42.9433635], [-122.0564842, 42.9433327], [-122.0564679, 42.9433088], [-122.0564138, 42.9433028], [-122.0563711, 42.9432345], [-122.0563983, 42.9431907], [-122.0564732, 42.9431469], [-122.0565783, 42.9431019], [-122.0566576, 42.9430583], [-122.0567206, 42.9430525], [-122.0567311, 42.9430338], [-122.0567872, 42.9429543], [-122.0568447, 42.9429518], [-122.0569164, 42.9428661], [-122.0570388, 42.9428482], [-122.0571033, 42.9428672], [-122.0571383, 42.9428321], [-122.0571687, 42.9428209], [-122.0571748, 42.9428028], [-122.0571461, 42.9426845], [-122.0571301, 42.9425278], [-122.0571546, 42.9423122], [-122.0571595, 42.9421827], [-122.0566301, 42.9415894], [-122.0564241, 42.9412865], [-122.0563077, 42.941158], [-122.0562916, 42.9409687], [-122.056327, 42.9408624], [-122.0563024, 42.9408115], [-122.0562832, 42.940739], [-122.0562716, 42.9406689], [-122.0563264, 42.9405918], [-122.0563471, 42.9405925], [-122.0563971, 42.9405435], [-122.0561912, 42.9400283], [-122.0561283, 42.9399851], [-122.056071, 42.9399652], [-122.0560356, 42.9399228], [-122.0560007, 42.9398877], [-122.0559825, 42.9398583], [-122.0559278, 42.939862], [-122.0558915, 42.9398257], [-122.0558787, 42.9397748], [-122.0558598, 42.9397366], [-122.0559102, 42.9397169], [-122.0559271, 42.9395271], [-122.0559556, 42.9394719], [-122.0559696, 42.939432], [-122.0559476, 42.9393572], [-122.0559536, 42.9392749], [-122.0559624, 42.9391826], [-122.0560233, 42.9390872], [-122.0560663, 42.9390736], [-122.0561256, 42.9390608], [-122.0561762, 42.9389811], [-122.0562122, 42.9389075], [-122.0562405, 42.9388281], [-122.0562626, 42.9385556], [-122.0561118, 42.9384075], [-122.0560162, 42.9383607], [-122.0559436, 42.9382713], [-122.0558846, 42.938121], [-122.0558469, 42.9380313], [-122.0558308, 42.9379085], [-122.0558813, 42.9378342], [-122.0560242, 42.9375202], [-122.0559905, 42.9371083], [-122.0559855, 42.9368081], [-122.055984, 42.9367084], [-122.0559516, 42.9365763], [-122.0560141, 42.9364166], [-122.0560209, 42.9362843], [-122.0559855, 42.9361815], [-122.0559983, 42.9360215], [-122.0560496, 42.9358375], [-122.0561428, 42.9357658], [-122.0562011, 42.9356756], [-122.0562047, 42.9355036], [-122.0562459, 42.9354766], [-122.0562454, 42.9354001], [-122.0563079, 42.9353593], [-122.0563231, 42.9351796], [-122.0564296, 42.9349157], [-122.056556, 42.9347477], [-122.0568654, 42.9340434], [-122.0568301, 42.933283], [-122.056991, 42.9319004], [-122.0575686, 42.9312261], [-122.0578541, 42.9308876], [-122.05822, 42.9307293], [-122.059065, 42.9302557], [-122.0600367, 42.9293895], [-122.0624983, 42.9286563], [-122.0641119, 42.9275628], [-122.0656206, 42.9270938], [-122.0659811, 42.9266736], [-122.0662964, 42.9261971], [-122.0662374, 42.9257988], [-122.0658579, 42.9253759], [-122.0656441, 42.9250267], [-122.0657989, 42.9247916], [-122.0660681, 42.9246042], [-122.0657861, 42.9244064], [-122.065716, 42.9237838], [-122.0653018, 42.9235376], [-122.0647655, 42.923506], [-122.0645953, 42.9234244], [-122.064817, 42.9232471], [-122.0647695, 42.9229925], [-122.0645876, 42.9228254], [-122.0643619, 42.9222688], [-122.0646163, 42.9215648], [-122.0650542, 42.9211521], [-122.0658113, 42.9204355], [-122.0667125, 42.9193607], [-122.0672838, 42.9186925], [-122.0675205, 42.9186095], [-122.0677571, 42.9183352], [-122.0687038, 42.9177642], [-122.0688857, 42.9177884], [-122.0690583, 42.9177048], [-122.0692344, 42.9174717], [-122.0696065, 42.9172266], [-122.0705744, 42.9167607], [-122.0712485, 42.916516], [-122.0716449, 42.9165225], [-122.0731327, 42.9156396], [-122.0751357, 42.9128044], [-122.0761416, 42.9123316], [-122.0770981, 42.912088], [-122.0775015, 42.9116794], [-122.0787031, 42.9113462], [-122.0789606, 42.9114657], [-122.0794241, 42.9112268], [-122.0796301, 42.9113022], [-122.080454, 42.9109942], [-122.0818187, 42.9109313], [-122.0824281, 42.9107742], [-122.0830976, 42.9107364], [-122.0838014, 42.9111451], [-122.0848657, 42.911101], [-122.0854666, 42.9108244], [-122.0858957, 42.9109627], [-122.086239, 42.911013], [-122.0862991, 42.910925], [-122.0860245, 42.9107867], [-122.0863163, 42.9104473], [-122.0868913, 42.9100889], [-122.0878956, 42.9099066], [-122.0881627, 42.9099025], [-122.0884128, 42.9099196], [-122.0890922, 42.9098324], [-122.089628, 42.9098631], [-122.0899505, 42.9099898], [-122.0901342, 42.9101285], [-122.090259, 42.9102534], [-122.0904626, 42.9103502], [-122.0905956, 42.9103548], [-122.0907017, 42.9103207], [-122.0907621, 42.9102629], [-122.0908008, 42.9101343], [-122.0908321, 42.9099405], [-122.0907992, 42.9098849], [-122.0907959, 42.9095582], [-122.0907451, 42.9091271], [-122.0908138, 42.9085802], [-122.092024, 42.9072788], [-122.0921013, 42.9071028], [-122.0919811, 42.9070399], [-122.0920755, 42.9067759], [-122.0924017, 42.9066062], [-122.0928178, 42.9061576], [-122.0928995, 42.9059272], [-122.0932428, 42.9055311], [-122.0937578, 42.9053236], [-122.0942469, 42.9049529], [-122.0950281, 42.9045], [-122.0955716, 42.9045767], [-122.0958006, 42.9046698], [-122.0959861, 42.9048289], [-122.0963541, 42.9046442], [-122.0967447, 42.9045252], [-122.0972439, 42.9043443], [-122.0975858, 42.9043114], [-122.0984871, 42.9043492], [-122.0991256, 42.9044716], [-122.0993368, 42.9046384], [-122.0998783, 42.904763], [-122.1002466, 42.9046698], [-122.1004515, 42.9047062], [-122.1006071, 42.904827], [-122.1009379, 42.9048886], [-122.1013538, 42.9047704], [-122.1016113, 42.9048647], [-122.1021005, 42.904827], [-122.1024267, 42.9048584], [-122.1027786, 42.9050533], [-122.1032335, 42.9051036], [-122.1036455, 42.9051099], [-122.1038858, 42.9052105], [-122.1041941, 42.9052751], [-122.1049587, 42.9053174], [-122.1063062, 42.9056506], [-122.1066667, 42.9056506], [-122.1075079, 42.9058895], [-122.1075508, 42.90599], [-122.1083233, 42.9061975], [-122.1100742, 42.9066313], [-122.1105377, 42.9065936], [-122.1113188, 42.9064678], [-122.1115677, 42.9066439], [-122.1116754, 42.9066759], [-122.1117393, 42.9065747], [-122.1119367, 42.9066062], [-122.1121942, 42.9068451], [-122.1123181, 42.9070904], [-122.1125447, 42.9072382], [-122.1127357, 42.9073627], [-122.1128855, 42.9074466], [-122.1129949, 42.9073702], [-122.1130416, 42.9072526], [-122.1133299, 42.90715], [-122.1134857, 42.907139], [-122.113604, 42.907164], [-122.1137011, 42.9072318], [-122.1136963, 42.9074109], [-122.1138078, 42.9075869], [-122.1138218, 42.9076307], [-122.1137302, 42.9077383], [-122.113653, 42.9077431], [-122.1135824, 42.9078706], [-122.1136334, 42.9079502], [-122.1136601, 42.9080755], [-122.1137055, 42.9081664], [-122.1137997, 42.9082119], [-122.1138948, 42.9082242], [-122.1139731, 42.9082259], [-122.113993, 42.9081935], [-122.11398, 42.9081684], [-122.1140375, 42.9081204], [-122.1140885, 42.908074], [-122.1141189, 42.9080899], [-122.1141484, 42.9080583], [-122.1140923, 42.9080029], [-122.1140616, 42.9079215], [-122.1140593, 42.9078681], [-122.1141514, 42.9078692], [-122.1142091, 42.9079213], [-122.1142964, 42.9079711], [-122.1143322, 42.9080128], [-122.1143748, 42.9080722], [-122.1144367, 42.9080957], [-122.1144877, 42.9080741], [-122.1145814, 42.9080914], [-122.1146103, 42.9081255], [-122.1145507, 42.9081706], [-122.1144827, 42.9082174], [-122.1144994, 42.9082684], [-122.114498, 42.9083437], [-122.1145355, 42.908491], [-122.1147898, 42.9086695], [-122.1148643, 42.9087586], [-122.1148941, 42.9088664], [-122.1149729, 42.9089635], [-122.1150787, 42.9089939], [-122.1152278, 42.9089966], [-122.1153818, 42.9090601], [-122.1154682, 42.9090922], [-122.1156614, 42.9092168], [-122.1157505, 42.9092836], [-122.1160245, 42.9095422], [-122.1161087, 42.9096301], [-122.1161762, 42.9097251], [-122.1162808, 42.909802], [-122.1163082, 42.9098433], [-122.1163834, 42.9098801], [-122.1164568, 42.9098728], [-122.1165753, 42.909895], [-122.1166503, 42.9099372], [-122.1167438, 42.9100491], [-122.1167508, 42.9100905], [-122.1167163, 42.9101361], [-122.116738, 42.9102116], [-122.1168103, 42.9102493], [-122.1168608, 42.9102515], [-122.1168816, 42.9102283], [-122.116891, 42.9101794], [-122.1169614, 42.9101879], [-122.117057, 42.9103066], [-122.1171243, 42.9103846], [-122.1172411, 42.9104787], [-122.1172532, 42.9105368], [-122.1172948, 42.910648], [-122.1173402, 42.9107549], [-122.1174297, 42.9108859], [-122.11751, 42.9109271], [-122.1176156, 42.9109617], [-122.1176939, 42.9110421], [-122.1177524, 42.9111197], [-122.1177826, 42.9111772], [-122.1178228, 42.9112547], [-122.1182173, 42.9114703], [-122.1184297, 42.9115356], [-122.1186215, 42.911647], [-122.1187219, 42.9117432], [-122.119009, 42.9120372], [-122.1190863, 42.9121537], [-122.119167, 42.9122825], [-122.1193611, 42.9124463], [-122.1197938, 42.9126503], [-122.120236, 42.9127242], [-122.1203732, 42.912788], [-122.1204611, 42.9127877], [-122.1205621, 42.9128137], [-122.1210072, 42.9129929], [-122.1213953, 42.9131378], [-122.1215073, 42.9131661], [-122.1216248, 42.9131761], [-122.1217225, 42.9131704], [-122.1217561, 42.9131609], [-122.1217941, 42.9130999], [-122.1218347, 42.9130275], [-122.1218837, 42.9129523], [-122.1219, 42.9128822], [-122.1219076, 42.9128402], [-122.1218886, 42.912783], [-122.1218464, 42.9127493], [-122.1219003, 42.9127181], [-122.1220178, 42.9126845], [-122.1221018, 42.9126807], [-122.1221305, 42.9126851], [-122.1221402, 42.9127092], [-122.1221461, 42.9127413], [-122.1221794, 42.9127659], [-122.1221997, 42.9127763], [-122.1222224, 42.912765], [-122.1222469, 42.9127446], [-122.1222348, 42.9127278], [-122.1222562, 42.912707], [-122.1223254, 42.9126351], [-122.1223863, 42.9125832], [-122.1225025, 42.9124212], [-122.1229746, 42.9123897], [-122.1233265, 42.9122389], [-122.1236955, 42.9123206], [-122.1239649, 42.9124378], [-122.1240612, 42.9125309], [-122.1242696, 42.9125989], [-122.1243408, 42.9125847], [-122.1244085, 42.9125473], [-122.124419, 42.9125343], [-122.1243351, 42.9124934], [-122.1244039, 42.9124188], [-122.1244488, 42.912241], [-122.1244778, 42.9121512], [-122.1245332, 42.9121043], [-122.1245866, 42.9120582], [-122.1249744, 42.9118428], [-122.125292, 42.912132], [-122.125385, 42.9121495], [-122.1254642, 42.9121513], [-122.1256754, 42.9119929], [-122.1258131, 42.9118966], [-122.1259311, 42.9117429], [-122.1259904, 42.9116182], [-122.12615, 42.9115888], [-122.1265605, 42.9116242], [-122.1269178, 42.9116622], [-122.1271889, 42.9117423], [-122.1273458, 42.9118426], [-122.1274498, 42.9119025], [-122.1276008, 42.9119371], [-122.1280145, 42.9119475], [-122.1281639, 42.911957], [-122.1283403, 42.9120157], [-122.1285463, 42.9120649], [-122.128766, 42.9121185], [-122.1287788, 42.9121468], [-122.1287558, 42.9122293], [-122.1291069, 42.9123172], [-122.1292476, 42.9123352], [-122.1293577, 42.912395], [-122.1294666, 42.9123971], [-122.1295216, 42.9123787], [-122.1299783, 42.9123646], [-122.1301003, 42.9124326], [-122.1304418, 42.9124903], [-122.1312057, 42.9124086], [-122.1313072, 42.9126447], [-122.1312698, 42.9128443], [-122.131757, 42.9129457], [-122.1322185, 42.9131881], [-122.1324504, 42.9134661], [-122.1329309, 42.9132761], [-122.1333772, 42.9128801], [-122.1350166, 42.9128549], [-122.1362955, 42.9130624], [-122.1374714, 42.9132195], [-122.1377975, 42.9133641], [-122.1389906, 42.9131818], [-122.1402523, 42.9134081], [-122.140484, 42.9133955], [-122.1408145, 42.9135487], [-122.1421234, 42.9138418], [-122.1431963, 42.9148224], [-122.1439344, 42.9152059], [-122.1448099, 42.9153002], [-122.1459217, 42.9157688], [-122.1474792, 42.9160608], [-122.1477882, 42.9163625], [-122.1486551, 42.9163813], [-122.1492143, 42.9166664], [-122.1498911, 42.9168842], [-122.1502859, 42.9172613], [-122.150552, 42.9175882], [-122.1511785, 42.9177893], [-122.1513588, 42.9180282], [-122.1518738, 42.9182293], [-122.1522628, 42.9183998], [-122.1533844, 42.9184745], [-122.1540281, 42.9190716], [-122.1543113, 42.9189899], [-122.1546289, 42.9190779], [-122.1549997, 42.9193656], [-122.1551347, 42.9196121], [-122.1555301, 42.9198007], [-122.1558237, 42.9199767], [-122.1558477, 42.9201527], [-122.1566374, 42.920423], [-122.1568497, 42.9207314], [-122.1569721, 42.9210892], [-122.1575128, 42.9213029], [-122.1580965, 42.9217995], [-122.1583711, 42.9224657], [-122.1589033, 42.9229874], [-122.1593839, 42.9233079], [-122.1598732, 42.9239804], [-122.1599247, 42.9242947], [-122.1603281, 42.9245272], [-122.1604482, 42.9249483], [-122.1610233, 42.9250928], [-122.1616928, 42.9258282], [-122.161564, 42.9263498], [-122.1619331, 42.9266766], [-122.1618644, 42.9269909], [-122.1622249, 42.9272862], [-122.1626026, 42.9273742], [-122.1629631, 42.9280467], [-122.1627914, 42.9282981], [-122.1629631, 42.9284992], [-122.1629373, 42.9287443], [-122.1631862, 42.9289454], [-122.1632871, 42.9293479], [-122.1632377, 42.9294858], [-122.1633033, 42.9297328], [-122.1633837, 42.929932], [-122.1633751, 42.930196], [-122.1634523, 42.9303279], [-122.163521, 42.9303217], [-122.1636325, 42.9307627], [-122.1639931, 42.9314843], [-122.1641218, 42.9316476], [-122.164199, 42.9319053], [-122.1644737, 42.9321315], [-122.164405, 42.9322446], [-122.1641304, 42.9322195], [-122.164036, 42.9320436], [-122.1639501, 42.9321127], [-122.1641132, 42.9327222], [-122.1639416, 42.9328102], [-122.1640832, 42.9332257], [-122.164345, 42.9334072], [-122.1643364, 42.9336083], [-122.1645338, 42.9337717], [-122.1644136, 42.9341362], [-122.1644651, 42.9343749], [-122.1642784, 42.9349613], [-122.1641573, 42.9351397], [-122.1639081, 42.9353217], [-122.1638387, 42.9355543], [-122.1639567, 42.9357631], [-122.1643192, 42.9358705], [-122.1643965, 42.9361344], [-122.1642677, 42.9366811], [-122.1640283, 42.9368983], [-122.163657, 42.9370389], [-122.1634819, 42.9373455], [-122.1632876, 42.9376175], [-122.1631306, 42.9377515], [-122.16314, 42.9378718], [-122.1632474, 42.9379238], [-122.1633289, 42.9379978], [-122.163299, 42.9380372], [-122.1630593, 42.9380736], [-122.162972, 42.9382778], [-122.1630682, 42.938459], [-122.1632064, 42.9386141], [-122.1633332, 42.9389199], [-122.1634106, 42.9391532], [-122.1633783, 42.9392857], [-122.1632165, 42.9394779], [-122.1630851, 42.9395771]], [[-122.0923887, 42.9111648], [-122.0923257, 42.9111938], [-122.0922188, 42.9112031], [-122.0921259, 42.9111434], [-122.092117, 42.9111174], [-122.0920234, 42.9110949], [-122.091955, 42.9110867], [-122.0918916, 42.9110342], [-122.0918063, 42.9109579], [-122.0916692, 42.910857], [-122.0915586, 42.910811], [-122.0914782, 42.9107858], [-122.0914499, 42.9108009], [-122.0913804, 42.9107776], [-122.0913641, 42.9107785], [-122.0913351, 42.9107825], [-122.0912984, 42.9107966], [-122.0912357, 42.9107903], [-122.0912033, 42.9107646], [-122.0911624, 42.9107846], [-122.0911544, 42.9108257], [-122.0911557, 42.9108723], [-122.0911715, 42.9109374], [-122.091172, 42.910981], [-122.091141, 42.9110549], [-122.0911437, 42.9111271], [-122.0911807, 42.911168], [-122.0912169, 42.9111986], [-122.0912451, 42.9112391], [-122.09126, 42.9112718], [-122.0912994, 42.9113083], [-122.0917192, 42.9114015], [-122.0919075, 42.911376], [-122.0919373, 42.9114027], [-122.0919852, 42.9114039], [-122.0922215, 42.9113555], [-122.0923301, 42.9113829], [-122.0924141, 42.9113493], [-122.0924757, 42.9113189], [-122.0924799, 42.9112815], [-122.0925337, 42.9112292], [-122.0925386, 42.9112039], [-122.092489, 42.9111881], [-122.0924642, 42.9111555], [-122.0923887, 42.9111648]], [[-122.14873, 42.9342857], [-122.1486518, 42.9342783], [-122.1485982, 42.9342685], [-122.1486048, 42.9341964], [-122.1485791, 42.9341565], [-122.1486007, 42.9341495], [-122.1485754, 42.9341074], [-122.1485495, 42.9340537], [-122.1482388, 42.933807], [-122.1481593, 42.9337548], [-122.1478806, 42.933658], [-122.1478044, 42.9335955], [-122.1478192, 42.9335768], [-122.1477448, 42.9335324], [-122.1477057, 42.9334949], [-122.1476608, 42.9334719], [-122.1475968, 42.9334598], [-122.1475447, 42.9334469], [-122.1474727, 42.9334427], [-122.1474178, 42.9334259], [-122.147326, 42.9334191], [-122.147266, 42.9334181], [-122.1471919, 42.9334165], [-122.1471001, 42.9334239], [-122.1470367, 42.9334489], [-122.1470158, 42.9335099], [-122.1469699, 42.9335705], [-122.1468654, 42.9336216], [-122.1467602, 42.9336606], [-122.1467118, 42.9336983], [-122.1466644, 42.9337424], [-122.146637, 42.9338151], [-122.1466259, 42.9338566], [-122.1465597, 42.933919], [-122.1464853, 42.9339896], [-122.1464524, 42.9340221], [-122.1463989, 42.9340352], [-122.1463486, 42.9340831], [-122.1462876, 42.9340996], [-122.1461949, 42.934101], [-122.1460829, 42.9341305], [-122.1460516, 42.9342006], [-122.1459487, 42.9342663], [-122.1458155, 42.9343769], [-122.1457082, 42.9344402], [-122.1455744, 42.934502], [-122.1455119, 42.9345213], [-122.145464, 42.9345117], [-122.1452292, 42.9345661], [-122.1451032, 42.9345792], [-122.1449459, 42.9345926], [-122.1447475, 42.9346162], [-122.1446683, 42.9346244], [-122.1445646, 42.9346749], [-122.1444439, 42.9347356], [-122.1444262, 42.9347154], [-122.1443403, 42.9347528], [-122.1442707, 42.9347878], [-122.1442154, 42.9348302], [-122.1440962, 42.9348844], [-122.1439783, 42.9349166], [-122.1438089, 42.9348986], [-122.1436603, 42.9348868], [-122.1435244, 42.9348717], [-122.1433844, 42.9349046], [-122.1432885, 42.9349336], [-122.1432403, 42.9349785], [-122.1432262, 42.9350575], [-122.143246, 42.9351185], [-122.1432971, 42.9351699], [-122.143341, 42.9352186], [-122.1433518, 42.9352574], [-122.143329, 42.935291], [-122.1432549, 42.9353759], [-122.1431806, 42.9354433], [-122.1431002, 42.9354967], [-122.1430183, 42.935513], [-122.1429248, 42.9355023], [-122.1428834, 42.9354776], [-122.1428271, 42.9354639], [-122.1427512, 42.9354385], [-122.1426671, 42.9354405], [-122.1425693, 42.9354493], [-122.1424879, 42.9354608], [-122.1423814, 42.9354752], [-122.1422788, 42.9354978], [-122.1422097, 42.9355099], [-122.1421108, 42.9354967], [-122.1420126, 42.9354946], [-122.1419477, 42.9355184], [-122.1418937, 42.9355377], [-122.1418426, 42.9355758], [-122.1418148, 42.9356102], [-122.1418076, 42.93567], [-122.1418082, 42.9357438], [-122.1418765, 42.9358368], [-122.1419356, 42.9359006], [-122.141979, 42.9359472], [-122.1419889, 42.9359975], [-122.1420335, 42.9360467], [-122.1420334, 42.9360778], [-122.1419986, 42.9361325], [-122.1419288, 42.9362219], [-122.1418599, 42.9362801], [-122.1417471, 42.9363068], [-122.1416757, 42.9363271], [-122.1415683, 42.9363188], [-122.1414661, 42.9362787], [-122.1413251, 42.9362304], [-122.1411958, 42.9362067], [-122.1410805, 42.9362178], [-122.1409506, 42.9362653], [-122.1408097, 42.9363558], [-122.1407199, 42.9364203], [-122.1406402, 42.9365266], [-122.14057, 42.9366093], [-122.140475, 42.9366571], [-122.1403778, 42.9367209], [-122.1403155, 42.9367832], [-122.1402291, 42.9368874], [-122.1401848, 42.9369912], [-122.1401815, 42.9370773], [-122.1401926, 42.9371601], [-122.1402052, 42.9372198], [-122.1402318, 42.9372811], [-122.140338, 42.9373469], [-122.1403669, 42.9373598], [-122.1405467, 42.9376018], [-122.1405947, 42.9377108], [-122.1406388, 42.9378198], [-122.1406825, 42.9379769], [-122.1407149, 42.938178], [-122.1407028, 42.9383492], [-122.1407165, 42.9384287], [-122.140703, 42.9384925], [-122.1406632, 42.9386075], [-122.14068, 42.9386566], [-122.140642, 42.9387814], [-122.1405271, 42.9388793], [-122.1403615, 42.9389416], [-122.140208, 42.9390083], [-122.1401003, 42.9390615], [-122.1399937, 42.939159], [-122.1399401, 42.9392557], [-122.1399161, 42.9393862], [-122.13988, 42.9394725], [-122.139862, 42.9395264], [-122.1398954, 42.9396961], [-122.1399759, 42.9398209], [-122.1400543, 42.9399253], [-122.1400668, 42.9399558], [-122.1401547, 42.9400426], [-122.1402074, 42.9400991], [-122.140251, 42.9401271], [-122.1402853, 42.9401797], [-122.1402876, 42.9402421], [-122.1402436, 42.9402582], [-122.1401837, 42.940255], [-122.140076, 42.9403126], [-122.1399865, 42.9404317], [-122.1399629, 42.940459], [-122.1399686, 42.9405068], [-122.1400131, 42.9405966], [-122.1401181, 42.9406276], [-122.1402289, 42.9407535], [-122.1403349, 42.940818], [-122.1403359, 42.9408868], [-122.1404639, 42.9410273], [-122.1404685, 42.9411268], [-122.1405338, 42.9411993], [-122.1405817, 42.9412159], [-122.1406082, 42.9412574], [-122.1406452, 42.9412983], [-122.1407308, 42.9413698], [-122.1408305, 42.9414758], [-122.1409331, 42.9414984], [-122.1409695, 42.9415348], [-122.1410151, 42.941599], [-122.1410801, 42.9416546], [-122.1411508, 42.9417077], [-122.1412373, 42.9417393], [-122.141333, 42.9417885], [-122.1414076, 42.941847], [-122.1414742, 42.9418921], [-122.1415464, 42.941956], [-122.1416469, 42.9420234], [-122.1417167, 42.9421515], [-122.1418139, 42.9421968], [-122.1419982, 42.94222], [-122.1421451, 42.9422827], [-122.1423057, 42.9422929], [-122.1423862, 42.9422633], [-122.1425006, 42.9422972], [-122.1425967, 42.942328], [-122.1426623, 42.9423869], [-122.1427184, 42.9424314], [-122.1427669, 42.9424534], [-122.1428374, 42.94246], [-122.1428953, 42.9424552], [-122.1429368, 42.9424374], [-122.1429989, 42.9423989], [-122.1430239, 42.9423702], [-122.1430271, 42.9423463], [-122.1429707, 42.942268], [-122.1430844, 42.9422483], [-122.1432301, 42.9423318], [-122.143282, 42.9423746], [-122.1433257, 42.9424028], [-122.143391, 42.9424591], [-122.1434131, 42.942487], [-122.1433899, 42.9425493], [-122.1435628, 42.9425886], [-122.1437142, 42.9427543], [-122.1438149, 42.942869], [-122.1438188, 42.9429031], [-122.1438568, 42.9429566], [-122.1440459, 42.943037], [-122.1441027, 42.9430893], [-122.1441582, 42.9431462], [-122.1442012, 42.9432008], [-122.1442658, 42.9432562], [-122.1443025, 42.943298], [-122.1443976, 42.9434432], [-122.1445056, 42.9435125], [-122.1446133, 42.9436005], [-122.1446381, 42.9436185], [-122.1446582, 42.9436589], [-122.1447314, 42.9437443], [-122.1448448, 42.9438352], [-122.1448893, 42.9438576], [-122.1449045, 42.9438978], [-122.1450811, 42.943969], [-122.1452235, 42.9440085], [-122.1453016, 42.9441029], [-122.1453872, 42.9441791], [-122.1454623, 42.9442515], [-122.1455361, 42.9443069], [-122.1456396, 42.9443777], [-122.1457494, 42.9444973], [-122.145826, 42.9445011], [-122.1458517, 42.94454], [-122.1459442, 42.9446315], [-122.1459833, 42.9446912], [-122.1460277, 42.9447592], [-122.1460903, 42.9448208], [-122.146127, 42.9448951], [-122.1461687, 42.9449422], [-122.146188, 42.9450124], [-122.1462636, 42.9451414], [-122.1462621, 42.9452462], [-122.1463371, 42.9453759], [-122.1464924, 42.9454721], [-122.1465511, 42.94553], [-122.1466701, 42.9456046], [-122.1468428, 42.9456682], [-122.1469612, 42.94572], [-122.1470129, 42.9457374], [-122.1470735, 42.9457367], [-122.1471266, 42.9457348], [-122.1472228, 42.9456742], [-122.1472695, 42.9456583], [-122.1473496, 42.9456119], [-122.1474432, 42.9455941], [-122.1476161, 42.9455854], [-122.1477005, 42.9455912], [-122.1477912, 42.9455974], [-122.147902, 42.9456084], [-122.1479664, 42.9456163], [-122.1480383, 42.9456242], [-122.1481374, 42.9456108], [-122.1482135, 42.945612], [-122.1482444, 42.9456095], [-122.1482693, 42.9456261], [-122.1483404, 42.9455995], [-122.1484237, 42.9455965], [-122.1485473, 42.9455749], [-122.1486244, 42.9455677], [-122.1487782, 42.9455605], [-122.148808, 42.9455517], [-122.1488912, 42.9455067], [-122.1489966, 42.9455], [-122.1491561, 42.9455156], [-122.1492744, 42.9455141], [-122.1494045, 42.9455619], [-122.1494519, 42.9455736], [-122.1495135, 42.9456321], [-122.1495934, 42.9456042], [-122.1496525, 42.9455806], [-122.1497027, 42.9455515], [-122.1497523, 42.9454783], [-122.1497706, 42.9454298], [-122.1497769, 42.9453795], [-122.1498031, 42.945313], [-122.1498257, 42.9453025], [-122.1498944, 42.9452839], [-122.1500183, 42.9452413], [-122.1500442, 42.945253], [-122.1501185, 42.9452236], [-122.1501653, 42.9452034], [-122.150242, 42.9451899], [-122.150273, 42.9451856], [-122.150281, 42.9451544], [-122.1502871, 42.9451268], [-122.1504043, 42.9450838], [-122.1504484, 42.945078], [-122.1504835, 42.9450733], [-122.150531, 42.9450465], [-122.1506058, 42.9450235], [-122.1506617, 42.9450213], [-122.1506716, 42.9450337], [-122.1509181, 42.9449743], [-122.150983, 42.9449722], [-122.151151, 42.9449604], [-122.1511879, 42.9449561], [-122.1512222, 42.9449639], [-122.1512656, 42.9449631], [-122.1512902, 42.9449625], [-122.1513287, 42.9449308], [-122.1513438, 42.9448863], [-122.1513766, 42.9448428], [-122.1513866, 42.9447993], [-122.1513894, 42.9447532], [-122.1513948, 42.9446971], [-122.1514035, 42.9446675], [-122.1514214, 42.9446665], [-122.1514474, 42.9445836], [-122.1514604, 42.9445528], [-122.1514251, 42.944544], [-122.1514444, 42.9444807], [-122.1514082, 42.9444306], [-122.1514238, 42.944397], [-122.1514532, 42.9443945], [-122.1514854, 42.9444339], [-122.1515123, 42.9444639], [-122.151554, 42.9444447], [-122.1516023, 42.9444003], [-122.1515782, 42.9443805], [-122.1515865, 42.944359], [-122.1516035, 42.9443646], [-122.151617, 42.9443746], [-122.15164, 42.9443611], [-122.1516587, 42.9443256], [-122.1516502, 42.9443013], [-122.1515805, 42.9442779], [-122.1514987, 42.9442529], [-122.1514041, 42.9442057], [-122.1514273, 42.9441165], [-122.1514884, 42.9441396], [-122.1515104, 42.9441749], [-122.1515534, 42.9441878], [-122.1516009, 42.9442322], [-122.1516852, 42.9442589], [-122.1517147, 42.9442464], [-122.1517886, 42.9442242], [-122.1518404, 42.94422], [-122.1518838, 42.9442181], [-122.1519504, 42.9441945], [-122.1520143, 42.9441541], [-122.1520156, 42.9441077], [-122.1520764, 42.9440569], [-122.1521226, 42.9440586], [-122.1521752, 42.9440058], [-122.1521717, 42.9439606], [-122.152184, 42.9439031], [-122.1521525, 42.9438058], [-122.1520921, 42.943678], [-122.1520516, 42.9436426], [-122.1519832, 42.9435284], [-122.1519227, 42.9432886], [-122.1519198, 42.9432075], [-122.1520762, 42.9432043], [-122.1520753, 42.9431778], [-122.1520392, 42.9430797], [-122.1520336, 42.9430128], [-122.1520607, 42.9429185], [-122.1522051, 42.9426169], [-122.1523384, 42.9424995], [-122.1524573, 42.9424818], [-122.1528516, 42.9426719], [-122.1532325, 42.9427008], [-122.1533471, 42.9429082], [-122.1535878, 42.9430444], [-122.1541887, 42.9431556], [-122.1543357, 42.9431021], [-122.1543988, 42.9430383], [-122.1544868, 42.9429855], [-122.1545599, 42.9429593], [-122.154568, 42.9430035], [-122.1545407, 42.9430784], [-122.1545871, 42.9431845], [-122.1547337, 42.9432461], [-122.1550129, 42.9432245], [-122.1551847, 42.9431933], [-122.1552279, 42.9432236], [-122.1551823, 42.9432741], [-122.155121, 42.9433187], [-122.1550797, 42.9433685], [-122.1551197, 42.9434249], [-122.1551781, 42.943457], [-122.155269, 42.9434483], [-122.1553763, 42.9433907], [-122.1555444, 42.9434181], [-122.1557048, 42.9434144], [-122.1560865, 42.9432437], [-122.1562068, 42.9431705], [-122.1563004, 42.9431598], [-122.1564008, 42.9431741], [-122.1565109, 42.9431685], [-122.1567547, 42.9430608], [-122.1571581, 42.9430163], [-122.1573845, 42.9429136], [-122.1575214, 42.9427783], [-122.1575827, 42.942678], [-122.157571, 42.9426148], [-122.1577507, 42.9422735], [-122.1577156, 42.9421173], [-122.1578311, 42.941993], [-122.1578264, 42.9419052], [-122.1577856, 42.9418417], [-122.1577123, 42.9418031], [-122.1576214, 42.9418152], [-122.1574945, 42.9418616], [-122.1573675, 42.941933], [-122.1572625, 42.9420145], [-122.1571171, 42.9420682], [-122.1570201, 42.9420833], [-122.1568014, 42.9421035], [-122.1567621, 42.942082], [-122.1567, 42.9420648], [-122.1566726, 42.9420474], [-122.1566502, 42.9420398], [-122.1566308, 42.9420333], [-122.1565404, 42.9420067], [-122.1565805, 42.9419732], [-122.1566127, 42.9419742], [-122.1566643, 42.9419319], [-122.1567569, 42.9419202], [-122.156806, 42.9419649], [-122.1568628, 42.9419453], [-122.1569133, 42.9419531], [-122.156998, 42.9419252], [-122.1570278, 42.9419439], [-122.1569971, 42.9419515], [-122.1569819, 42.9419677], [-122.1569505, 42.9419706], [-122.1569493, 42.9419957], [-122.1569826, 42.9420231], [-122.1570226, 42.942029], [-122.1570483, 42.9420171], [-122.1570775, 42.9419988], [-122.1576463, 42.9415836], [-122.1577118, 42.9415971], [-122.1577692, 42.9415946], [-122.1578139, 42.9415782], [-122.1578462, 42.9415498], [-122.1578664, 42.9415139], [-122.1578725, 42.9414754], [-122.1578772, 42.9414452], [-122.1578432, 42.9414059], [-122.1577928, 42.9413986], [-122.157753, 42.941405], [-122.1576918, 42.9413844], [-122.157638, 42.9414051], [-122.1576248, 42.941356], [-122.1576567, 42.9413183], [-122.1577234, 42.9413109], [-122.1580067, 42.9408245], [-122.1580302, 42.9407023], [-122.1580342, 42.9406232], [-122.1580254, 42.940587], [-122.1580142, 42.9405341], [-122.1579929, 42.9405136], [-122.1579778, 42.9404352], [-122.1579423, 42.9403524], [-122.1578845, 42.9402985], [-122.1577867, 42.9402509], [-122.1577273, 42.9402535], [-122.1575654, 42.9402881], [-122.1574499, 42.9403132], [-122.1573961, 42.9403206], [-122.1573877, 42.9403578], [-122.1574453, 42.9404233], [-122.157438, 42.9404423], [-122.1574075, 42.9404542], [-122.1573663, 42.9404649], [-122.1572964, 42.9404276], [-122.1572617, 42.940353], [-122.1572282, 42.9402606], [-122.1572338, 42.9402304], [-122.1572668, 42.9402301], [-122.15728, 42.9402505], [-122.157371, 42.9402592], [-122.1574932, 42.9402659], [-122.1575824, 42.9402451], [-122.1576606, 42.9402293], [-122.1576954, 42.9401985], [-122.1576918, 42.9401555], [-122.1577184, 42.9401287], [-122.1577138, 42.9400751], [-122.1576226, 42.9400249], [-122.1575274, 42.9399875], [-122.1574603, 42.9399511], [-122.1574077, 42.9399011], [-122.1574041, 42.9398649], [-122.157438, 42.9398567], [-122.1574876, 42.9397859], [-122.1574695, 42.939748], [-122.1574912, 42.9397163], [-122.1574668, 42.9396619], [-122.1574832, 42.9396434], [-122.1574281, 42.9395389], [-122.1573919, 42.9395179], [-122.1573668, 42.9394782], [-122.1573488, 42.939445], [-122.1573693, 42.9394032], [-122.1573462, 42.939368], [-122.1572817, 42.9393438], [-122.1572297, 42.9393645], [-122.1571969, 42.9393685], [-122.1570862, 42.9394266], [-122.1569247, 42.9394759], [-122.1568582, 42.9394852], [-122.1567842, 42.9394731], [-122.1567599, 42.9394614], [-122.1566269, 42.9394659], [-122.1565634, 42.9394524], [-122.15644, 42.9394659], [-122.1563342, 42.9394476], [-122.1562017, 42.9394332], [-122.1561007, 42.9394325], [-122.1558653, 42.9393544], [-122.1557693, 42.9392811], [-122.1557279, 42.9392205], [-122.1557335, 42.9391599], [-122.1556525, 42.9390933], [-122.1556304, 42.9390578], [-122.1555837, 42.9390248], [-122.1554894, 42.9389835], [-122.1553947, 42.9389392], [-122.1552957, 42.938931], [-122.1552067, 42.9389261], [-122.1551585, 42.9389456], [-122.155102, 42.938944], [-122.155049, 42.9389208], [-122.1549264, 42.938874], [-122.1548822, 42.9388988], [-122.1548116, 42.9389318], [-122.1547567, 42.9389298], [-122.1546656, 42.938949], [-122.1545879, 42.9389483], [-122.1544798, 42.9389281], [-122.1543928, 42.9388983], [-122.1543024, 42.9388821], [-122.1542421, 42.9388832], [-122.1541637, 42.9388625], [-122.1540359, 42.9388483], [-122.1539255, 42.9388171], [-122.1537727, 42.9387975], [-122.1536064, 42.9387791], [-122.153481, 42.938772], [-122.153406, 42.9387697], [-122.1532948, 42.9387745], [-122.1532361, 42.9387811], [-122.1531785, 42.9388105], [-122.1531166, 42.9388373], [-122.1530863, 42.9388493], [-122.1530778, 42.9388303], [-122.1531366, 42.9387533], [-122.153169, 42.938724], [-122.1531373, 42.9386881], [-122.1531374, 42.9386632], [-122.1531005, 42.9386442], [-122.1530589, 42.9386506], [-122.1529719, 42.9386554], [-122.152857, 42.9386653], [-122.152776, 42.9387097], [-122.1527304, 42.9387682], [-122.1527011, 42.9387833], [-122.1526442, 42.9387859], [-122.1526191, 42.9387814], [-122.1525328, 42.9386992], [-122.1525462, 42.93866], [-122.1528228, 42.9383319], [-122.152796, 42.9382403], [-122.1527684, 42.938129], [-122.1526935, 42.9380526], [-122.1526439, 42.9379841], [-122.1526223, 42.9379303], [-122.1526514, 42.9378639], [-122.152622, 42.9377819], [-122.1525558, 42.937714], [-122.1525727, 42.9376423], [-122.1525544, 42.9376065], [-122.1524935, 42.937557], [-122.1525301, 42.9375034], [-122.1526093, 42.9374255], [-122.1526349, 42.9373788], [-122.1525511, 42.937332], [-122.1525346, 42.9373019], [-122.1525865, 42.9371913], [-122.1525809, 42.9370556], [-122.1526172, 42.9369626], [-122.1525099, 42.9368769], [-122.1523772, 42.9367982], [-122.1522621, 42.9367824], [-122.1521267, 42.9367787], [-122.1519559, 42.9368318], [-122.1518015, 42.9368333], [-122.1517409, 42.9368223], [-122.1517194, 42.9367932], [-122.1517613, 42.9366712], [-122.1518889, 42.9365774], [-122.1520152, 42.9364998], [-122.1522985, 42.9363017], [-122.1523938, 42.9362933], [-122.152481, 42.9362509], [-122.1525521, 42.9361841], [-122.1525978, 42.9361149], [-122.1525883, 42.9360894], [-122.1526094, 42.9360457], [-122.152604, 42.9359951], [-122.1526203, 42.9359705], [-122.1526564, 42.9359215], [-122.152642, 42.935868], [-122.1526293, 42.935829], [-122.1526406, 42.935803], [-122.1527003, 42.9357515], [-122.1527273, 42.9357419], [-122.1527469, 42.9357675], [-122.1527305, 42.9358178], [-122.1527632, 42.9358273], [-122.1527826, 42.9358676], [-122.1527767, 42.9359189], [-122.1527491, 42.9359942], [-122.1527595, 42.9360377], [-122.1527394, 42.9360976], [-122.1527209, 42.9361602], [-122.1527273, 42.9361956], [-122.1527334, 42.9362306], [-122.1527934, 42.9362301], [-122.1528143, 42.9362781], [-122.1528289, 42.9363239], [-122.1528868, 42.9363589], [-122.1529452, 42.9363768], [-122.1530081, 42.9363552], [-122.1530483, 42.9363308], [-122.153074, 42.9362927], [-122.1531223, 42.9361902], [-122.153185, 42.9360751], [-122.1532408, 42.9360486], [-122.1532942, 42.935997], [-122.1534005, 42.9358692], [-122.1534739, 42.9357851], [-122.1535006, 42.9357653], [-122.153532, 42.9357777], [-122.1535853, 42.9357653], [-122.1536196, 42.9357339], [-122.1536332, 42.9356586], [-122.1536049, 42.9356083], [-122.1535917, 42.9355472], [-122.1535846, 42.9354698], [-122.1535596, 42.9354089], [-122.1534851, 42.9353869], [-122.1534239, 42.9354059], [-122.1534032, 42.9354437], [-122.1533963, 42.9354899], [-122.1533831, 42.93553], [-122.1533458, 42.9355399], [-122.153336, 42.9354981], [-122.1533307, 42.9354654], [-122.1532867, 42.9354633], [-122.1532263, 42.9354823], [-122.1532013, 42.9355097], [-122.1531781, 42.9355672], [-122.1531205, 42.9355888], [-122.1530764, 42.9354892], [-122.1530177, 42.9354416], [-122.1529797, 42.9353992], [-122.1530465, 42.9353649], [-122.1531382, 42.9353126], [-122.1532236, 42.9352558], [-122.1533419, 42.935047], [-122.153423, 42.9348299], [-122.1534879, 42.9346312], [-122.1534663, 42.9344339], [-122.1534388, 42.9343717], [-122.1533957, 42.9342846], [-122.153343, 42.9342155], [-122.1532566, 42.9341459], [-122.1532307, 42.9341032], [-122.153192, 42.9340499], [-122.1530495, 42.9339604], [-122.1529578, 42.9339248], [-122.1528433, 42.9338654], [-122.1528411, 42.9338361], [-122.1527036, 42.9336933], [-122.152645, 42.9335855], [-122.1525722, 42.9334105], [-122.1524875, 42.9332761], [-122.1524479, 42.9332049], [-122.1524136, 42.9331605], [-122.1523427, 42.9331464], [-122.1522553, 42.933147], [-122.1521135, 42.9331977], [-122.1519899, 42.9332313], [-122.1519385, 42.9332753], [-122.1518756, 42.9332887], [-122.1517871, 42.9333107], [-122.1516476, 42.9333518], [-122.151549, 42.9334401], [-122.1514663, 42.9335786], [-122.1513938, 42.9337059], [-122.1513617, 42.9337698], [-122.1513239, 42.9338125], [-122.1512832, 42.9339606], [-122.1512203, 42.9340133], [-122.1512114, 42.9340487], [-122.1512194, 42.9340723], [-122.1511327, 42.9341604], [-122.1510892, 42.9342009], [-122.1510559, 42.9342059], [-122.1509965, 42.9342746], [-122.1509495, 42.9343139], [-122.1508744, 42.9343552], [-122.1508498, 42.9343773], [-122.1508001, 42.9343848], [-122.1507537, 42.9344253], [-122.1507204, 42.9344109], [-122.1507255, 42.9343848], [-122.1507373, 42.9343623], [-122.150721, 42.9343444], [-122.150626, 42.9343427], [-122.1504956, 42.9343059], [-122.1504097, 42.9342577], [-122.1503142, 42.9342279], [-122.1502331, 42.9342099], [-122.1501898, 42.9341935], [-122.1500921, 42.9341795], [-122.14997, 42.9341622], [-122.1499203, 42.9341651], [-122.1498286, 42.9341642], [-122.1496716, 42.9341686], [-122.1495707, 42.9341436], [-122.1494665, 42.9341079], [-122.1494356, 42.9340738], [-122.149379, 42.9340604], [-122.1493535, 42.9340776], [-122.1492455, 42.934053], [-122.1491924, 42.9340529], [-122.1491146, 42.9340452], [-122.1490373, 42.9340579], [-122.1489451, 42.9341186], [-122.1488984, 42.9341778], [-122.1488794, 42.9342077], [-122.1488424, 42.9342455], [-122.1487811, 42.9342643], [-122.14873, 42.9342857]], [[-122.1561107, 42.9552309], [-122.1561147, 42.9551544], [-122.1560839, 42.9551279], [-122.1560048, 42.9551632], [-122.1559525, 42.9552516], [-122.1559793, 42.9552888], [-122.156049, 42.9552938], [-122.1561107, 42.9552309]], [[-122.1568274, 42.9436187], [-122.1566901, 42.943637], [-122.1565651, 42.9436561], [-122.1563826, 42.9436707], [-122.1562953, 42.9436743], [-122.1562151, 42.9436791], [-122.1560953, 42.9437207], [-122.1560496, 42.9437792], [-122.156066, 42.9438732], [-122.1561727, 42.9439705], [-122.1562602, 42.9440025], [-122.1563191, 42.9440083], [-122.1563858, 42.9440246], [-122.1564624, 42.9440246], [-122.1565366, 42.9440174], [-122.1566651, 42.9439631], [-122.1568517, 42.9438637], [-122.1568919, 42.9437793], [-122.1569839, 42.9437131], [-122.1570738, 42.9436761], [-122.1570815, 42.9436122], [-122.1570179, 42.9435962], [-122.1569235, 42.9436119], [-122.1568274, 42.9436187]], [[-122.15833, 42.9427081], [-122.1583177, 42.9425923], [-122.1581867, 42.9423227], [-122.1581125, 42.9423191], [-122.1579716, 42.9423643], [-122.1578134, 42.9425471], [-122.1577541, 42.9426466], [-122.1577442, 42.9427027], [-122.1576271, 42.9427701], [-122.1575935, 42.9428673], [-122.1575008, 42.9429599], [-122.157451, 42.9430143], [-122.1573766, 42.9430598], [-122.1573027, 42.9431208], [-122.1572709, 42.9431721], [-122.1571831, 42.9432819], [-122.1570878, 42.9433625], [-122.1570329, 42.9434652], [-122.1570253, 42.943536], [-122.1570951, 42.9435584], [-122.1571661, 42.9435677], [-122.1572607, 42.9435057], [-122.1573883, 42.9434391], [-122.1577294, 42.9433287], [-122.1580384, 42.9431858], [-122.1581546, 42.943117], [-122.1582386, 42.9430193], [-122.1582905, 42.9429813], [-122.1583498, 42.9428746], [-122.1583646, 42.9428203], [-122.1583572, 42.9427624], [-122.15833, 42.9427081]], [[-122.1584355, 42.9431335], [-122.1584027, 42.9431241], [-122.1583084, 42.9431443], [-122.1582249, 42.9432104], [-122.1580518, 42.943328], [-122.1580019, 42.943353], [-122.1579586, 42.9433599], [-122.1579085, 42.9433689], [-122.1578136, 42.9433751], [-122.1577255, 42.9434058], [-122.1575722, 42.9434275], [-122.1575179, 42.9434637], [-122.1575006, 42.9435144], [-122.1573819, 42.9435795], [-122.1573374, 42.9436229], [-122.1573003, 42.9437261], [-122.157241, 42.9438256], [-122.1572707, 42.9439305], [-122.1573127, 42.9439721], [-122.1574338, 42.9440282], [-122.1576563, 42.9440481], [-122.1580419, 42.9438925], [-122.1583879, 42.9436627], [-122.1584744, 42.9435723], [-122.1586771, 42.943518], [-122.1587216, 42.9434746], [-122.1587842, 42.9434185], [-122.1588043, 42.9433437], [-122.1587425, 42.9433106], [-122.1587674, 42.9432738], [-122.1587219, 42.9432451], [-122.1586185, 42.9432151], [-122.1585393, 42.9431474], [-122.1585249, 42.9430803], [-122.1585803, 42.9430286], [-122.1586237, 42.9430098], [-122.1586138, 42.9429646], [-122.1585437, 42.9429703], [-122.158468, 42.9430049], [-122.1584128, 42.943053], [-122.1584459, 42.9431128], [-122.1584355, 42.9431335]], [[-122.158977, 42.9413162], [-122.1589604, 42.9412506], [-122.1589069, 42.9411966], [-122.1588511, 42.941181], [-122.1588148, 42.941158], [-122.1587268, 42.9411486], [-122.1584404, 42.9411411], [-122.1583959, 42.941135], [-122.1582201, 42.9410911], [-122.1581622, 42.9411411], [-122.1580933, 42.9411733], [-122.1580512, 42.9412187], [-122.1581229, 42.9415455], [-122.1581138, 42.9415881], [-122.1581483, 42.9416461], [-122.158262, 42.9416667], [-122.1583186, 42.9416838], [-122.1584338, 42.9416594], [-122.158664, 42.9415589], [-122.158704, 42.9415308], [-122.1588306, 42.9415154], [-122.1589095, 42.9414606], [-122.1589892, 42.9413851], [-122.158977, 42.9413162]], [[-122.1585023, 42.9419494], [-122.158447, 42.9419941], [-122.1583951, 42.9420674], [-122.1583622, 42.9421091], [-122.1583697, 42.9422025], [-122.1583766, 42.9422451], [-122.158358, 42.9422692], [-122.1584195, 42.9423264], [-122.1584554, 42.9423651], [-122.1585046, 42.9423851], [-122.1585402, 42.9424072], [-122.1586401, 42.9424277], [-122.158662, 42.9424668], [-122.1586566, 42.9424939], [-122.158659, 42.9425231], [-122.1587101, 42.9425562], [-122.1587902, 42.9425777], [-122.1588659, 42.9425679], [-122.1589259, 42.9425496], [-122.1589654, 42.9425358], [-122.1589858, 42.9424902], [-122.1589732, 42.9424542], [-122.1589818, 42.942421], [-122.1589458, 42.9423557], [-122.1589018, 42.9422938], [-122.158835, 42.9422488], [-122.1588134, 42.9422129], [-122.1588365, 42.9421556], [-122.1588497, 42.9420207], [-122.1587914, 42.9419441], [-122.1587316, 42.9419113], [-122.1586372, 42.9419164], [-122.158579, 42.9419185], [-122.1585023, 42.9419494]]]]}, "properties": {"id": "crater_lake", "name": "Crater Lake", "osm": ["relation/147401"], "found_by": "name", "area_km2": 53.1071}}]}