{"type": "FeatureCollection", "features": [{"type": "Feature", "geometry": {"type": "MultiPolygon", "coordinates": [[[[-121.1319689, 48.7127468], [-121.1317078, 48.7129249], [-121.1314593, 48.7131697], [-121.1312866, 48.7134452], [-121.1312655, 48.7137485], [-121.1313498, 48.7139878], [-121.1314551, 48.7141993], [-121.1316948, 48.7144764], [-121.1319843, 48.7146281], [-121.1325734, 48.7152679], [-121.1325273, 48.7152829], [-121.132441, 48.7152625], [-121.1324534, 48.7152412], [-121.1323507, 48.7152183], [-121.1322311, 48.7154356], [-121.1323266, 48.7154597], [-121.1323417, 48.7154379], [-121.1324228, 48.7154561], [-121.1323785, 48.715512], [-121.1323071, 48.7155687], [-121.1318485, 48.7158241], [-121.1312316, 48.7162668], [-121.1309336, 48.716442], [-121.1308191, 48.7165195], [-121.130592, 48.7166633], [-121.1295113, 48.7172477], [-121.1290818, 48.7175838], [-121.1288021, 48.7177486], [-121.1286523, 48.7179001], [-121.1283926, 48.7180583], [-121.1279831, 48.7182165], [-121.1275735, 48.7183417], [-121.1271741, 48.718401], [-121.1267446, 48.7185658], [-121.1261753, 48.7187569], [-121.1257558, 48.7188953], [-121.1253762, 48.7189085], [-121.124677, 48.7189941], [-121.1242775, 48.719126], [-121.1232687, 48.7193039], [-121.123049, 48.7193633], [-121.1229791, 48.7194884], [-121.1229192, 48.719673], [-121.1228493, 48.7197323], [-121.1228592, 48.7199103], [-121.1227294, 48.7200355], [-121.1224996, 48.7200882], [-121.12223, 48.7201343], [-121.1218804, 48.7200355], [-121.1216906, 48.7199234], [-121.1214609, 48.7197257], [-121.1214209, 48.7195675], [-121.1214309, 48.7192973], [-121.1209939, 48.719198], [-121.1203622, 48.7191721], [-121.1201225, 48.7191655], [-121.1200925, 48.7190535], [-121.1198827, 48.7189547], [-121.1196531, 48.718948], [-121.1193234, 48.7189744], [-121.1191237, 48.7188689], [-121.1191436, 48.7187569], [-121.1187741, 48.7187107], [-121.1187741, 48.7185658], [-121.1185643, 48.7184406], [-121.1185943, 48.7182494], [-121.1185144, 48.7180254], [-121.1186243, 48.7178606], [-121.1189538, 48.7179133], [-121.1190737, 48.7178078], [-121.1191336, 48.7176431], [-121.118864, 48.7173004], [-121.1187042, 48.7171489], [-121.1183746, 48.7170104], [-121.1178651, 48.7169775], [-121.1176954, 48.7171158], [-121.1174656, 48.7173598], [-121.1172159, 48.7173531], [-121.1168963, 48.7175179], [-121.1166865, 48.7173992], [-121.1167865, 48.7172608], [-121.1168663, 48.7169511], [-121.1167865, 48.7166348], [-121.1168264, 48.7164041], [-121.1167865, 48.7161339], [-121.1164468, 48.7159823], [-121.1160973, 48.7159032], [-121.1159075, 48.7158241], [-121.1158176, 48.7156594], [-121.1156278, 48.7154617], [-121.115478, 48.7154748], [-121.115478, 48.7156396], [-121.1152982, 48.7155737], [-121.1146989, 48.7153892], [-121.1143593, 48.7153825], [-121.1136002, 48.7152837], [-121.1132407, 48.7152244], [-121.112951, 48.71531], [-121.1126114, 48.7152639], [-121.1119522, 48.7150531], [-121.1111931, 48.7147236], [-121.110414, 48.7143874], [-121.1102442, 48.7142292], [-121.1097848, 48.7140776], [-121.1091156, 48.7139458], [-121.1085163, 48.713992], [-121.1083465, 48.7139326], [-121.1074675, 48.7140843], [-121.107128, 48.7141304], [-121.1069982, 48.7142952], [-121.106319, 48.7144071], [-121.1054001, 48.7144006], [-121.1050804, 48.7143874], [-121.1047308, 48.7143479], [-121.1044412, 48.7142952], [-121.1042714, 48.7141831], [-121.1040517, 48.7141502], [-121.1037021, 48.7142358], [-121.1034823, 48.7144335], [-121.1033125, 48.7147169], [-121.1032426, 48.7150333], [-121.1031328, 48.7154155], [-121.102863, 48.7157517], [-121.1026533, 48.7159955], [-121.1023437, 48.7162196], [-121.1019542, 48.7162921], [-121.1017643, 48.7163843], [-121.1015146, 48.7166084], [-121.1013809, 48.7167425], [-121.1013449, 48.7167797], [-121.1008454, 48.7172741], [-121.1006158, 48.7173465], [-121.100426, 48.7175113], [-121.1002362, 48.7176036], [-121.1000464, 48.717564], [-121.0996668, 48.7173795], [-121.0994971, 48.7172938], [-121.0990476, 48.7173136], [-121.0988178, 48.7173465], [-121.0985382, 48.71705], [-121.0982645, 48.7166676], [-121.0982086, 48.7165886], [-121.097909, 48.7164436], [-121.0976193, 48.7163646], [-121.0973497, 48.7162789], [-121.0972398, 48.7161339], [-121.09701, 48.7159823], [-121.0968602, 48.7157253], [-121.0965206, 48.7156198], [-121.0963109, 48.7153892], [-121.0961111, 48.715231], [-121.0959113, 48.7150333], [-121.0958514, 48.7147828], [-121.0956716, 48.7145719], [-121.0954619, 48.7144138], [-121.0952222, 48.7144006], [-121.0952022, 48.7141435], [-121.0952222, 48.7138668], [-121.0949325, 48.7136954], [-121.0947028, 48.7137547], [-121.0942633, 48.7135965], [-121.0938738, 48.71359], [-121.0936141, 48.7136624], [-121.0933644, 48.7137943], [-121.0931646, 48.7138074], [-121.0929449, 48.7136361], [-121.0929748, 48.7134713], [-121.092845, 48.7132341], [-121.0924355, 48.7130034], [-121.0922058, 48.71301], [-121.0917863, 48.7129178], [-121.0914167, 48.7130891], [-121.0908174, 48.7128914], [-121.0901382, 48.7127464], [-121.0901282, 48.7124366], [-121.0898386, 48.7123773], [-121.0897288, 48.7122521], [-121.0895589, 48.7122454], [-121.0892493, 48.712318], [-121.0888497, 48.7122125], [-121.0885102, 48.7122652], [-121.0880707, 48.71214], [-121.087751, 48.7119226], [-121.0872916, 48.7118566], [-121.0868321, 48.7118435], [-121.0867023, 48.7117709], [-121.0865225, 48.7117446], [-121.0863327, 48.7118171], [-121.0861031, 48.7119555], [-121.0854967, 48.7117342], [-121.0847846, 48.7114744], [-121.0848945, 48.7111976], [-121.0851641, 48.7109999], [-121.0857335, 48.7108088], [-121.0862928, 48.7106901], [-121.0867323, 48.7106901], [-121.0871019, 48.7107824], [-121.0875314, 48.710901], [-121.087781, 48.710934], [-121.0883703, 48.7108351], [-121.0888098, 48.7108681], [-121.0890595, 48.7109999], [-121.0892993, 48.7111712], [-121.0893192, 48.7112898], [-121.089489, 48.7114612], [-121.0897587, 48.711514], [-121.0900084, 48.7114415], [-121.090268, 48.7115205], [-121.0903779, 48.7116787], [-121.0905378, 48.7118566], [-121.0907875, 48.712028], [-121.0909772, 48.7120807], [-121.0912669, 48.7120346], [-121.0915565, 48.7118105], [-121.0917962, 48.711738], [-121.092026, 48.7117182], [-121.0921958, 48.7117776], [-121.0926053, 48.7117776], [-121.0927251, 48.7118962], [-121.0927551, 48.7119885], [-121.0928549, 48.71214], [-121.0932245, 48.7121862], [-121.0937739, 48.7121335], [-121.0944631, 48.7119818], [-121.0949225, 48.7118962], [-121.0952521, 48.7119424], [-121.0955817, 48.7120543], [-121.0965306, 48.7122521], [-121.09702, 48.7122587], [-121.0975094, 48.7123246], [-121.0979389, 48.7122785], [-121.0983584, 48.712061], [-121.098768, 48.7117644], [-121.0990376, 48.7115667], [-121.0991175, 48.7116523], [-121.0993373, 48.7118171], [-121.0998466, 48.7120741], [-121.1003561, 48.7121137], [-121.1005758, 48.7120478], [-121.1005158, 48.7118105], [-121.100346, 48.7115601], [-121.1004559, 48.7114546], [-121.1007356, 48.7117117], [-121.1008754, 48.7118896], [-121.1010053, 48.7121335], [-121.1012649, 48.7121927], [-121.1016445, 48.7121993], [-121.1019841, 48.7120676], [-121.1023237, 48.7117644], [-121.1026933, 48.7114481], [-121.1029729, 48.7111778], [-121.1033624, 48.7110395], [-121.1035123, 48.7108615], [-121.1034623, 48.7107099], [-121.1031827, 48.7106111], [-121.102873, 48.7106638], [-121.1024036, 48.7105913], [-121.101245, 48.7102947], [-121.1009853, 48.7102683], [-121.1007856, 48.7103606], [-121.1005358, 48.7103277], [-121.0999864, 48.710097], [-121.0994271, 48.7096884], [-121.0991575, 48.7094446], [-121.0990476, 48.7091875], [-121.098758, 48.7088053], [-121.0982885, 48.7083175], [-121.0980687, 48.7080276], [-121.0981487, 48.707698], [-121.0981287, 48.7072367], [-121.0981287, 48.7068017], [-121.0982086, 48.7063536], [-121.0983184, 48.7059911], [-121.0980488, 48.7056484], [-121.0979689, 48.7052464], [-121.0977891, 48.7047586], [-121.0977691, 48.7045609], [-121.0979389, 48.7043303], [-121.097829, 48.7039744], [-121.0977392, 48.7034801], [-121.0977991, 48.7029331], [-121.0979789, 48.7024256], [-121.0980088, 48.7021422], [-121.0982086, 48.7019511], [-121.0979789, 48.70176], [-121.0981087, 48.7014173], [-121.0981187, 48.7010878], [-121.0979489, 48.7006265], [-121.0977192, 48.7002639], [-121.0974295, 48.6997367], [-121.09706, 48.6992952], [-121.0969101, 48.6989788], [-121.0969001, 48.6987349], [-121.0967203, 48.6981286], [-121.0969202, 48.6978584], [-121.0968402, 48.697575], [-121.0964308, 48.697028], [-121.0963209, 48.6965205], [-121.0963726, 48.6963427], [-121.0963672, 48.6959886], [-121.09626, 48.6958293], [-121.0959812, 48.6955979], [-121.0959313, 48.6953672], [-121.0958115, 48.695176], [-121.0959213, 48.6948663], [-121.0960347, 48.6945262], [-121.0960347, 48.6942005], [-121.0959113, 48.693825], [-121.0958523, 48.6935843], [-121.0955318, 48.6929024], [-121.0955733, 48.6928088], [-121.0955036, 48.6927274], [-121.0952944, 48.6926389], [-121.0950851, 48.6924547], [-121.0950583, 48.6923308], [-121.0950476, 48.6921467], [-121.0949824, 48.691927], [-121.0948327, 48.6916501], [-121.0950324, 48.6914854], [-121.095312, 48.6912943], [-121.0950724, 48.6910833], [-121.0949325, 48.6910966], [-121.0944731, 48.6913338], [-121.0942433, 48.6913404], [-121.0935641, 48.6912745], [-121.0930548, 48.691202], [-121.0926752, 48.6909449], [-121.0920859, 48.6904441], [-121.0914766, 48.6899564], [-121.091137, 48.689818], [-121.0905844, 48.6897387], [-121.0902679, 48.6896077], [-121.0896885, 48.6892677], [-121.0895383, 48.6890552], [-121.0893077, 48.6888392], [-121.0889965, 48.688648], [-121.0887, 48.6885988], [-121.0883603, 48.6884735], [-121.0880148, 48.6881486], [-121.087791, 48.687887], [-121.0870619, 48.687307], [-121.0867722, 48.6871883], [-121.0865074, 48.6871535], [-121.086427, 48.6870933], [-121.086427, 48.6870118], [-121.0864753, 48.6869339], [-121.0866791, 48.6867923], [-121.0867328, 48.6867108], [-121.0867167, 48.6866187], [-121.0866333, 48.6865496], [-121.0863528, 48.6864436], [-121.0862553, 48.6863779], [-121.0862016, 48.6862727], [-121.0861909, 48.6859919], [-121.0862178, 48.6858254], [-121.0863283, 48.6857332], [-121.086427, 48.6856944], [-121.0864323, 48.6856023], [-121.0862928, 48.6853892], [-121.086123, 48.6848488], [-121.0858733, 48.6845192], [-121.0853595, 48.6841361], [-121.0847527, 48.683792], [-121.084823, 48.6836155], [-121.0848146, 48.6834136], [-121.0846674, 48.6832932], [-121.0845942, 48.6831377], [-121.0845709, 48.682978], [-121.0846514, 48.6828151], [-121.0847908, 48.6824609], [-121.084879, 48.6823204], [-121.0849815, 48.6819829], [-121.0849786, 48.6818552], [-121.0849249, 48.6816959], [-121.085043, 48.6815542], [-121.0853487, 48.6814763], [-121.0857081, 48.6815294], [-121.0861856, 48.6816604], [-121.0865549, 48.6818233], [-121.0867006, 48.6819615], [-121.0870727, 48.6823898], [-121.0873979, 48.6826274], [-121.0877574, 48.6829851], [-121.0879666, 48.6831161], [-121.0883104, 48.6831747], [-121.0885002, 48.6833856], [-121.0889896, 48.6837613], [-121.0895789, 48.683992], [-121.0902881, 48.6841897], [-121.0910771, 48.6844599], [-121.0912871, 48.6845434], [-121.0912898, 48.6846248], [-121.0911208, 48.6846815], [-121.0909713, 48.6847549], [-121.0908687, 48.6848763], [-121.09109, 48.6853512], [-121.0913686, 48.6858354], [-121.0915977, 48.6861456], [-121.0917011, 48.6862843], [-121.0918397, 48.6863574], [-121.0920457, 48.6864238], [-121.0922366, 48.6865869], [-121.0923987, 48.6868457], [-121.0925254, 48.6870829], [-121.0929549, 48.6874125], [-121.0932645, 48.6875904], [-121.0935129, 48.6877187], [-121.0935262, 48.6877938], [-121.0936092, 48.6879507], [-121.0935899, 48.6881449], [-121.0937681, 48.6883576], [-121.0937334, 48.6885091], [-121.0938351, 48.6887149], [-121.0940972, 48.688998], [-121.0942667, 48.6891424], [-121.0942324, 48.6892474], [-121.0941086, 48.6894518], [-121.0941406, 48.6895117], [-121.0942132, 48.6895049], [-121.0943817, 48.6892633], [-121.0944963, 48.6892022], [-121.0946679, 48.6893523], [-121.0949712, 48.6895187], [-121.0949499, 48.6896701], [-121.0951574, 48.6897664], [-121.0951646, 48.6898205], [-121.0952417, 48.6898634], [-121.0952721, 48.6899432], [-121.0955453, 48.68997], [-121.0956069, 48.690035], [-121.0957534, 48.6900375], [-121.0958007, 48.6900899], [-121.095819, 48.6901101], [-121.0959051, 48.6901218], [-121.0959435, 48.6901376], [-121.0958917, 48.6902555], [-121.0957255, 48.6903779], [-121.0957161, 48.690493], [-121.0957503, 48.6906638], [-121.0959021, 48.6907095], [-121.0958156, 48.6908464], [-121.0957357, 48.6909225], [-121.0959012, 48.6910703], [-121.0959866, 48.691067], [-121.0963698, 48.6909327], [-121.0965191, 48.6909463], [-121.0966372, 48.690965], [-121.0967048, 48.690956], [-121.0967893, 48.6909305], [-121.0968276, 48.6909449], [-121.0969032, 48.6909938], [-121.09699, 48.6910445], [-121.0971348, 48.6910811], [-121.0974233, 48.6910904], [-121.0978712, 48.6910821], [-121.0983616, 48.6910692], [-121.0987207, 48.6911654], [-121.0988139, 48.6913461], [-121.098632, 48.6915698], [-121.0987741, 48.6918445], [-121.0989593, 48.6917966], [-121.0994666, 48.6919102], [-121.0992465, 48.6921118], [-121.0991534, 48.6922706], [-121.0994798, 48.69242], [-121.0996596, 48.6924357], [-121.0997013, 48.6928007], [-121.099803, 48.6930332], [-121.1002062, 48.6932538], [-121.1001581, 48.693402], [-121.1004087, 48.6935314], [-121.1006344, 48.6934866], [-121.1007997, 48.6937896], [-121.1007578, 48.6939436], [-121.1006421, 48.6941465], [-121.1005576, 48.6943519], [-121.1005658, 48.6944709], [-121.1005358, 48.6947345], [-121.1004959, 48.694952], [-121.1006257, 48.695176], [-121.1005658, 48.6954133], [-121.1005059, 48.6957428], [-121.1004159, 48.6958615], [-121.100376, 48.6960328], [-121.1004459, 48.6962898], [-121.100396, 48.6964085], [-121.1004559, 48.6965403], [-121.1005258, 48.6972587], [-121.1005258, 48.6975882], [-121.1004559, 48.6978453], [-121.1003161, 48.6980759], [-121.1003061, 48.6983593], [-121.1003261, 48.6986954], [-121.1003061, 48.6989195], [-121.1004459, 48.6991435], [-121.1006158, 48.6993479], [-121.1006357, 48.6996313], [-121.1005758, 48.6998751], [-121.1003561, 48.7001322], [-121.1003561, 48.7003892], [-121.1003661, 48.7006857], [-121.1004559, 48.7010943], [-121.100426, 48.7015096], [-121.1003161, 48.7017732], [-121.1003061, 48.7020764], [-121.1002761, 48.7023597], [-121.1000464, 48.7024323], [-121.1000364, 48.7026036], [-121.1002962, 48.7026761], [-121.1004759, 48.7028606], [-121.1004659, 48.7030912], [-121.1005758, 48.7032956], [-121.1008754, 48.7038294], [-121.1010452, 48.7041194], [-121.1014048, 48.7043106], [-121.1016645, 48.7044225], [-121.1018243, 48.7046136], [-121.1019441, 48.7048378], [-121.1024236, 48.7050223], [-121.1030029, 48.7054243], [-121.1032126, 48.7056945], [-121.1033725, 48.7059977], [-121.1034923, 48.7064194], [-121.1035722, 48.7067424], [-121.1036621, 48.707072], [-121.103772, 48.7072829], [-121.1036821, 48.707619], [-121.1034223, 48.7076321], [-121.1031527, 48.7077046], [-121.102893, 48.7079287], [-121.1028431, 48.7081858], [-121.1030129, 48.7083241], [-121.1032126, 48.7086536], [-121.1033425, 48.7087723], [-121.1034923, 48.7089436], [-121.103752, 48.7090952], [-121.1040416, 48.7092006], [-121.1043113, 48.7091809], [-121.1046709, 48.709115], [-121.1048707, 48.70897], [-121.1051204, 48.7088316], [-121.1053401, 48.7088184], [-121.1057396, 48.7085944], [-121.1057995, 48.7084032], [-121.1060892, 48.7084955], [-121.1063089, 48.7085021], [-121.1065886, 48.708311], [-121.1068184, 48.7081858], [-121.107108, 48.7081923], [-121.1076773, 48.7083571], [-121.107977, 48.7084296], [-121.1083265, 48.7083835], [-121.1083765, 48.7081528], [-121.1084963, 48.7080605], [-121.1084264, 48.7078299], [-121.1084764, 48.7076717], [-121.1087261, 48.7075992], [-121.1089158, 48.7074937], [-121.1090756, 48.7073487], [-121.1092754, 48.7073223], [-121.1094452, 48.7073817], [-121.1096949, 48.7074937], [-121.1098947, 48.7074673], [-121.1100845, 48.7073158], [-121.1102342, 48.7071972], [-121.1106038, 48.7072169], [-121.1107636, 48.7071445], [-121.1109833, 48.7071379], [-121.1110832, 48.7073554], [-121.1116426, 48.707586], [-121.1118524, 48.7075794], [-121.1119422, 48.7074542], [-121.1120621, 48.7074871], [-121.112162, 48.7076124], [-121.1122718, 48.707731], [-121.1123118, 48.7080276], [-121.1127713, 48.7086669], [-121.1131108, 48.7089239], [-121.1134604, 48.7091414], [-121.11381, 48.7093456], [-121.1140198, 48.7094973], [-121.1145691, 48.7094379], [-121.1149486, 48.7093984], [-121.1152383, 48.7094577], [-121.1154081, 48.7094379], [-121.1157676, 48.7093786], [-121.1160274, 48.7094446], [-121.116267, 48.7095038], [-121.1165068, 48.7094446], [-121.1167865, 48.7094709], [-121.1172559, 48.709629], [-121.1178426, 48.7097703], [-121.1181489, 48.7099548], [-121.1185218, 48.7102799], [-121.1190811, 48.7106314], [-121.1198268, 48.710939], [-121.1200799, 48.7112641], [-121.1208389, 48.7119407], [-121.1213184, 48.7122043], [-121.1218511, 48.7125119], [-121.1221973, 48.712547], [-121.123023, 48.712301], [-121.123529, 48.7122483], [-121.1237155, 48.712178], [-121.1237821, 48.7119934], [-121.1242882, 48.7116683], [-121.1245278, 48.711598], [-121.1249674, 48.7115716], [-121.1252603, 48.7114047], [-121.1263656, 48.711229], [-121.1273112, 48.711229], [-121.1280037, 48.7113344], [-121.1282301, 48.7115013], [-121.1291224, 48.7117298], [-121.1300013, 48.71209], [-121.1310001, 48.7123713], [-121.1317192, 48.712591], [-121.1323312, 48.7125353], [-121.1319689, 48.7127468]], [[-121.0853487, 48.6834278], [-121.0853916, 48.6833534], [-121.0854185, 48.6832755], [-121.0854775, 48.6829709], [-121.0854775, 48.6828469], [-121.0854077, 48.6826167], [-121.0853648, 48.6825353], [-121.085279, 48.6825034], [-121.0851771, 48.6825459], [-121.0850912, 48.6826026], [-121.0850269, 48.6826699], [-121.0849732, 48.6827407], [-121.0849518, 48.6828186], [-121.0849625, 48.6829319], [-121.0849571, 48.6830099], [-121.0849625, 48.6830878], [-121.0849893, 48.6831657], [-121.0850376, 48.6832365], [-121.0852307, 48.6834349], [-121.0853487, 48.6834278]], [[-121.0864431, 48.6823369], [-121.086663, 48.6823936], [-121.0870224, 48.6825919], [-121.0872907, 48.6826982], [-121.0872424, 48.6826096], [-121.0867864, 48.6823405], [-121.0867167, 48.6821882], [-121.0867006, 48.6820288], [-121.0865396, 48.68188], [-121.0863787, 48.6817844], [-121.0860461, 48.681664], [-121.0858584, 48.681664], [-121.0858369, 48.6817136], [-121.0858744, 48.6818198], [-121.0859925, 48.681873], [-121.0861123, 48.6819265], [-121.0862187, 48.6820824], [-121.086309, 48.6822094], [-121.0864431, 48.6823369]], [[-121.0869581, 48.6838315], [-121.0869098, 48.6837572], [-121.0868615, 48.6836403], [-121.0867649, 48.6833215], [-121.0867435, 48.6831622], [-121.0867411, 48.6829963], [-121.0866898, 48.6828647], [-121.0865504, 48.6827513], [-121.0863841, 48.6826132], [-121.086266, 48.6824857], [-121.0861266, 48.6823405], [-121.0860354, 48.6822909], [-121.0859281, 48.6822767], [-121.0858852, 48.682344], [-121.0858476, 48.6824219], [-121.0858691, 48.6824999], [-121.0859281, 48.6825849], [-121.085971, 48.6826592], [-121.0860407, 48.6828115], [-121.0860461, 48.6828859], [-121.0860622, 48.6829638], [-121.0861319, 48.6831197], [-121.0861695, 48.683194], [-121.0862124, 48.6833463], [-121.0862231, 48.6834242], [-121.0862714, 48.6835801], [-121.0864162, 48.6837997], [-121.0864538, 48.683874], [-121.0865235, 48.6839307], [-121.0866255, 48.6839697], [-121.0868615, 48.6839909], [-121.0869741, 48.6839732], [-121.087001, 48.6839095], [-121.0869581, 48.6838315]], [[-121.0886264, 48.6845292], [-121.088739, 48.6845469], [-121.0888571, 48.6845611], [-121.0890126, 48.6845894], [-121.0891038, 48.6845222], [-121.0891306, 48.6844407], [-121.0891306, 48.6843557], [-121.0891038, 48.6842778], [-121.0889429, 48.6840511], [-121.0887283, 48.6838351], [-121.0885835, 48.6837005], [-121.0884869, 48.6836403], [-121.0883045, 48.6835234], [-121.0878754, 48.6833357], [-121.0876447, 48.6832578], [-121.0875428, 48.6832082], [-121.0873658, 48.6830878], [-121.0872424, 48.6830736], [-121.0871512, 48.6831232], [-121.0871404, 48.6832011], [-121.0871029, 48.683279], [-121.0870546, 48.6833569], [-121.0870171, 48.6834455], [-121.0870385, 48.6835234], [-121.0871297, 48.6836722], [-121.0872316, 48.6838174], [-121.0873067, 48.6838811], [-121.0873979, 48.6839236], [-121.0875052, 48.683959], [-121.0877198, 48.6840192], [-121.0879344, 48.6841007], [-121.0881007, 48.684214], [-121.0881919, 48.6842636], [-121.0882938, 48.6843097], [-121.0883528, 48.6843769], [-121.0884279, 48.6844407], [-121.0885245, 48.6844938], [-121.0886264, 48.6845292]], [[-121.0899568, 48.6847382], [-121.0901338, 48.6848515], [-121.0903323, 48.684933], [-121.0904771, 48.684979], [-121.0905469, 48.6849188], [-121.0905951, 48.6848444], [-121.0906434, 48.684763], [-121.0906649, 48.6846851], [-121.0905415, 48.6845434], [-121.0904449, 48.6844938], [-121.090343, 48.6844372], [-121.0901231, 48.6843486], [-121.089887, 48.6842919], [-121.0897636, 48.6842955], [-121.0897476, 48.6843734], [-121.0897797, 48.6844442], [-121.0898441, 48.6846001], [-121.089887, 48.684678], [-121.0899568, 48.6847382]], [[-121.1051427, 48.7103604], [-121.1053375, 48.7103555], [-121.1055622, 48.7103604], [-121.1056447, 48.7102863], [-121.1055548, 48.7102221], [-121.105375, 48.7102319], [-121.1052926, 48.7101726], [-121.1051054, 48.7101726], [-121.105008, 48.7102418], [-121.1050304, 48.7103654], [-121.1051427, 48.7103604]], [[-121.1050978, 48.7104988], [-121.1052401, 48.7105285], [-121.105405, 48.7105334], [-121.1054724, 48.7104297], [-121.1052327, 48.710405], [-121.1050978, 48.7104988]], [[-121.1064237, 48.7132521], [-121.1065886, 48.7133115], [-121.1067909, 48.7133214], [-121.1069857, 48.7133312], [-121.1070755, 48.7132274], [-121.1070081, 48.7131088], [-121.1068733, 48.7130494], [-121.1067609, 48.7130643], [-121.1066111, 48.7130099], [-121.1064987, 48.7130148], [-121.1063938, 48.713089], [-121.1064237, 48.7132521]], [[-121.1069781, 48.7129259], [-121.1071055, 48.7130198], [-121.1072703, 48.7130198], [-121.1078171, 48.7128962], [-121.1080344, 48.7127925], [-121.1082367, 48.7126441], [-121.1084015, 48.7125304], [-121.1084914, 48.7124118], [-121.1084539, 48.7123179], [-121.1083191, 48.7123377], [-121.1081468, 48.7124118], [-121.1080344, 48.7124217], [-121.107952, 48.712308], [-121.1078247, 48.7122586], [-121.1076674, 48.7122882], [-121.1072254, 48.7124514], [-121.1069557, 48.7126391], [-121.1068957, 48.7128073], [-121.1069781, 48.7129259]], [[-121.124419, 48.7174111], [-121.1241893, 48.717332], [-121.1241394, 48.7170948], [-121.1241893, 48.7168377], [-121.1241394, 48.7166664], [-121.1240195, 48.7165412], [-121.1237798, 48.7165873], [-121.12362, 48.7167454], [-121.1233603, 48.7171211], [-121.1232803, 48.7171409], [-121.1232005, 48.7176154], [-121.1233603, 48.7177011], [-121.1235401, 48.7176879], [-121.1239696, 48.7178791], [-121.1242293, 48.7181031], [-121.1243791, 48.7181163], [-121.1245589, 48.7179516], [-121.1245789, 48.7177802], [-121.1244889, 48.7175364], [-121.1246488, 48.7174902], [-121.1248585, 48.7174045], [-121.1248086, 48.7173255], [-121.1245589, 48.717365], [-121.124419, 48.7174111]], [[-121.1253679, 48.7163566], [-121.1254678, 48.7164555], [-121.1253779, 48.7166202], [-121.1254978, 48.7166796], [-121.1256875, 48.7164291], [-121.1258574, 48.7162776], [-121.1258673, 48.7161787], [-121.1256875, 48.7161589], [-121.1254079, 48.7162248], [-121.1253679, 48.7163566]]]]}, "properties": {"id": "diablo_lake", "name": "Diablo Lake", "osm": ["relation/443823"], "found_by": "name", "area_km2": 2.8363}}]}