{"type": "FeatureCollection", "features": [{"type": "Feature", "geometry": {"type": "MultiPolygon", "coordinates": [[[[-120.0630601, 38.9137858], [-120.0632573, 38.9137882], [-120.0634822, 38.9138433], [-120.0637071, 38.91392], [-120.0639074, 38.9139967], [-120.0640122, 38.9140806], [-120.0640307, 38.9141693], [-120.0639968, 38.9142437], [-120.0638458, 38.9143635], [-120.0637441, 38.9145002], [-120.0636887, 38.9145577], [-120.0636301, 38.9145817], [-120.0635439, 38.9145913], [-120.0634761, 38.9146608], [-120.063396, 38.9147471], [-120.0632974, 38.914819], [-120.0631865, 38.9148957], [-120.0630848, 38.9150156], [-120.0630755, 38.915145], [-120.0630386, 38.9152841], [-120.0629893, 38.9154543], [-120.06298, 38.9156509], [-120.0629585, 38.9159098], [-120.0628968, 38.9160992], [-120.0628783, 38.9162598], [-120.0628907, 38.9163844], [-120.0629585, 38.9164707], [-120.0630786, 38.916593], [-120.0630909, 38.9166961], [-120.0630909, 38.9167704], [-120.0630262, 38.9168759], [-120.0629554, 38.9169358], [-120.0628783, 38.9170676], [-120.062903, 38.9171755], [-120.0629184, 38.9173769], [-120.0628814, 38.9175854], [-120.0627982, 38.9177796], [-120.0626658, 38.9179642], [-120.0624901, 38.9181823], [-120.0622159, 38.9184604], [-120.0619232, 38.9187097], [-120.0616675, 38.9188631], [-120.0614826, 38.9189782], [-120.0612177, 38.9190957], [-120.0611345, 38.9191652], [-120.0610544, 38.9192275], [-120.0609096, 38.9192994], [-120.0605984, 38.9194097], [-120.0603858, 38.9195248], [-120.0587695, 38.9203146], [-120.0582435, 38.9206147], [-120.055926, 38.9213492], [-120.0553134, 38.9212499], [-120.0550995, 38.921458], [-120.0545057, 38.9214105], [-120.0533899, 38.9211563], [-120.0517012, 38.9204622], [-120.0508723, 38.9200482], [-120.0496214, 38.9186083], [-120.0490596, 38.9161404], [-120.0492758, 38.9128431], [-120.0492916, 38.9126023], [-120.0493097, 38.9123261], [-120.049332, 38.9119858], [-120.0493463, 38.911768], [-120.0493603, 38.9115544], [-120.0493741, 38.9113437], [-120.0494887, 38.9095955], [-120.0496352, 38.9088645], [-120.0497505, 38.9086182], [-120.0498685, 38.9081935], [-120.0499543, 38.9075131], [-120.049933, 38.9068039], [-120.0499275, 38.9061313], [-120.049831, 38.9059226], [-120.0498846, 38.9057139], [-120.0502601, 38.9052672], [-120.0505187, 38.9047866], [-120.0507536, 38.9043029], [-120.0510916, 38.903827], [-120.0526645, 38.9024488], [-120.0530415, 38.9020011], [-120.0531193, 38.9018133], [-120.0533871, 38.9014842], [-120.0537395, 38.9011881], [-120.0539031, 38.9011276], [-120.053989, 38.9011291], [-120.0540668, 38.9011192], [-120.0541553, 38.9009715], [-120.0542719, 38.9008264], [-120.0543752, 38.9006668], [-120.0545107, 38.9005274], [-120.05474, 38.9003886], [-120.054917, 38.9001674], [-120.0549874, 38.9000056], [-120.0550927, 38.8998725], [-120.0552126, 38.8997031], [-120.0556064, 38.8995143], [-120.0558839, 38.8992296], [-120.055955, 38.8992244], [-120.0560194, 38.899193], [-120.0560887, 38.8991853], [-120.0561374, 38.8990981], [-120.0561803, 38.8990396], [-120.0561669, 38.8989655], [-120.0563596, 38.898785], [-120.0564097, 38.8987234], [-120.0567744, 38.8985418], [-120.0567999, 38.898487], [-120.0568402, 38.898297], [-120.0569631, 38.89816], [-120.0570199, 38.8977397], [-120.0570565, 38.897673], [-120.057094, 38.8976763], [-120.0571638, 38.8976603], [-120.0571631, 38.8976283], [-120.0571167, 38.897558], [-120.0571513, 38.897366], [-120.0572505, 38.8970028], [-120.0571837, 38.8965725], [-120.0583852, 38.8892088], [-120.0585654, 38.8887655], [-120.058548, 38.8884494], [-120.0600195, 38.8860066], [-120.0601829, 38.8854259], [-120.0606835, 38.8844075], [-120.0608471, 38.8833406], [-120.0613269, 38.8827257], [-120.0619497, 38.8812046], [-120.0621254, 38.8810161], [-120.062697, 38.8806302], [-120.0631911, 38.880507], [-120.0633279, 38.8804695], [-120.0633962, 38.8804319], [-120.0634445, 38.8803776], [-120.0634888, 38.8803233], [-120.0635639, 38.8802763], [-120.063694, 38.8801615], [-120.063812, 38.880008], [-120.0638857, 38.8799172], [-120.063985, 38.8798535], [-120.0640936, 38.8797971], [-120.0642063, 38.8797324], [-120.064327, 38.8796541], [-120.0644262, 38.8796155], [-120.0646006, 38.8795747], [-120.0647843, 38.8795372], [-120.0649828, 38.8794568], [-120.0651499, 38.8794148], [-120.065528, 38.8794227], [-120.0656906, 38.8794306], [-120.0658695, 38.8794227], [-120.066028, 38.8794148], [-120.0661297, 38.8794053], [-120.066274, 38.8793847], [-120.066335, 38.8793879], [-120.0666521, 38.8794417], [-120.0669143, 38.8794433], [-120.0671969, 38.8794813], [-120.067575, 38.8795224], [-120.0680298, 38.8796269], [-120.0684616, 38.8802594], [-120.068598, 38.8805079], [-120.0691915, 38.8808744], [-120.0693917, 38.881042], [-120.0693534, 38.8811448], [-120.0692799, 38.8811656], [-120.0692992, 38.8812002], [-120.0693502, 38.8812117], [-120.0693629, 38.8812491], [-120.0695885, 38.8811656], [-120.0697008, 38.8811903], [-120.069835, 38.8813894], [-120.0698604, 38.8815592], [-120.0699552, 38.8816342], [-120.0700525, 38.8816412], [-120.0700978, 38.8816167], [-120.0701394, 38.8816498], [-120.0701838, 38.8816626], [-120.0702204, 38.8816334], [-120.0702594, 38.8816391], [-120.0703961, 38.8817216], [-120.0705665, 38.8817309], [-120.0711777, 38.88191], [-120.0712403, 38.88194], [-120.0712604, 38.8819584], [-120.0712915, 38.8819832], [-120.0713065, 38.8820146], [-120.0712974, 38.8820579], [-120.0713072, 38.8820792], [-120.071326, 38.8820877], [-120.0713231, 38.8821082], [-120.0713255, 38.8821266], [-120.0713331, 38.8821472], [-120.0713185, 38.8821616], [-120.0713295, 38.882168], [-120.0713262, 38.8821813], [-120.0713366, 38.8821823], [-120.0713397, 38.8821949], [-120.0713511, 38.8821929], [-120.0713649, 38.8822055], [-120.0713804, 38.8822034], [-120.0713877, 38.8822161], [-120.0713886, 38.8822297], [-120.071394, 38.8822387], [-120.0713842, 38.8822393], [-120.0713814, 38.8822453], [-120.0713869, 38.8822574], [-120.0713857, 38.8822708], [-120.0713998, 38.8822925], [-120.0714368, 38.8822939], [-120.071448, 38.8822803], [-120.0714616, 38.8822978], [-120.0714737, 38.8822898], [-120.0714745, 38.8822669], [-120.0714813, 38.8822593], [-120.0714952, 38.8822513], [-120.0714976, 38.8822356], [-120.0715074, 38.8822328], [-120.0715508, 38.8822523], [-120.0715548, 38.8822771], [-120.0715619, 38.8822854], [-120.0715713, 38.8822863], [-120.0715897, 38.8822759], [-120.0715962, 38.88226], [-120.0716078, 38.882257], [-120.0716083, 38.882247], [-120.0716157, 38.8822409], [-120.0716033, 38.8822241], [-120.0716169, 38.8822156], [-120.0716136, 38.8822067], [-120.0716285, 38.882205], [-120.0716181, 38.8821901], [-120.0716392, 38.882184], [-120.0716408, 38.8821778], [-120.0716315, 38.8821687], [-120.0716331, 38.882141], [-120.0716544, 38.8821402], [-120.0716977, 38.8821693], [-120.0717618, 38.882189], [-120.0718083, 38.8821725], [-120.0718289, 38.8821656], [-120.0721963, 38.88234], [-120.0722541, 38.8824576], [-120.0722268, 38.8826946], [-120.0721495, 38.8828655], [-120.0720907, 38.8828868], [-120.0720683, 38.8830229], [-120.0720027, 38.8830344], [-120.0719955, 38.8830623], [-120.0720274, 38.8831011], [-120.0720426, 38.8831116], [-120.0720524, 38.8831237], [-120.0720405, 38.8831665], [-120.0720445, 38.8831757], [-120.0720347, 38.8831974], [-120.0720397, 38.8832085], [-120.0720716, 38.8832058], [-120.0720676, 38.88322], [-120.0720602, 38.8832293], [-120.0720556, 38.8832487], [-120.0720459, 38.8832577], [-120.0721006, 38.8832899], [-120.0720966, 38.8833095], [-120.07211, 38.8833157], [-120.0721324, 38.8833086], [-120.0721472, 38.8833723], [-120.0721971, 38.8833742], [-120.0722175, 38.8833931], [-120.0722083, 38.8834116], [-120.0722292, 38.8834513], [-120.0722206, 38.8834624], [-120.0722036, 38.8834646], [-120.0722081, 38.8834956], [-120.0722645, 38.8836038], [-120.0723777, 38.883721], [-120.0725399, 38.8839433], [-120.0725257, 38.8839775], [-120.0725607, 38.8840017], [-120.0726065, 38.8840043], [-120.0726421, 38.8840519], [-120.0727197, 38.8840783], [-120.0727383, 38.8840872], [-120.072744, 38.8840976], [-120.0727303, 38.8841089], [-120.0727388, 38.8841333], [-120.0727494, 38.8841349], [-120.0727538, 38.8841442], [-120.0727546, 38.8841699], [-120.0727641, 38.884184], [-120.0727701, 38.8842043], [-120.0727573, 38.8842187], [-120.0727572, 38.8842299], [-120.072762, 38.8842489], [-120.0727657, 38.8842566], [-120.0727911, 38.8842679], [-120.0728012, 38.8842623], [-120.0728093, 38.8842633], [-120.072811, 38.8842742], [-120.0728505, 38.8842889], [-120.0728579, 38.8843036], [-120.0728678, 38.8843151], [-120.07286, 38.8843289], [-120.0728752, 38.8843412], [-120.0728896, 38.8843469], [-120.0729052, 38.8843643], [-120.0729047, 38.8843822], [-120.07292, 38.884389], [-120.0729252, 38.8844074], [-120.0729532, 38.8844062], [-120.0729561, 38.8844293], [-120.0729821, 38.8844482], [-120.0730187, 38.884459], [-120.0730166, 38.8844851], [-120.0730059, 38.8844874], [-120.0730058, 38.8845103], [-120.0730154, 38.8845219], [-120.073073, 38.8845169], [-120.0731185, 38.8846783], [-120.0731398, 38.8848586], [-120.0731325, 38.8848643], [-120.0731062, 38.884885], [-120.072785, 38.8851376], [-120.0727303, 38.8851806], [-120.0726738, 38.8852139], [-120.0726762, 38.885238], [-120.0726237, 38.8852492], [-120.072625, 38.8852864], [-120.0725561, 38.885343], [-120.0725634, 38.8853557], [-120.0724859, 38.8854011], [-120.0724747, 38.8855016], [-120.0724432, 38.8855354], [-120.0724334, 38.8855751], [-120.0724828, 38.8855766], [-120.0724836, 38.8855892], [-120.0725908, 38.8856314], [-120.0726126, 38.8856656], [-120.0726981, 38.8857041], [-120.0727279, 38.8856945], [-120.0727559, 38.8857431], [-120.0727785, 38.885738], [-120.0729156, 38.885865], [-120.0730826, 38.8860081], [-120.0736302, 38.8868686], [-120.0736062, 38.8872483], [-120.0737934, 38.8874504], [-120.0742821, 38.8876295], [-120.0745513, 38.8883889], [-120.074455, 38.8891015], [-120.0738933, 38.88957], [-120.0730715, 38.8912543], [-120.0729972, 38.8914085], [-120.0729653, 38.8915656], [-120.0729335, 38.8916675], [-120.0728662, 38.8917859], [-120.0728662, 38.8918658], [-120.0729158, 38.891943], [-120.0729335, 38.8920366], [-120.0729087, 38.892122], [-120.0727955, 38.89229], [-120.0727282, 38.8924553], [-120.072668, 38.8925738], [-120.0726043, 38.8926537], [-120.0725017, 38.8927611], [-120.0724309, 38.8928685], [-120.0723283, 38.8931192], [-120.072254, 38.8932542], [-120.0722115, 38.8934222], [-120.0722363, 38.8936205], [-120.0723035, 38.8938023], [-120.0723424, 38.8939704], [-120.0723212, 38.8941026], [-120.0722327, 38.894345], [-120.072123, 38.8946012], [-120.0720628, 38.894805], [-120.0720145, 38.8948971], [-120.0718905, 38.895769], [-120.0708623, 38.8972631], [-120.070725, 38.8978902], [-120.0706558, 38.8983666], [-120.0709454, 38.8989378], [-120.0710322, 38.899109], [-120.0699663, 38.902606], [-120.0690866, 38.9044261], [-120.0689256, 38.9048268], [-120.0687513, 38.9051191], [-120.0685608, 38.9054989], [-120.0683624, 38.9058705], [-120.0681531, 38.9061522], [-120.0679573, 38.9063651], [-120.0677589, 38.9066386], [-120.0676462, 38.9067951], [-120.0675523, 38.9069913], [-120.0674236, 38.9072835], [-120.0672922, 38.9074871], [-120.0670461, 38.9079048], [-120.066934, 38.908112], [-120.0668546, 38.9083118], [-120.0667612, 38.9084826], [-120.0665604, 38.9087225], [-120.0664297, 38.9089151], [-120.0662522, 38.9092603], [-120.0661354, 38.9094747], [-120.0660094, 38.9096709], [-120.0656311, 38.9100416], [-120.065491, 38.9102342], [-120.0653789, 38.9103723], [-120.0652014, 38.9105212], [-120.0649493, 38.9106993], [-120.0647438, 38.9108737], [-120.0645381, 38.911072], [-120.0643714, 38.9112808], [-120.0642291, 38.9115054], [-120.0640827, 38.9117426], [-120.0639526, 38.9118786], [-120.0637575, 38.9120336], [-120.0633835, 38.9123531], [-120.0631111, 38.9126537], [-120.0630176, 38.9127612], [-120.0627818, 38.9129415], [-120.0626923, 38.9130301], [-120.0626273, 38.913144], [-120.0626395, 38.913299], [-120.0626395, 38.9134287], [-120.0626639, 38.913473], [-120.062733, 38.9135394], [-120.062789, 38.9136587], [-120.0628691, 38.9137474], [-120.0629461, 38.9137786], [-120.0630601, 38.9137858]]]]}, "properties": {"id": "fallen_leaf", "name": "Fallen Leaf Lake", "osm": ["way/25597557"], "found_by": "name", "area_km2": 5.6592}}]}