{"type": "FeatureCollection", "features": [{"type": "Feature", "geometry": {"type": "MultiPolygon", "coordinates": [[[[-119.1728613, 37.7050484], [-119.1731671, 37.7050718], [-119.173269, 37.705093], [-119.1734326, 37.7051545], [-119.1735131, 37.7052437], [-119.1735238, 37.7052819], [-119.1735104, 37.7053179], [-119.1734621, 37.7053583], [-119.1734004, 37.7055195], [-119.1733575, 37.7055301], [-119.1733146, 37.7057063], [-119.173151, 37.7060479], [-119.1729954, 37.7062198], [-119.1729713, 37.7062686], [-119.17299, 37.7063111], [-119.1731724, 37.7064787], [-119.1731751, 37.7065169], [-119.1731402, 37.70657], [-119.1730571, 37.7066336], [-119.1730383, 37.7067079], [-119.1729686, 37.7067885], [-119.1729257, 37.7069158], [-119.1727942, 37.7070156], [-119.1727674, 37.7071111], [-119.1727111, 37.7071641], [-119.1726708, 37.7072808], [-119.1727084, 37.7074739], [-119.1726387, 37.707631], [-119.1725421, 37.7076734], [-119.1723892, 37.707701], [-119.17207, 37.7076861], [-119.1719198, 37.707614], [-119.1718984, 37.7075694], [-119.1718528, 37.7075673], [-119.1717964, 37.7075376], [-119.171716, 37.7074336], [-119.1717723, 37.707406], [-119.1717777, 37.7073678], [-119.1717508, 37.7073402], [-119.1717052, 37.7073424], [-119.1716382, 37.7074124], [-119.1716436, 37.7074973], [-119.1715953, 37.7075822], [-119.1716677, 37.7077286], [-119.171657, 37.7078092], [-119.1715738, 37.7078729], [-119.1714397, 37.7079323], [-119.1713887, 37.708015], [-119.1713887, 37.7080702], [-119.1713378, 37.7080681], [-119.171311, 37.7080193], [-119.1712895, 37.7080129], [-119.1712278, 37.708032], [-119.1711608, 37.7080235], [-119.1711044, 37.7080787], [-119.1710454, 37.7081042], [-119.1709596, 37.7082103], [-119.1709167, 37.708206], [-119.1708577, 37.7082272], [-119.170737, 37.7081742], [-119.1706324, 37.7081975], [-119.1705626, 37.7082463], [-119.1702622, 37.7083546], [-119.1701362, 37.7083758], [-119.1699216, 37.7084394], [-119.1698357, 37.7084288], [-119.1697419, 37.7084798], [-119.1696078, 37.7085052], [-119.1695005, 37.7085965], [-119.1693664, 37.708605], [-119.1692483, 37.7086898], [-119.1692054, 37.7087577], [-119.1691625, 37.7087747], [-119.1690418, 37.7087365], [-119.1690311, 37.7086432], [-119.1690847, 37.7086071], [-119.1691357, 37.7085434], [-119.1691786, 37.7085222], [-119.1692618, 37.7083864], [-119.1692993, 37.7083652], [-119.1693154, 37.7083333], [-119.1692537, 37.7082654], [-119.1692483, 37.7081975], [-119.1691035, 37.7080766], [-119.1691142, 37.7080384], [-119.1690847, 37.7080108], [-119.1690418, 37.7080087], [-119.1689748, 37.7080978], [-119.1689453, 37.7081721], [-119.1688889, 37.7081933], [-119.1687977, 37.7082676], [-119.1687039, 37.7082803], [-119.1686502, 37.7082294], [-119.1685456, 37.7082357], [-119.1685188, 37.7081318], [-119.1684303, 37.7080044], [-119.1683713, 37.7079556], [-119.1683257, 37.7079556], [-119.1682586, 37.7079959], [-119.1682586, 37.708015], [-119.1682962, 37.7080405], [-119.1683364, 37.7081105], [-119.1682398, 37.7081912], [-119.1681647, 37.7082294], [-119.1681433, 37.7082612], [-119.1680789, 37.7082824], [-119.1680414, 37.7083715], [-119.1680628, 37.7084034], [-119.1680279, 37.7084479], [-119.168044, 37.7084628], [-119.1680923, 37.7084628], [-119.1680816, 37.7085158], [-119.168146, 37.7085434], [-119.1681352, 37.7086198], [-119.1681969, 37.7086495], [-119.1682157, 37.7086856], [-119.1680628, 37.7088426], [-119.167985, 37.7088808], [-119.1679341, 37.7089402], [-119.167808, 37.7089869], [-119.1677436, 37.7090272], [-119.167698, 37.7090209], [-119.1676444, 37.7088999], [-119.1676068, 37.7088851], [-119.1675451, 37.708936], [-119.1674593, 37.7089551], [-119.1673923, 37.7089508], [-119.1673628, 37.7089996], [-119.1672501, 37.7089827], [-119.1671133, 37.7090463], [-119.1670275, 37.7089275], [-119.1669497, 37.7088978], [-119.1667834, 37.7089657], [-119.1666788, 37.7090378], [-119.1665527, 37.7090633], [-119.1665125, 37.7090272], [-119.1665581, 37.7089211], [-119.1665286, 37.7088596], [-119.1664562, 37.7088511], [-119.1663972, 37.7088702], [-119.1663623, 37.7088256], [-119.1662711, 37.7088214], [-119.1661558, 37.708919], [-119.1661289, 37.7090103], [-119.1661102, 37.7090209], [-119.1660672, 37.7090018], [-119.1660458, 37.7090103], [-119.166027, 37.7090654], [-119.1659358, 37.7090824], [-119.1659251, 37.7090973], [-119.1659492, 37.7091291], [-119.1659439, 37.7091503], [-119.1658768, 37.7091736], [-119.1657668, 37.70918], [-119.16574, 37.7092076], [-119.1657588, 37.7092416], [-119.1658017, 37.7092543], [-119.1657534, 37.7093646], [-119.1657695, 37.7094028], [-119.1658124, 37.7094262], [-119.1658124, 37.7094453], [-119.1657266, 37.7095259], [-119.1657588, 37.7096065], [-119.1657534, 37.7096659], [-119.1656998, 37.7097041], [-119.165681, 37.709806], [-119.1656515, 37.7098336], [-119.1655871, 37.7098739], [-119.165504, 37.709893], [-119.1654155, 37.7098994], [-119.1653565, 37.7098718], [-119.1653404, 37.7098378], [-119.1653484, 37.7097826], [-119.1654182, 37.709685], [-119.1654986, 37.7096129], [-119.1654986, 37.7095938], [-119.1654611, 37.7095811], [-119.1653913, 37.7095896], [-119.1652304, 37.7097147], [-119.1651955, 37.7097911], [-119.1651338, 37.7097975], [-119.1651097, 37.7098887], [-119.1650239, 37.7099948], [-119.165099, 37.7100479], [-119.1651902, 37.7100818], [-119.1652063, 37.7101879], [-119.1651928, 37.7102537], [-119.1651365, 37.7103046], [-119.1649836, 37.7103853], [-119.1647637, 37.7105465], [-119.1647959, 37.7105741], [-119.1651687, 37.7106611], [-119.1652948, 37.7107142], [-119.1652599, 37.71078], [-119.165217, 37.7107863], [-119.1651955, 37.7108182], [-119.1651204, 37.7108585], [-119.1650802, 37.7109009], [-119.1649917, 37.7110643], [-119.1648817, 37.7110579], [-119.1648415, 37.7110728], [-119.1648361, 37.711111], [-119.1648871, 37.7111789], [-119.1649514, 37.7112086], [-119.1650721, 37.7111428], [-119.1652572, 37.7111534], [-119.1652787, 37.711164], [-119.165225, 37.7112277], [-119.1652572, 37.7112553], [-119.1653565, 37.7112659], [-119.1654128, 37.7113019], [-119.165512, 37.7112977], [-119.1655308, 37.7113317], [-119.1655308, 37.711408], [-119.1655093, 37.711442], [-119.1653967, 37.7114632], [-119.1653162, 37.7115078], [-119.1653699, 37.7115948], [-119.1653511, 37.7116457], [-119.1652009, 37.7117094], [-119.165107, 37.7117263], [-119.1650614, 37.7117815], [-119.1650265, 37.711877], [-119.1649327, 37.711981], [-119.1648468, 37.7119576], [-119.1648495, 37.7119385], [-119.1649354, 37.711877], [-119.1649354, 37.7118579], [-119.1648442, 37.7118558], [-119.1647986, 37.7119088], [-119.1647315, 37.7119279], [-119.1645867, 37.7118961], [-119.1644338, 37.7119937], [-119.1641951, 37.7121995], [-119.164077, 37.7122016], [-119.1637123, 37.7121168], [-119.1636828, 37.7120892], [-119.1636801, 37.7119958], [-119.1635862, 37.7119449], [-119.1635379, 37.7119703], [-119.1632429, 37.7119937], [-119.1632026, 37.712034], [-119.163141, 37.7120595], [-119.1631061, 37.7121295], [-119.1630283, 37.7121995], [-119.1629854, 37.712225], [-119.1629049, 37.712208], [-119.1628325, 37.7121401], [-119.162854, 37.7120913], [-119.1628218, 37.712068], [-119.1628218, 37.7120467], [-119.1628674, 37.7120107], [-119.162854, 37.7119788], [-119.1628137, 37.7119703], [-119.1627064, 37.7120022], [-119.1626662, 37.7119916], [-119.1626769, 37.7119555], [-119.1627225, 37.7119088], [-119.1627654, 37.7117879], [-119.162921, 37.7117009], [-119.1630229, 37.7115778], [-119.1629988, 37.7115269], [-119.1629452, 37.7114993], [-119.16298, 37.7114293], [-119.1629559, 37.7113847], [-119.16298, 37.7112022], [-119.1629612, 37.711164], [-119.1628942, 37.7111046], [-119.1628459, 37.7110049], [-119.1627815, 37.7110134], [-119.1626823, 37.7109497], [-119.1626126, 37.7109518], [-119.1625589, 37.7108988], [-119.1625589, 37.7108818], [-119.1626608, 37.7108648], [-119.1627038, 37.7108415], [-119.1627467, 37.7107778], [-119.1627494, 37.7107227], [-119.1626126, 37.7106102], [-119.1625938, 37.7105784], [-119.1626233, 37.7105487], [-119.1626018, 37.7105232], [-119.1624945, 37.7105105], [-119.16228, 37.7106038], [-119.1621995, 37.7105168], [-119.1622049, 37.7103832], [-119.1620439, 37.7103004], [-119.161891, 37.7102749], [-119.1618025, 37.7102834], [-119.1616952, 37.7102601], [-119.1616523, 37.7101752], [-119.1614324, 37.7100967], [-119.1614673, 37.7100734], [-119.1615182, 37.7100797], [-119.1615853, 37.7101158], [-119.1617918, 37.7101582], [-119.161824, 37.7101328], [-119.1617972, 37.7100288], [-119.1617462, 37.7099948], [-119.1616765, 37.7099948], [-119.1615853, 37.7100161], [-119.1615477, 37.7100033], [-119.161545, 37.7099842], [-119.1615906, 37.7099248], [-119.1616523, 37.709893], [-119.1617301, 37.709823], [-119.1616282, 37.7096872], [-119.161588, 37.7096766], [-119.1614565, 37.7097381], [-119.1613948, 37.709702], [-119.1613063, 37.7096957], [-119.1611829, 37.7097996], [-119.1611803, 37.7098399], [-119.1612259, 37.7098845], [-119.1612473, 37.7099439], [-119.1611856, 37.7100224], [-119.1612473, 37.7100543], [-119.1612741, 37.7100882], [-119.161301, 37.7101837], [-119.1611749, 37.7102707], [-119.1611105, 37.7102877], [-119.1610703, 37.710398], [-119.1611373, 37.7104765], [-119.1612205, 37.7104235], [-119.161309, 37.7103916], [-119.161427, 37.7104044], [-119.1614753, 37.7104659], [-119.1614646, 37.7105954], [-119.1614136, 37.7106654], [-119.1613707, 37.7106823], [-119.1613466, 37.7107163], [-119.1612956, 37.7108415], [-119.1613653, 37.7108839], [-119.1613546, 37.7110367], [-119.1612634, 37.7110834], [-119.1612151, 37.7110473], [-119.1612071, 37.7110112], [-119.1611266, 37.7109879], [-119.1611159, 37.710954], [-119.1610327, 37.7109391], [-119.1610569, 37.7109073], [-119.1610462, 37.7108563], [-119.160904, 37.7107227], [-119.1609389, 37.7105975], [-119.1609415, 37.710485], [-119.1609335, 37.710468], [-119.1608933, 37.7104595], [-119.1608772, 37.7104065], [-119.1608289, 37.7103704], [-119.1607967, 37.7103195], [-119.1608128, 37.7102665], [-119.160794, 37.710258], [-119.1607243, 37.7103068], [-119.1606572, 37.7103195], [-119.1607592, 37.7103662], [-119.1607726, 37.7104044], [-119.1607618, 37.7105041], [-119.160625, 37.7106611], [-119.1605526, 37.7108309], [-119.1605687, 37.710867], [-119.1606304, 37.7109052], [-119.1608745, 37.7109518], [-119.1609174, 37.7109731], [-119.1609255, 37.7109943], [-119.1608986, 37.711024], [-119.1608933, 37.7110813], [-119.1609147, 37.7111173], [-119.1609818, 37.7111492], [-119.1610032, 37.711181], [-119.1609389, 37.7112319], [-119.1607726, 37.7114187], [-119.1607618, 37.7115332], [-119.1607082, 37.711616], [-119.1606733, 37.7116415], [-119.1606948, 37.7116945], [-119.1606814, 37.7117072], [-119.1606358, 37.7117094], [-119.1605929, 37.7116733], [-119.1605499, 37.7116648], [-119.1605365, 37.7116351], [-119.1605151, 37.7116287], [-119.1604266, 37.7116287], [-119.1604078, 37.7116605], [-119.1604078, 37.7116987], [-119.1604346, 37.7117306], [-119.1604802, 37.7117454], [-119.1605285, 37.7117412], [-119.1605499, 37.7117582], [-119.1605526, 37.7117773], [-119.160507, 37.7118176], [-119.1605365, 37.7118685], [-119.1605902, 37.7119385], [-119.1607055, 37.7120085], [-119.1607511, 37.7120149], [-119.160786, 37.7120001], [-119.1608664, 37.7118855], [-119.1609442, 37.7118791], [-119.1609764, 37.7119067], [-119.1609818, 37.711947], [-119.1609469, 37.7120404], [-119.1609871, 37.7120616], [-119.1610059, 37.7120955], [-119.1609603, 37.7121359], [-119.1609603, 37.7121549], [-119.1610059, 37.7122016], [-119.1610113, 37.7122801], [-119.1609952, 37.7123205], [-119.1608852, 37.7123735], [-119.1608182, 37.7125114], [-119.160845, 37.7126918], [-119.1609228, 37.7127745], [-119.1607779, 37.7128891], [-119.1607028, 37.7129294], [-119.160566, 37.7129549], [-119.1604748, 37.7129422], [-119.160338, 37.7129655], [-119.1601396, 37.7129613], [-119.1594315, 37.7128403], [-119.1593912, 37.7129379], [-119.1593537, 37.7129804], [-119.1593295, 37.7130695], [-119.1593885, 37.7131289], [-119.1594073, 37.713235], [-119.1593537, 37.7132944], [-119.1592491, 37.7133665], [-119.1591659, 37.7133941], [-119.1590318, 37.7133984], [-119.1587716, 37.7133665], [-119.1585436, 37.7133644], [-119.1584793, 37.7133729], [-119.1582325, 37.713479], [-119.1581386, 37.7134917], [-119.15768, 37.7134387], [-119.1575754, 37.713409], [-119.157519, 37.7133623], [-119.1573232, 37.7134005], [-119.1572508, 37.7133962], [-119.1571489, 37.7133665], [-119.157106, 37.7132901], [-119.1570953, 37.7132222], [-119.1569585, 37.7130949], [-119.156886, 37.712991], [-119.1568109, 37.7129528], [-119.1567439, 37.7129549], [-119.1566715, 37.7129973], [-119.1565454, 37.7129804], [-119.1565186, 37.7130058], [-119.1563925, 37.7130504], [-119.1563603, 37.7131374], [-119.1563416, 37.7131501], [-119.1562343, 37.7131798], [-119.1561484, 37.7131819], [-119.1559848, 37.7131204], [-119.1559258, 37.7130716], [-119.155789, 37.7129995], [-119.1557407, 37.71294], [-119.15573, 37.7128361], [-119.1555959, 37.7127894], [-119.1555288, 37.7127936], [-119.1554001, 37.7127682], [-119.1553089, 37.7127257], [-119.1552311, 37.7127639], [-119.1551775, 37.7128467], [-119.1550756, 37.7129188], [-119.1550112, 37.7130398], [-119.15492, 37.7130843], [-119.1548663, 37.7131671], [-119.154684, 37.7131437], [-119.1544238, 37.7130483], [-119.154397, 37.7130164], [-119.1543567, 37.7130249], [-119.1542923, 37.7130971], [-119.1542226, 37.7131246], [-119.1541609, 37.7131416], [-119.1540697, 37.7131437], [-119.1539437, 37.7131098], [-119.153882, 37.713061], [-119.1538176, 37.7130525], [-119.1538096, 37.7130313], [-119.1537747, 37.7130164], [-119.1537076, 37.7130674], [-119.1536486, 37.7131713], [-119.1536647, 37.7132074], [-119.1537076, 37.7132265], [-119.1536996, 37.7132668], [-119.1537559, 37.7133305], [-119.1537371, 37.7133877], [-119.1537827, 37.7134535], [-119.1537935, 37.7135299], [-119.1538364, 37.7136275], [-119.1538954, 37.7137124], [-119.1539195, 37.7137145], [-119.1539437, 37.7137654], [-119.1539758, 37.7140964], [-119.153941, 37.7141431], [-119.1539115, 37.7142365], [-119.1539329, 37.7142704], [-119.1539115, 37.7143447], [-119.1538551, 37.7144126], [-119.1537693, 37.7144741], [-119.1537049, 37.7144932], [-119.1535682, 37.7146163], [-119.153477, 37.7146205], [-119.1533321, 37.7146502], [-119.1532892, 37.7146715], [-119.1532007, 37.7147563], [-119.1530988, 37.7149515], [-119.1530773, 37.7149664], [-119.1529539, 37.7150216], [-119.1528654, 37.7150322], [-119.1527769, 37.7150237], [-119.1526562, 37.7149812], [-119.1525194, 37.7148964], [-119.1524121, 37.7149112], [-119.1522592, 37.7148433], [-119.1521922, 37.7148476], [-119.1521546, 37.7148688], [-119.1521359, 37.7148582], [-119.1521439, 37.714786], [-119.1521224, 37.7147521], [-119.1520849, 37.7147372], [-119.15205, 37.7147606], [-119.1520232, 37.7148751], [-119.1519856, 37.7149303], [-119.1520473, 37.7150194], [-119.1520742, 37.7151234], [-119.1519776, 37.7151828], [-119.1518918, 37.7151977], [-119.1518167, 37.7151616], [-119.1517925, 37.715134], [-119.1516745, 37.7150937], [-119.1516477, 37.7150619], [-119.1515484, 37.7151022], [-119.1514841, 37.7151128], [-119.1514438, 37.7151022], [-119.1513607, 37.7150216], [-119.1513473, 37.7149855], [-119.1513634, 37.7149324], [-119.1513366, 37.7149049], [-119.1513392, 37.7148624], [-119.1512615, 37.714803], [-119.15124, 37.7147542], [-119.1512722, 37.7146417], [-119.1513634, 37.7145314], [-119.1515967, 37.7141261], [-119.1516799, 37.7139246], [-119.1517255, 37.7137548], [-119.151696, 37.7132923], [-119.151704, 37.7131947], [-119.1516718, 37.7131437], [-119.1515672, 37.7130695], [-119.1515619, 37.7130504], [-119.1515699, 37.7130313], [-119.1516396, 37.7130122], [-119.1516665, 37.7129613], [-119.1516423, 37.7129379], [-119.151535, 37.7129188], [-119.1514975, 37.7128764], [-119.1514438, 37.7125921], [-119.1515592, 37.7123799], [-119.1517013, 37.7122653], [-119.1517657, 37.7121868], [-119.1518784, 37.7119958], [-119.1519669, 37.7119109], [-119.1521922, 37.7118367], [-119.1522512, 37.7117539], [-119.1524309, 37.7116372], [-119.1524899, 37.7115736], [-119.1526186, 37.7113529], [-119.1526964, 37.7112638], [-119.1527313, 37.7111513], [-119.1528225, 37.7110982], [-119.1529593, 37.7109349], [-119.1529968, 37.7109115], [-119.1530263, 37.7108606], [-119.1530988, 37.7108521], [-119.1531497, 37.7108097], [-119.1531953, 37.7107969], [-119.1532436, 37.710729], [-119.1533724, 37.7106696], [-119.1535735, 37.7106717], [-119.1536889, 37.710642], [-119.1537854, 37.7106548], [-119.1539866, 37.7105911], [-119.1540965, 37.7104489], [-119.1542065, 37.7102643], [-119.1543058, 37.7101795], [-119.154464, 37.7100882], [-119.1546088, 37.7098951], [-119.1547242, 37.709859], [-119.1548717, 37.7098824], [-119.1549844, 37.7098378], [-119.1551024, 37.7098124], [-119.1551828, 37.7097466], [-119.1552418, 37.7096193], [-119.1552982, 37.7095598], [-119.155325, 37.7095047], [-119.1554967, 37.709388], [-119.1556495, 37.7092225], [-119.1560841, 37.7089572], [-119.1561511, 37.7089317], [-119.1562557, 37.7089317], [-119.1562986, 37.7089148], [-119.1564006, 37.7087429], [-119.1566607, 37.708518], [-119.1567412, 37.7084798], [-119.1570604, 37.7082697], [-119.1575485, 37.7080808], [-119.1576639, 37.7080554], [-119.157798, 37.7079408], [-119.1580287, 37.7078007], [-119.1582191, 37.707718], [-119.1583934, 37.7076182], [-119.1584632, 37.7075906], [-119.1585141, 37.7075864], [-119.1585651, 37.7076013], [-119.1587448, 37.707701], [-119.1587877, 37.7077753], [-119.1588226, 37.7078028], [-119.1588736, 37.7078135], [-119.1589755, 37.7077944], [-119.1590479, 37.7078156], [-119.1591123, 37.7077795], [-119.1592062, 37.7077837], [-119.1592571, 37.7077562], [-119.1593, 37.7077604], [-119.1593698, 37.7077816], [-119.1593885, 37.7078177], [-119.1594797, 37.7078835], [-119.1595039, 37.7078856], [-119.1595763, 37.707841], [-119.159579, 37.7077668], [-119.159638, 37.7077116], [-119.1598472, 37.7077031], [-119.1600081, 37.7078304], [-119.1600966, 37.7078559], [-119.160094, 37.7078962], [-119.1601181, 37.707928], [-119.1601154, 37.7080044], [-119.1600698, 37.7079981], [-119.1600484, 37.7079705], [-119.1600055, 37.7079641], [-119.1598767, 37.7080914], [-119.1598767, 37.7081275], [-119.1599223, 37.7081127], [-119.1599867, 37.7080575], [-119.1600966, 37.7080278], [-119.1603729, 37.7080469], [-119.1603944, 37.7080384], [-119.1604695, 37.7079747], [-119.1606197, 37.7078898], [-119.1606197, 37.7078517], [-119.1605634, 37.7078347], [-119.1605634, 37.7077625], [-119.1605902, 37.7077095], [-119.1606143, 37.7077074], [-119.1606304, 37.7076522], [-119.1606894, 37.7076267], [-119.1607377, 37.7075249], [-119.1608933, 37.7074315], [-119.1611132, 37.7073487], [-119.1614243, 37.7073169], [-119.1615531, 37.7073254], [-119.1617006, 37.7072617], [-119.161773, 37.7072511], [-119.1618454, 37.7072723], [-119.1618991, 37.7073148], [-119.1619715, 37.7073127], [-119.1620386, 37.7073424], [-119.1621754, 37.7073084], [-119.1621378, 37.7072936], [-119.1621351, 37.7072766], [-119.1621807, 37.7072596], [-119.1622344, 37.7072002], [-119.1623068, 37.707196], [-119.1623229, 37.7072108], [-119.1623202, 37.707249], [-119.1623926, 37.7072554], [-119.1625589, 37.7071429], [-119.1627601, 37.7070729], [-119.1630685, 37.7070665], [-119.1630927, 37.7070686], [-119.1631973, 37.7072087], [-119.1631034, 37.7073084], [-119.1631061, 37.7073445], [-119.1634253, 37.7073827], [-119.1634521, 37.7074124], [-119.1634762, 37.7074166], [-119.1635299, 37.7074845], [-119.1635594, 37.7074824], [-119.1636586, 37.7073975], [-119.163774, 37.7073551], [-119.1639429, 37.7073063], [-119.1642192, 37.7073084], [-119.1642675, 37.7072214], [-119.1643479, 37.707215], [-119.164584, 37.7071599], [-119.1646349, 37.7071578], [-119.1647047, 37.7071769], [-119.1647235, 37.7072108], [-119.1647074, 37.7072469], [-119.1647208, 37.7072702], [-119.164812, 37.7072936], [-119.1652036, 37.707128], [-119.1654584, 37.7070941], [-119.1656274, 37.7071471], [-119.1656488, 37.7071429], [-119.1656971, 37.7071047], [-119.1657695, 37.7070877], [-119.1658527, 37.7068585], [-119.1659546, 37.7067355], [-119.1660431, 37.7066718], [-119.1662282, 37.7065869], [-119.1662765, 37.7065318], [-119.1663677, 37.7064702], [-119.1664642, 37.7064617], [-119.1664642, 37.7063832], [-119.1664106, 37.7062835], [-119.1664374, 37.7062495], [-119.1664428, 37.7061455], [-119.1664964, 37.7060967], [-119.1666466, 37.7060564], [-119.1667753, 37.7059885], [-119.166829, 37.7059864], [-119.1669309, 37.7057954], [-119.1669121, 37.7056362], [-119.1669443, 37.7055599], [-119.1670731, 37.7054389], [-119.1672233, 37.705388], [-119.1672662, 37.7053455], [-119.1674674, 37.7052224], [-119.1675264, 37.7051673], [-119.167572, 37.7050866], [-119.167639, 37.7050612], [-119.1676578, 37.7049954], [-119.1676202, 37.7049529], [-119.1676176, 37.7049147], [-119.167698, 37.7048065], [-119.1678348, 37.7047259], [-119.1679502, 37.7046813], [-119.1680253, 37.7046792], [-119.1680789, 37.7046431], [-119.1683096, 37.7045561], [-119.1683364, 37.7045328], [-119.168382, 37.7043821], [-119.1683203, 37.7043418], [-119.1683203, 37.7042675], [-119.1684705, 37.7041572], [-119.1684839, 37.7040829], [-119.1684464, 37.7040701], [-119.168264, 37.7040892], [-119.1681218, 37.7041296], [-119.1680816, 37.704119], [-119.1680172, 37.704068], [-119.1679743, 37.7040044], [-119.1679475, 37.7038983], [-119.1680092, 37.7037455], [-119.1680467, 37.7037264], [-119.1681004, 37.7036436], [-119.1683042, 37.7036075], [-119.1683793, 37.703616], [-119.1684276, 37.7035969], [-119.1684893, 37.7035417], [-119.1685376, 37.7034038], [-119.1686529, 37.7033295], [-119.1687736, 37.7032786], [-119.1690043, 37.7032192], [-119.1690901, 37.7032234], [-119.1692778, 37.7031831], [-119.1694066, 37.703181], [-119.1695192, 37.7031491], [-119.1696534, 37.7031385], [-119.1697419, 37.7031025], [-119.1699055, 37.7030812], [-119.1699511, 37.7030621], [-119.1701335, 37.7030537], [-119.1702381, 37.7030409], [-119.1703293, 37.7030112], [-119.1704044, 37.7030133], [-119.1705894, 37.7029645], [-119.1706753, 37.7029157], [-119.1707182, 37.7028605], [-119.1708496, 37.7028096], [-119.1709542, 37.7028329], [-119.1709784, 37.7028266], [-119.1710776, 37.7027396], [-119.1711983, 37.7026886], [-119.1713727, 37.7027184], [-119.1714612, 37.7026971], [-119.1715819, 37.7027247], [-119.1717321, 37.7027077], [-119.1719842, 37.7027587], [-119.1720057, 37.7027672], [-119.1720137, 37.7027969], [-119.1722229, 37.702799], [-119.1722846, 37.7028436], [-119.1722792, 37.702886], [-119.1722068, 37.7029773], [-119.1722336, 37.7030303], [-119.1722712, 37.7030558], [-119.1724187, 37.703094], [-119.1725904, 37.7032998], [-119.1726413, 37.7033062], [-119.1727406, 37.7031407], [-119.1727996, 37.7031216], [-119.172864, 37.7031258], [-119.1728827, 37.7031831], [-119.1728452, 37.7033019], [-119.1728801, 37.7033614], [-119.1728854, 37.7034123], [-119.1728586, 37.703512], [-119.1728935, 37.7035417], [-119.1729632, 37.7035651], [-119.1730008, 37.7036118], [-119.1730785, 37.7036096], [-119.1731268, 37.7036372], [-119.1732502, 37.7037624], [-119.1733307, 37.7038219], [-119.1733816, 37.703841], [-119.1734031, 37.7038919], [-119.1735908, 37.7040107], [-119.1737008, 37.7041253], [-119.1737142, 37.704206], [-119.1736525, 37.7043078], [-119.1735587, 37.7043991], [-119.1734836, 37.7044479], [-119.173269, 37.7045349], [-119.1729927, 37.7045731], [-119.172762, 37.70452], [-119.1726896, 37.704433], [-119.1726199, 37.7041678], [-119.1724992, 37.7041211], [-119.1723892, 37.7040298], [-119.1723061, 37.7040256], [-119.1722819, 37.7040765], [-119.1723329, 37.7042145], [-119.1724563, 37.704329], [-119.1724885, 37.7043842], [-119.1725689, 37.7044267], [-119.1726601, 37.7046834], [-119.1726682, 37.7047917], [-119.1726413, 37.7048596], [-119.1727835, 37.7050124], [-119.1728613, 37.7050484]], [[-119.1529781, 37.712017], [-119.1529217, 37.7119661], [-119.1528788, 37.7119619], [-119.1527313, 37.7119916], [-119.1526616, 37.7120255], [-119.1525945, 37.7120255], [-119.152565, 37.7120022], [-119.1525248, 37.7119958], [-119.1524497, 37.7120298], [-119.1524497, 37.7121083], [-119.1524792, 37.7121359], [-119.152447, 37.7121592], [-119.1524684, 37.7121953], [-119.1524631, 37.7122335], [-119.1525757, 37.7123035], [-119.1526052, 37.7123035], [-119.1527259, 37.7122547], [-119.1528118, 37.7121422], [-119.152911, 37.7121422], [-119.1529298, 37.7121295], [-119.1529217, 37.7121104], [-119.1529781, 37.712017]], [[-119.1535232, 37.7128817], [-119.1535386, 37.7129008], [-119.1535789, 37.712905], [-119.1536003, 37.7128732], [-119.1535822, 37.7128483], [-119.1535232, 37.7128817]], [[-119.1536513, 37.7129284], [-119.1535769, 37.7129347], [-119.1535608, 37.7129533], [-119.1536426, 37.7129416], [-119.1536513, 37.7129284]], [[-119.1565749, 37.7128934], [-119.1566259, 37.7128785], [-119.1566607, 37.7128488], [-119.1566715, 37.7128297], [-119.1566581, 37.712783], [-119.1566017, 37.7127385], [-119.1565293, 37.7127406], [-119.1564864, 37.7127682], [-119.156473, 37.7128127], [-119.1564837, 37.7128721], [-119.1565749, 37.7128934]], [[-119.1576317, 37.7094835], [-119.1575137, 37.7094368], [-119.1574252, 37.7093455], [-119.1573742, 37.7093413], [-119.1573608, 37.7093561], [-119.1572347, 37.7092734], [-119.1571248, 37.7092713], [-119.1570953, 37.7092394], [-119.1569236, 37.7092055], [-119.1569021, 37.7091715], [-119.1567895, 37.709093], [-119.1567171, 37.7090909], [-119.1566849, 37.7091164], [-119.1566849, 37.7091524], [-119.1568083, 37.70918], [-119.1568512, 37.7092437], [-119.1569129, 37.7092861], [-119.1569343, 37.7093752], [-119.1569719, 37.7093901], [-119.1569799, 37.7094177], [-119.1569826, 37.709545], [-119.1571328, 37.7095153], [-119.1572642, 37.7095195], [-119.1574118, 37.7096235], [-119.1575593, 37.7096617], [-119.1576317, 37.7097402], [-119.1575646, 37.7098803], [-119.1576263, 37.7099185], [-119.1576907, 37.7099121], [-119.157688, 37.7098718], [-119.1576371, 37.7098017], [-119.1576773, 37.7097317], [-119.1576719, 37.7096532], [-119.1577336, 37.7096362], [-119.1577202, 37.7095789], [-119.1576317, 37.7094835]], [[-119.1577819, 37.7093137], [-119.1578087, 37.7092585], [-119.1578651, 37.7092034], [-119.1578436, 37.7091673], [-119.1577122, 37.7091864], [-119.1576183, 37.7091673], [-119.1576076, 37.7091843], [-119.1576183, 37.7092034], [-119.1576666, 37.7092203], [-119.1577068, 37.7093158], [-119.1577524, 37.7093286], [-119.1577819, 37.7093137]], [[-119.1585638, 37.7130843], [-119.1585276, 37.7131236], [-119.1584712, 37.7131628], [-119.1585088, 37.7131883], [-119.1585571, 37.7131841], [-119.1586375, 37.713131], [-119.1585638, 37.7130843]], [[-119.1590332, 37.7097826], [-119.1590077, 37.7097169], [-119.1590184, 37.7096797], [-119.1589098, 37.709632], [-119.1589151, 37.7095662], [-119.1588226, 37.70951], [-119.1587435, 37.7095259], [-119.1587314, 37.7095821], [-119.1587475, 37.7096628], [-119.1587797, 37.7096925], [-119.1588534, 37.7097285], [-119.158899, 37.7097338], [-119.1589889, 37.7097911], [-119.1590211, 37.7097954], [-119.1590332, 37.7097826]], [[-119.159009, 37.7092065], [-119.1591431, 37.709232], [-119.159178, 37.7092235], [-119.1591968, 37.7092002], [-119.1591874, 37.7091832], [-119.159001, 37.709111], [-119.1589554, 37.7091185], [-119.159009, 37.7092065]], [[-119.159237, 37.7098813], [-119.1593161, 37.7099832], [-119.1593282, 37.7099566], [-119.1592973, 37.7098994], [-119.1593134, 37.7098484], [-119.159237, 37.7098813]], [[-119.1594757, 37.709371], [-119.1595106, 37.7094739], [-119.1595991, 37.7094368], [-119.1596246, 37.7093307], [-119.1596045, 37.709302], [-119.1594918, 37.7092797], [-119.1594757, 37.709371]], [[-119.160279, 37.7101795], [-119.1603246, 37.7101688], [-119.1603515, 37.7100755], [-119.1604024, 37.710033], [-119.1603944, 37.7099948], [-119.1603327, 37.7100055], [-119.1603059, 37.7100988], [-119.1601744, 37.7102028], [-119.1600832, 37.7102983], [-119.159992, 37.7103492], [-119.1599706, 37.7104001], [-119.1599974, 37.710432], [-119.1601047, 37.7104341], [-119.160212, 37.7103959], [-119.1603702, 37.7104001], [-119.1606304, 37.7103386], [-119.1605526, 37.7103089], [-119.1603461, 37.7103046], [-119.1602576, 37.7102304], [-119.160279, 37.7101795]], [[-119.1605875, 37.7085095], [-119.1605835, 37.7084585], [-119.1606036, 37.708415], [-119.1605794, 37.7083768], [-119.1605245, 37.7083737], [-119.1603515, 37.7084617], [-119.1603032, 37.7084692], [-119.1602951, 37.7084851], [-119.1602992, 37.7085127], [-119.1603474, 37.7085402], [-119.1603836, 37.7086081], [-119.1604909, 37.7086527], [-119.1605271, 37.7086516], [-119.1606089, 37.7086028], [-119.1606733, 37.7086028], [-119.1606988, 37.7085625], [-119.1606787, 37.7085402], [-119.1605875, 37.7085095]], [[-119.1607504, 37.7122303], [-119.1606365, 37.7121266], [-119.1604826, 37.7120951], [-119.1604712, 37.7122078], [-119.1604883, 37.7123205], [-119.1606764, 37.7124196], [-119.1607504, 37.712352], [-119.1607504, 37.7122303]], [[-119.1612098, 37.709615], [-119.1611695, 37.7095662], [-119.1611749, 37.7095492], [-119.1612554, 37.7094644], [-119.16125, 37.7094431], [-119.1612259, 37.7094368], [-119.1610488, 37.7095089], [-119.1608584, 37.7096214], [-119.1608477, 37.7097614], [-119.1607511, 37.7097381], [-119.1607109, 37.7097529], [-119.160727, 37.7097826], [-119.160794, 37.7097699], [-119.1608745, 37.7098039], [-119.1610944, 37.7097678], [-119.1611534, 37.709736], [-119.1611856, 37.7096872], [-119.1611668, 37.7096511], [-119.1612098, 37.709615]], [[-119.1636506, 37.7076883], [-119.163672, 37.7076967], [-119.1637391, 37.7076755], [-119.1637445, 37.7076416], [-119.163723, 37.7076182], [-119.1636506, 37.7076883]], [[-119.1639784, 37.708753], [-119.1638553, 37.7088287], [-119.1637642, 37.7088972], [-119.1637231, 37.7089874], [-119.1638097, 37.7090126], [-119.1639146, 37.7089297], [-119.1640559, 37.7087854], [-119.1639784, 37.708753]], [[-119.1644204, 37.7080235], [-119.1643158, 37.7080023], [-119.1642353, 37.7080278], [-119.1641468, 37.7079493], [-119.1640502, 37.7079662], [-119.1638866, 37.7080893], [-119.1638759, 37.7081084], [-119.1639054, 37.7081466], [-119.1639107, 37.7081891], [-119.163841, 37.70824], [-119.1638383, 37.7082803], [-119.1640502, 37.7084161], [-119.1638383, 37.7085816], [-119.1638169, 37.7086347], [-119.1637793, 37.7086559], [-119.163782, 37.708675], [-119.163833, 37.708675], [-119.1639322, 37.7085922], [-119.1640154, 37.7085477], [-119.1640824, 37.7085455], [-119.1641736, 37.7084182], [-119.1642407, 37.7084012], [-119.1643265, 37.708344], [-119.1644123, 37.7083312], [-119.1645223, 37.7082294], [-119.1645438, 37.7081211], [-119.1645277, 37.7080851], [-119.1644204, 37.7080235]], [[-119.1638558, 37.7116139], [-119.1639389, 37.7115704], [-119.1641052, 37.71132], [-119.1641065, 37.7112935], [-119.1640368, 37.7112945], [-119.1640019, 37.7113189], [-119.1639161, 37.7114462], [-119.1638316, 37.7114781], [-119.1638182, 37.7115682], [-119.1637914, 37.7116086], [-119.1638558, 37.7116139]], [[-119.1645867, 37.7092288], [-119.1647127, 37.7090994], [-119.1647154, 37.7090612], [-119.1646752, 37.7090081], [-119.1646618, 37.7089933], [-119.1645062, 37.7090124], [-119.1644606, 37.7090018], [-119.1643506, 37.7090506], [-119.1643345, 37.7090824], [-119.1643587, 37.7091079], [-119.1643533, 37.709127], [-119.1642836, 37.7091015], [-119.164128, 37.7091821], [-119.164061, 37.7092373], [-119.1639966, 37.7093561], [-119.1638678, 37.7094453], [-119.1638625, 37.7094622], [-119.1639107, 37.7094728], [-119.1640314, 37.7095577], [-119.1638947, 37.7096681], [-119.1638035, 37.7097911], [-119.1637981, 37.7098569], [-119.1638759, 37.7100436], [-119.163959, 37.7101073], [-119.1638383, 37.7102601], [-119.1638786, 37.7103004], [-119.1639376, 37.7103237], [-119.1639027, 37.7103641], [-119.1639054, 37.7104001], [-119.1639242, 37.7104086], [-119.1639671, 37.7103938], [-119.1640073, 37.710432], [-119.1641843, 37.7104532], [-119.1642353, 37.7104893], [-119.1643024, 37.7104744], [-119.164305, 37.7103938], [-119.1643399, 37.7103428], [-119.1644284, 37.7102771], [-119.1644311, 37.7102198], [-119.164407, 37.7101858], [-119.1645169, 37.7101328], [-119.1645196, 37.7100967], [-119.1644713, 37.7101009], [-119.1643909, 37.7101413], [-119.1643694, 37.7101009], [-119.1643801, 37.7100627], [-119.1644928, 37.7099991], [-119.1645196, 37.7098315], [-119.1644686, 37.7098315], [-119.1644257, 37.7098102], [-119.1644096, 37.7097763], [-119.1644713, 37.7097169], [-119.1645008, 37.7095598], [-119.1645357, 37.7094941], [-119.1646457, 37.7094495], [-119.1647583, 37.7094283], [-119.1647986, 37.7093689], [-119.1647771, 37.7092479], [-119.1646215, 37.70925], [-119.1645947, 37.7092458], [-119.1645867, 37.7092288]], [[-119.1642484, 37.7090346], [-119.1643076, 37.7089625], [-119.1643076, 37.7088832], [-119.1641709, 37.7089661], [-119.1640068, 37.7090599], [-119.1639338, 37.7091284], [-119.1640204, 37.7091464], [-119.1641754, 37.7091068], [-119.1642484, 37.7090346]], [[-119.1645572, 37.7097211], [-119.1647463, 37.7096012], [-119.1649582, 37.70951], [-119.1649501, 37.7094484], [-119.1648924, 37.7094272], [-119.1648428, 37.7094325], [-119.1648079, 37.7095163], [-119.164765, 37.7095333], [-119.1646993, 37.7095906], [-119.1646282, 37.7096118], [-119.164537, 37.7096076], [-119.1645169, 37.7096532], [-119.1645572, 37.7097211]], [[-119.1650346, 37.7092978], [-119.1650198, 37.7093296], [-119.1650333, 37.7093317], [-119.1651124, 37.7092851], [-119.1650292, 37.7092087], [-119.1649783, 37.7092437], [-119.1649273, 37.7093116], [-119.1649461, 37.7093381], [-119.1650346, 37.7092978]], [[-119.1654933, 37.7090347], [-119.1654584, 37.7090718], [-119.1654664, 37.7091004], [-119.1654879, 37.7091004], [-119.1655979, 37.70904], [-119.1655979, 37.7090092], [-119.1655603, 37.7090103], [-119.1654933, 37.7090347]], [[-119.1669685, 37.7084925], [-119.1669792, 37.7085455], [-119.1670248, 37.7085434], [-119.1670972, 37.7084946], [-119.1670945, 37.7084543], [-119.1670114, 37.7084501], [-119.1669685, 37.7084925]], [[-119.1675451, 37.7087004], [-119.1676202, 37.7087111], [-119.167698, 37.7086601], [-119.1677034, 37.708641], [-119.1676793, 37.7086219], [-119.1676015, 37.7086495], [-119.167529, 37.7086495], [-119.167521, 37.7086665], [-119.1675451, 37.7087004]], [[-119.1688755, 37.7040617], [-119.1689251, 37.7040097], [-119.1689144, 37.7039587], [-119.1688406, 37.7038919], [-119.168724, 37.7038537], [-119.1684665, 37.7039492], [-119.1684678, 37.7040521], [-119.1684812, 37.7040648], [-119.1687977, 37.7040956], [-119.1688755, 37.7040617]], [[-119.1685483, 37.7074251], [-119.1685644, 37.7073721], [-119.1685134, 37.7073891], [-119.1685241, 37.707423], [-119.1685483, 37.7074251]], [[-119.1689855, 37.7077997], [-119.1690432, 37.7078028], [-119.1691075, 37.7077318], [-119.1690204, 37.7077031], [-119.1689774, 37.7076628], [-119.1688621, 37.7076511], [-119.1686757, 37.7077201], [-119.1685657, 37.7077795], [-119.1685469, 37.7078039], [-119.1685858, 37.7078241], [-119.1687106, 37.7078463], [-119.1687588, 37.7077806], [-119.1688232, 37.7077519], [-119.1689064, 37.7078368], [-119.1689855, 37.7077997]], [[-119.1698653, 37.7046601], [-119.1698223, 37.704641], [-119.1697446, 37.7045667], [-119.1696829, 37.7044627], [-119.1696453, 37.7044352], [-119.1694173, 37.7043948], [-119.1693503, 37.7044458], [-119.1693717, 37.7045561], [-119.1693637, 37.7046325], [-119.169243, 37.7046792], [-119.1691062, 37.7048065], [-119.1690391, 37.7048362], [-119.1690928, 37.7050208], [-119.1691759, 37.7051227], [-119.1692537, 37.7053116], [-119.1693717, 37.7054368], [-119.1693744, 37.7054941], [-119.1694173, 37.7055365], [-119.1694254, 37.7055938], [-119.1694415, 37.7056065], [-119.1695085, 37.7056023], [-119.1695997, 37.7055514], [-119.1698062, 37.7055386], [-119.1699913, 37.705649], [-119.1700074, 37.7057593], [-119.1700664, 37.7058081], [-119.1703212, 37.7058294], [-119.1704151, 37.7058803], [-119.1705224, 37.7058124], [-119.1704392, 37.7056426], [-119.1704178, 37.7054813], [-119.1702756, 37.7052458], [-119.1702837, 37.70518], [-119.1702595, 37.7051185], [-119.1702434, 37.7051015], [-119.1701657, 37.705093], [-119.1699699, 37.7049296], [-119.1699457, 37.7048299], [-119.1698653, 37.7046601]], [[-119.1691089, 37.7068418], [-119.1692411, 37.7068634], [-119.1695237, 37.7068346], [-119.1695648, 37.7067625], [-119.1695648, 37.7067012], [-119.1693688, 37.7064018], [-119.1692958, 37.7063694], [-119.1691591, 37.7064595], [-119.1690725, 37.7067012], [-119.1691089, 37.7068418]], [[-119.1692027, 37.7077052], [-119.1692483, 37.7077074], [-119.1693181, 37.7076331], [-119.169361, 37.707544], [-119.1693476, 37.7074718], [-119.1692939, 37.707406], [-119.1692001, 37.7073891], [-119.1691008, 37.7074442], [-119.1690928, 37.7074676], [-119.1690955, 37.7075036], [-119.1691786, 37.7075058], [-119.1692242, 37.7075418], [-119.1692913, 37.7075567], [-119.1692725, 37.7076076], [-119.1691893, 37.7076734], [-119.1692027, 37.7077052]], [[-119.1701335, 37.7036096], [-119.1702864, 37.7036478], [-119.1703373, 37.7036436], [-119.1703266, 37.7036287], [-119.1702032, 37.7035396], [-119.1700691, 37.703512], [-119.1700637, 37.7035311], [-119.1700745, 37.7035672], [-119.1701335, 37.7036096]], [[-119.1716731, 37.7046039], [-119.1716301, 37.7045529], [-119.1716167, 37.7044818], [-119.1715698, 37.7044458], [-119.1715215, 37.7044436], [-119.1714598, 37.704468], [-119.1713941, 37.7044702], [-119.171374, 37.7045253], [-119.1714786, 37.7046092], [-119.1716677, 37.7047269], [-119.1717106, 37.7048203], [-119.1717857, 37.7049254], [-119.1719185, 37.7050177], [-119.1719681, 37.7050219], [-119.1719681, 37.7049402], [-119.171944, 37.7048914], [-119.1719091, 37.7048681], [-119.1718286, 37.7048617], [-119.1718219, 37.7048447], [-119.1718487, 37.7048246], [-119.1718045, 37.7047821], [-119.1717991, 37.7047556], [-119.1718635, 37.7047153], [-119.1719788, 37.7047227], [-119.1719909, 37.7046771], [-119.1718581, 37.7045932], [-119.1718018, 37.704589], [-119.1717388, 37.7046102], [-119.1716731, 37.7046039]], [[-119.1720472, 37.7063843], [-119.1720633, 37.7062941], [-119.1720995, 37.7062474], [-119.1720137, 37.7061211], [-119.1718917, 37.7060532], [-119.171834, 37.7060585], [-119.1717629, 37.7061233], [-119.171783, 37.7061933], [-119.171783, 37.7062951], [-119.1718246, 37.706362], [-119.1718782, 37.7063949], [-119.1719896, 37.7064257], [-119.1720472, 37.7063843]], [[-119.17229, 37.7050272], [-119.1723383, 37.705023], [-119.1723704, 37.7050018], [-119.1723222, 37.7049381], [-119.1722846, 37.7049126], [-119.172188, 37.7048999], [-119.1721934, 37.7049381], [-119.1722417, 37.7049975], [-119.17229, 37.7050272]]]]}, "properties": {"id": "garnet_lake", "name": "Garnet Lake", "osm": ["relation/207453"], "found_by": "name", "area_km2": 0.8557}}]}