{"type": "FeatureCollection", "features": [{"type": "Feature", "geometry": {"type": "MultiPolygon", "coordinates": [[[[-119.8500332, 38.0456789], [-119.8499876, 38.0457275], [-119.8499715, 38.0457613], [-119.8499554, 38.0458436], [-119.8498857, 38.045945], [-119.8498669, 38.0459556], [-119.8498428, 38.0459514], [-119.8498374, 38.0458964], [-119.8498455, 38.0458795], [-119.8498321, 38.0458605], [-119.8498106, 38.0458563], [-119.8497891, 38.0458669], [-119.849765, 38.0459007], [-119.8497409, 38.0460422], [-119.8497435, 38.0460823], [-119.849757, 38.0460971], [-119.8497596, 38.0461161], [-119.8497355, 38.0461689], [-119.8496899, 38.0462133], [-119.8495129, 38.0463464], [-119.8493975, 38.0464034], [-119.8493332, 38.0464858], [-119.8492929, 38.0465935], [-119.8492554, 38.0466378], [-119.8492312, 38.0467456], [-119.8492017, 38.0467794], [-119.849132, 38.0468153], [-119.8490864, 38.0468237], [-119.8490301, 38.0468491], [-119.8489416, 38.0469315], [-119.8487753, 38.0470265], [-119.848676, 38.0471131], [-119.8486143, 38.0472039], [-119.8484534, 38.0473074], [-119.8484078, 38.0473708], [-119.8483273, 38.0474173], [-119.848263, 38.0474743], [-119.8482522, 38.0476327], [-119.8482549, 38.0476538], [-119.8482898, 38.0477109], [-119.8482898, 38.0477299], [-119.848263, 38.0477869], [-119.8482549, 38.0478989], [-119.848322, 38.0480446], [-119.8483434, 38.0481206], [-119.8483488, 38.0481777], [-119.8483354, 38.0482833], [-119.8482898, 38.0484354], [-119.8482496, 38.0485304], [-119.8481718, 38.0486233], [-119.8481289, 38.0487163], [-119.8480725, 38.0487437], [-119.8480216, 38.0488008], [-119.8479706, 38.0488367], [-119.8479518, 38.048843], [-119.8479223, 38.0488388], [-119.8479196, 38.0488029], [-119.8478955, 38.0488008], [-119.8478633, 38.0488219], [-119.8477963, 38.048824], [-119.8477614, 38.0488029], [-119.8476782, 38.0487881], [-119.8476648, 38.0487775], [-119.8476514, 38.0487649], [-119.847638, 38.048729], [-119.8476219, 38.0487163], [-119.8476085, 38.0486825], [-119.8476139, 38.0485874], [-119.8476058, 38.0485135], [-119.8475871, 38.0484544], [-119.8475415, 38.0484459], [-119.8474985, 38.048448], [-119.8474583, 38.0484079], [-119.8474476, 38.0483741], [-119.8474664, 38.0482537], [-119.8475119, 38.0482094], [-119.8475307, 38.0481354], [-119.8475951, 38.048108], [-119.84763, 38.0480805], [-119.847638, 38.0480636], [-119.8476031, 38.0480425], [-119.8476085, 38.0480024], [-119.8477158, 38.0479094], [-119.8477292, 38.0478883], [-119.8477426, 38.0478418], [-119.8477265, 38.047808], [-119.8477292, 38.0477827], [-119.8477775, 38.0477426], [-119.8477909, 38.0476644], [-119.8477855, 38.0476475], [-119.8477507, 38.0476306], [-119.8477265, 38.0476306], [-119.847697, 38.0475672], [-119.8476541, 38.0475525], [-119.8475683, 38.0475588], [-119.8475254, 38.047544], [-119.8474798, 38.0475102], [-119.8474154, 38.0474447], [-119.8473671, 38.0473497], [-119.8473322, 38.0473307], [-119.8472652, 38.0473264], [-119.8471123, 38.0473708], [-119.8470721, 38.0473877], [-119.8469862, 38.0474511], [-119.8469675, 38.0474827], [-119.8469675, 38.0475419], [-119.8469862, 38.0475841], [-119.8470587, 38.0476306], [-119.8470989, 38.0476813], [-119.8471096, 38.0477594], [-119.8471472, 38.0478123], [-119.8471713, 38.0478904], [-119.8471794, 38.0479664], [-119.8471794, 38.048034], [-119.8471686, 38.0480678], [-119.8470506, 38.0482072], [-119.8470345, 38.0482453], [-119.8470345, 38.0482833], [-119.8470962, 38.048315], [-119.8471794, 38.0483931], [-119.847225, 38.0484861], [-119.847241, 38.0485536], [-119.847241, 38.0486128], [-119.847174, 38.0486888], [-119.8471472, 38.048748], [-119.8470908, 38.0487839], [-119.8470426, 38.0488409], [-119.8469272, 38.0489064], [-119.8468763, 38.0489824], [-119.8468736, 38.049031], [-119.8468843, 38.0490711], [-119.8469406, 38.049162], [-119.8469567, 38.0492443], [-119.8469245, 38.0493119], [-119.8468387, 38.0493985], [-119.8467931, 38.0495527], [-119.8466858, 38.0496393], [-119.8466644, 38.0496773], [-119.8466322, 38.0498104], [-119.8466241, 38.0499625], [-119.8465785, 38.0501251], [-119.8465464, 38.0501969], [-119.8465464, 38.0502561], [-119.8465544, 38.0502751], [-119.8466188, 38.0503089], [-119.8466322, 38.050387], [-119.8467127, 38.0505095], [-119.846718, 38.0505497], [-119.8467046, 38.0506236], [-119.84671, 38.0506996], [-119.846777, 38.0507904], [-119.8468065, 38.0508939], [-119.8468602, 38.0509784], [-119.8468575, 38.0510207], [-119.846836, 38.0510756], [-119.8468387, 38.0511411], [-119.8468763, 38.051196], [-119.8469621, 38.0512847], [-119.8470131, 38.0513185], [-119.8471069, 38.0514114], [-119.8471311, 38.0514452], [-119.8471445, 38.0514748], [-119.8471472, 38.0515529], [-119.8472571, 38.0517705], [-119.8472813, 38.0518613], [-119.8472813, 38.0519817], [-119.8473564, 38.052345], [-119.8474342, 38.0525752], [-119.8474422, 38.0526428], [-119.8474744, 38.0527632], [-119.8475468, 38.0529532], [-119.8475871, 38.0530356], [-119.8476031, 38.0530926], [-119.8476112, 38.053175], [-119.8476219, 38.0531877], [-119.8476541, 38.0533081], [-119.8477212, 38.0534707], [-119.8477399, 38.0535383], [-119.8477507, 38.0536418], [-119.8478955, 38.0538868], [-119.8479411, 38.0540198], [-119.8479545, 38.0541191], [-119.8479518, 38.0543557], [-119.847984, 38.0544549], [-119.8480618, 38.0545584], [-119.8480833, 38.0546028], [-119.8480994, 38.0546746], [-119.8480967, 38.0548013], [-119.8481128, 38.0548625], [-119.8481825, 38.0549893], [-119.8482925, 38.0551603], [-119.8483086, 38.0552469], [-119.84833, 38.0552828], [-119.8483622, 38.0553124], [-119.8484159, 38.0553969], [-119.8485097, 38.055513], [-119.8485741, 38.0555658], [-119.8486251, 38.0556208], [-119.8487136, 38.055682], [-119.8487565, 38.0557411], [-119.8487994, 38.0558108], [-119.8488852, 38.0559967], [-119.8489335, 38.0561466], [-119.8490086, 38.0562755], [-119.8490408, 38.0563114], [-119.8491213, 38.0564402], [-119.8492017, 38.056624], [-119.8492312, 38.0567338], [-119.8493144, 38.0569724], [-119.8493546, 38.0570485], [-119.8494056, 38.0572766], [-119.849411, 38.0574962], [-119.8493466, 38.0576968], [-119.8493063, 38.0577855], [-119.8492822, 38.0578193], [-119.8492098, 38.0578679], [-119.8488665, 38.0580559], [-119.848786, 38.0580897], [-119.8486626, 38.0581108], [-119.848491, 38.0581108], [-119.8483032, 38.0580643], [-119.8482281, 38.0580601], [-119.8481798, 38.0580432], [-119.8479974, 38.0580136], [-119.8479492, 38.0580136], [-119.8479009, 38.0580178], [-119.8478741, 38.0580474], [-119.8478687, 38.0581277], [-119.847815, 38.0581403], [-119.8477721, 38.0581319], [-119.8477078, 38.0581403], [-119.8476809, 38.0582544], [-119.8476434, 38.0582924], [-119.8476005, 38.0583051], [-119.8474717, 38.0583895], [-119.8474664, 38.0584276], [-119.847402, 38.0585669], [-119.8473054, 38.0586303], [-119.8472464, 38.0587063], [-119.8472357, 38.0587528], [-119.847241, 38.0587908], [-119.8473162, 38.0588964], [-119.8473752, 38.059002], [-119.8474073, 38.0591456], [-119.8474073, 38.0593484], [-119.8473644, 38.0594539], [-119.8471445, 38.0596905], [-119.8470694, 38.0597327], [-119.8469889, 38.0597665], [-119.8465222, 38.0598594], [-119.846431, 38.0598637], [-119.8462057, 38.0598637], [-119.8460448, 38.0598552], [-119.8459643, 38.0598172], [-119.8458731, 38.0597961], [-119.8458248, 38.0597919], [-119.8457873, 38.0597792], [-119.8456907, 38.0597792], [-119.845562, 38.0598172], [-119.8454762, 38.059851], [-119.8453903, 38.059889], [-119.845342, 38.0599291], [-119.8453099, 38.0599418], [-119.8451811, 38.0599735], [-119.8451328, 38.0599756], [-119.8450872, 38.0599502], [-119.8450202, 38.0598742], [-119.8450014, 38.0598341], [-119.8449585, 38.0598045], [-119.8449022, 38.059794], [-119.8447949, 38.0598045], [-119.8447439, 38.0597813], [-119.8447305, 38.0597412], [-119.8447278, 38.059663], [-119.8447171, 38.0596461], [-119.8446661, 38.0596144], [-119.8446286, 38.0596039], [-119.8446071, 38.059568], [-119.8446178, 38.0595511], [-119.8446018, 38.0595236], [-119.8445052, 38.0594392], [-119.8444194, 38.0593103], [-119.8443523, 38.0592364], [-119.8443013, 38.0591857], [-119.844245, 38.0591477], [-119.8441431, 38.0591118], [-119.8441055, 38.0591118], [-119.8440734, 38.0590907], [-119.8440331, 38.0590928], [-119.8439392, 38.0591266], [-119.8438776, 38.0591541], [-119.843832, 38.0591921], [-119.8437917, 38.059209], [-119.8437488, 38.059209], [-119.8437461, 38.059171], [-119.8437327, 38.0591562], [-119.8436898, 38.0591604], [-119.8435932, 38.0592069], [-119.8435423, 38.0592491], [-119.8434886, 38.0592808], [-119.8432875, 38.0593716], [-119.8431131, 38.0595067], [-119.8430917, 38.0595131], [-119.8430219, 38.0595131], [-119.8429441, 38.0595025], [-119.8429307, 38.0594898], [-119.8428744, 38.0594666], [-119.8428154, 38.0594138], [-119.8427725, 38.059399], [-119.8427323, 38.0593568], [-119.8426545, 38.0592491], [-119.8426062, 38.0590696], [-119.8426357, 38.0589936], [-119.842692, 38.0589576], [-119.8427054, 38.0589408], [-119.8427108, 38.0589217], [-119.8427027, 38.058907], [-119.8427108, 38.058888], [-119.84281, 38.0588119], [-119.8428476, 38.0587443], [-119.8428476, 38.0587084], [-119.842869, 38.0586873], [-119.8428556, 38.0586007], [-119.8428637, 38.0585268], [-119.8427993, 38.0583938], [-119.8428074, 38.0582628], [-119.8428315, 38.0582544], [-119.8428422, 38.0582734], [-119.8428798, 38.0584508], [-119.8429415, 38.0585627], [-119.8429522, 38.0586007], [-119.8429468, 38.0586578], [-119.8429737, 38.0587084], [-119.8429951, 38.0587211], [-119.8430461, 38.058719], [-119.8430917, 38.0587063], [-119.8431104, 38.0586937], [-119.8431104, 38.0586007], [-119.8430809, 38.0585606], [-119.8430246, 38.0585099], [-119.8430005, 38.0584635], [-119.8429897, 38.0584233], [-119.8429844, 38.0583283], [-119.8430005, 38.0582755], [-119.8431185, 38.0581974], [-119.8431292, 38.0581636], [-119.8431185, 38.0581256], [-119.8430809, 38.0581065], [-119.843038, 38.0581002], [-119.8429844, 38.0581192], [-119.8429281, 38.0581129], [-119.8428986, 38.0581044], [-119.842869, 38.0580749], [-119.8427564, 38.0580643], [-119.8426974, 38.058039], [-119.8426759, 38.0580369], [-119.8425901, 38.0579862], [-119.842574, 38.0579545], [-119.8425767, 38.0579165], [-119.8426116, 38.0578954], [-119.8426384, 38.0578932], [-119.8427054, 38.0579524], [-119.8428074, 38.0579693], [-119.8428288, 38.0579587], [-119.842853, 38.0579038], [-119.8429066, 38.0578447], [-119.84292, 38.0577517], [-119.8429361, 38.0577116], [-119.8430005, 38.0576525], [-119.8431051, 38.057606], [-119.8431802, 38.0575828], [-119.8433304, 38.0575722], [-119.8434404, 38.0575152], [-119.8434886, 38.0574983], [-119.8435342, 38.0575025], [-119.8435637, 38.0575321], [-119.8435879, 38.0575321], [-119.8436308, 38.0574877], [-119.8436844, 38.0574814], [-119.8437515, 38.0574624], [-119.8438266, 38.057473], [-119.8438963, 38.057454], [-119.8439661, 38.057473], [-119.8440197, 38.057473], [-119.844068, 38.0574603], [-119.8441216, 38.0574582], [-119.8442209, 38.0574793], [-119.8442477, 38.0574772], [-119.8442933, 38.0574603], [-119.8444462, 38.0573737], [-119.8445401, 38.0573082], [-119.8446205, 38.0572681], [-119.8446688, 38.0572597], [-119.844819, 38.0571773], [-119.8448834, 38.0571519], [-119.8450953, 38.0569957], [-119.8451436, 38.0569851], [-119.845342, 38.0568795], [-119.8453823, 38.056833], [-119.8454225, 38.0567296], [-119.8454145, 38.0567127], [-119.8453823, 38.0566936], [-119.8453742, 38.0566768], [-119.8454386, 38.0566514], [-119.8454627, 38.0566028], [-119.8454601, 38.056493], [-119.8454011, 38.0564656], [-119.8454037, 38.0564465], [-119.8454654, 38.0563874], [-119.8454815, 38.0563515], [-119.8455218, 38.056305], [-119.8454949, 38.0562649], [-119.8455003, 38.0562459], [-119.8456076, 38.0561044], [-119.8456371, 38.0560284], [-119.8457095, 38.0559777], [-119.8457363, 38.0559481], [-119.8457739, 38.0559312], [-119.8458651, 38.0558214], [-119.8458597, 38.0557707], [-119.8458302, 38.0557433], [-119.8458141, 38.0556883], [-119.8458061, 38.0556144], [-119.8457712, 38.0555299], [-119.8457631, 38.0554961], [-119.8457685, 38.0554265], [-119.8457283, 38.05538], [-119.8456827, 38.0552849], [-119.8456398, 38.0552744], [-119.845621, 38.0552195], [-119.8456076, 38.0552047], [-119.8455673, 38.055192], [-119.8455539, 38.0551793], [-119.8455164, 38.055135], [-119.8454922, 38.0550843], [-119.845452, 38.0550442], [-119.8454466, 38.0549787], [-119.8453823, 38.05489], [-119.8454064, 38.0548604], [-119.8453715, 38.0548393], [-119.8453313, 38.0547738], [-119.8453125, 38.0547612], [-119.8452911, 38.0547591], [-119.8452723, 38.0547696], [-119.8452669, 38.0547886], [-119.845275, 38.0548456], [-119.8451167, 38.0548583], [-119.8449397, 38.0548562], [-119.8449022, 38.0548435], [-119.8448834, 38.0548182], [-119.844878, 38.0547802], [-119.8448512, 38.0547548], [-119.8448136, 38.0546851], [-119.8447681, 38.0546281], [-119.8447493, 38.0546175], [-119.8447037, 38.0546154], [-119.8446769, 38.0546429], [-119.8446393, 38.054664], [-119.8445588, 38.0547063], [-119.8445106, 38.0547189], [-119.8443228, 38.054683], [-119.8442557, 38.0546851], [-119.8441994, 38.0547168], [-119.8441511, 38.0547569], [-119.8440868, 38.0547823], [-119.8440224, 38.0547971], [-119.8439634, 38.054852], [-119.8439178, 38.054871], [-119.8438963, 38.054871], [-119.8438373, 38.0548224], [-119.8438185, 38.0547527], [-119.8438266, 38.0547379], [-119.8438641, 38.0547189], [-119.8438776, 38.054702], [-119.8438802, 38.054664], [-119.8438695, 38.0546471], [-119.8438481, 38.0546408], [-119.8438078, 38.0546556], [-119.8437864, 38.0546471], [-119.8437542, 38.0545647], [-119.8438534, 38.0544866], [-119.8439097, 38.0544296], [-119.8439419, 38.0544042], [-119.8439822, 38.0543873], [-119.8440278, 38.0543472], [-119.8440358, 38.0543134], [-119.8440251, 38.0543007], [-119.8439822, 38.0542648], [-119.8439392, 38.0542564], [-119.8438963, 38.0542543], [-119.8438722, 38.0542606], [-119.8438212, 38.0543176], [-119.8437649, 38.0543578], [-119.8437274, 38.0544254], [-119.8437139, 38.0544803], [-119.8436978, 38.0544908], [-119.8436657, 38.0544444], [-119.8436442, 38.0544422], [-119.8436201, 38.0544444], [-119.8435557, 38.0544929], [-119.8435342, 38.0545225], [-119.8434457, 38.0546028], [-119.8434269, 38.0546366], [-119.8433948, 38.0546598], [-119.8433867, 38.0547168], [-119.8433384, 38.0547591], [-119.8433089, 38.054814], [-119.8432902, 38.0548224], [-119.8432419, 38.0549132], [-119.843148, 38.0549914], [-119.8431104, 38.0550421], [-119.8430675, 38.0550526], [-119.8428959, 38.0551709], [-119.8428395, 38.055192], [-119.8427725, 38.0551857], [-119.8427403, 38.0552047], [-119.8426786, 38.0552195], [-119.842625, 38.0552554], [-119.8425794, 38.0552659], [-119.8425177, 38.0552934], [-119.8424855, 38.0553293], [-119.8423755, 38.0553399], [-119.842287, 38.0553758], [-119.8422709, 38.0553905], [-119.8422575, 38.0554307], [-119.8422012, 38.0554602], [-119.8421314, 38.0554771], [-119.8421127, 38.0554455], [-119.8421153, 38.0554265], [-119.8420751, 38.0554138], [-119.8420107, 38.0554138], [-119.8419893, 38.055418], [-119.8418847, 38.0554793], [-119.8418659, 38.0554729], [-119.8418203, 38.0553737], [-119.8418042, 38.0553631], [-119.8417613, 38.0553589], [-119.841713, 38.0553779], [-119.8415253, 38.0554793], [-119.8414341, 38.0555447], [-119.8412946, 38.0556165], [-119.8412114, 38.0556778], [-119.8411873, 38.0556778], [-119.841139, 38.0556482], [-119.8411283, 38.0556123], [-119.8410988, 38.055587], [-119.8410451, 38.0555025], [-119.841021, 38.0553568], [-119.8409835, 38.0552807], [-119.8409566, 38.0552512], [-119.8409405, 38.0551962], [-119.8409459, 38.0550885], [-119.8409835, 38.05504], [-119.8410881, 38.0549597], [-119.8412517, 38.0547696], [-119.8412839, 38.0547189], [-119.8413456, 38.054664], [-119.8413992, 38.0545816], [-119.8414341, 38.0545542], [-119.8415065, 38.054531], [-119.8415226, 38.0545183], [-119.8415306, 38.0545014], [-119.8415253, 38.0543388], [-119.841544, 38.0542627], [-119.8415682, 38.0541951], [-119.8416084, 38.0541466], [-119.8416567, 38.0541064], [-119.841713, 38.0540748], [-119.8418203, 38.054041], [-119.8419249, 38.0540367], [-119.8420161, 38.05406], [-119.8420268, 38.0540769], [-119.8420242, 38.054098], [-119.8420429, 38.0541107], [-119.8421717, 38.0541085], [-119.842279, 38.0540262], [-119.842338, 38.0539945], [-119.8423541, 38.0539586], [-119.8425311, 38.0538783], [-119.842692, 38.0537579], [-119.8427886, 38.0537073], [-119.8428208, 38.0536798], [-119.8428449, 38.0536713], [-119.8429173, 38.0536228], [-119.8430622, 38.0535911], [-119.8431131, 38.053551], [-119.8431239, 38.053532], [-119.8431185, 38.0535151], [-119.8430863, 38.0534897], [-119.8430783, 38.0534728], [-119.8430783, 38.0534348], [-119.8431051, 38.053382], [-119.8431775, 38.0532785], [-119.8431802, 38.0532426], [-119.8431534, 38.0532151], [-119.8431078, 38.0532046], [-119.8430702, 38.0531708], [-119.8430407, 38.0531053], [-119.8430192, 38.0530166], [-119.8429951, 38.0529913], [-119.8429683, 38.0529342], [-119.8429334, 38.0528878], [-119.8429334, 38.0528688], [-119.8429415, 38.0528519], [-119.8429897, 38.0528117], [-119.84303, 38.0527632], [-119.843038, 38.052723], [-119.8430863, 38.0526618], [-119.8431239, 38.0526385], [-119.8431292, 38.0526195], [-119.8431078, 38.0525667], [-119.8431212, 38.0525329], [-119.8431265, 38.0524759], [-119.8431373, 38.052459], [-119.8431587, 38.0524485], [-119.8431855, 38.0524527], [-119.8432687, 38.0525562], [-119.8432982, 38.0526301], [-119.8432955, 38.0526681], [-119.8432687, 38.052742], [-119.8432741, 38.052761], [-119.8433116, 38.0527906], [-119.8433411, 38.0527885], [-119.8434216, 38.0527441], [-119.8435181, 38.0526808], [-119.8435396, 38.0526491], [-119.8435852, 38.0526343], [-119.8436657, 38.0525815], [-119.8437032, 38.0525329], [-119.8437086, 38.0525139], [-119.8437086, 38.0524949], [-119.8436764, 38.0524506], [-119.8436657, 38.0524168], [-119.843671, 38.0523978], [-119.8437086, 38.0523745], [-119.8437274, 38.0523407], [-119.8437408, 38.0522541], [-119.8437434, 38.0520831], [-119.8437515, 38.0520472], [-119.8437703, 38.0520134], [-119.8438078, 38.051988], [-119.8438346, 38.0519563], [-119.8439446, 38.0518845], [-119.8440063, 38.0518275], [-119.8440063, 38.0517726], [-119.8439553, 38.0517177], [-119.8439446, 38.0516839], [-119.8440331, 38.0516121], [-119.8440921, 38.0515445], [-119.844119, 38.0513945], [-119.8441994, 38.0513269], [-119.8441967, 38.051234], [-119.8442879, 38.0511664], [-119.8443174, 38.0511136], [-119.8442799, 38.0510418], [-119.8442236, 38.0510017], [-119.8441994, 38.0509721], [-119.8441377, 38.0509277], [-119.8441002, 38.0509151], [-119.8440546, 38.0509108], [-119.8440492, 38.0508939], [-119.8440492, 38.0508749], [-119.8440948, 38.0508116], [-119.8441404, 38.0507989], [-119.8441726, 38.0507735], [-119.844186, 38.0507566], [-119.8441887, 38.0507207], [-119.8441458, 38.0506764], [-119.844135, 38.0506405], [-119.8441297, 38.0505856], [-119.8441538, 38.0505306], [-119.8441431, 38.05048], [-119.8440278, 38.050349], [-119.8439929, 38.050292], [-119.8439929, 38.0502244], [-119.8439822, 38.0501864], [-119.8439875, 38.0500723], [-119.8440358, 38.0499815], [-119.8442075, 38.049821], [-119.8442772, 38.0497745], [-119.8443523, 38.0496858], [-119.8443362, 38.0496351], [-119.8443362, 38.049595], [-119.8444006, 38.0494978], [-119.8444515, 38.049445], [-119.8445374, 38.0494154], [-119.8445776, 38.0493626], [-119.8446205, 38.0492655], [-119.8446313, 38.0491936], [-119.8446876, 38.0491366], [-119.8447359, 38.0490542], [-119.8447439, 38.0489697], [-119.8447976, 38.0487142], [-119.8448539, 38.0485621], [-119.8448646, 38.0485093], [-119.844937, 38.0483445], [-119.8450658, 38.0481798], [-119.8450711, 38.0481587], [-119.8451623, 38.0480256], [-119.8452455, 38.0479369], [-119.8452991, 38.0478397], [-119.8453259, 38.0478101], [-119.8453662, 38.0477848], [-119.8454171, 38.0477151], [-119.8454762, 38.0476137], [-119.8455888, 38.0473412], [-119.8456425, 38.0472736], [-119.8457122, 38.0472272], [-119.845739, 38.0471997], [-119.84579, 38.0470962], [-119.8459321, 38.0468744], [-119.8460582, 38.0467688], [-119.846144, 38.046735], [-119.8461682, 38.0467012], [-119.8461682, 38.0466801], [-119.846195, 38.0466378], [-119.8464176, 38.0464076], [-119.8464471, 38.0463675], [-119.8466939, 38.0462006], [-119.8468843, 38.0460844], [-119.8469299, 38.0460675], [-119.8470587, 38.046038], [-119.8471847, 38.0460232], [-119.8473108, 38.0460211], [-119.8474985, 38.0460422], [-119.8475495, 38.046057], [-119.8475844, 38.0460781], [-119.8476648, 38.0460971], [-119.8479196, 38.0462703], [-119.8479706, 38.0463104], [-119.8480108, 38.0463569], [-119.848102, 38.0464308], [-119.8481637, 38.0464668], [-119.8482335, 38.0465238], [-119.8482549, 38.0465534], [-119.8483112, 38.0465914], [-119.8484695, 38.0467477], [-119.848499, 38.0467815], [-119.8485285, 38.0468364], [-119.8485339, 38.0468554], [-119.8485258, 38.0468744], [-119.8485017, 38.0468765], [-119.8484373, 38.046923], [-119.8484105, 38.0469969], [-119.8484132, 38.047054], [-119.8484695, 38.0471173], [-119.8484963, 38.0471194], [-119.8485848, 38.047054], [-119.8486653, 38.0470075], [-119.8486707, 38.0469695], [-119.8487484, 38.0469019], [-119.8487726, 38.046885], [-119.8487967, 38.0468786], [-119.8488075, 38.0468639], [-119.8488075, 38.0468448], [-119.8487887, 38.0468111], [-119.848794, 38.046792], [-119.8488504, 38.0467266], [-119.849014, 38.0465935], [-119.8490649, 38.0465301], [-119.8491132, 38.0464879], [-119.8491374, 38.0464245], [-119.8491991, 38.0463189], [-119.8493546, 38.0462048], [-119.8494592, 38.0461098], [-119.8494807, 38.0460591], [-119.8494834, 38.0460232], [-119.8494619, 38.0459133], [-119.8495182, 38.0458774], [-119.8495853, 38.0458563], [-119.8496604, 38.0458436], [-119.8497704, 38.0457781], [-119.8498616, 38.0457486], [-119.8499125, 38.0457232], [-119.849993, 38.0456599], [-119.8500332, 38.0456387], [-119.8500332, 38.0456789]], [[-119.8463532, 38.0481418], [-119.8464109, 38.0481354], [-119.8464069, 38.0481164], [-119.8463345, 38.0480583], [-119.8462956, 38.0480457], [-119.8462567, 38.0480478], [-119.8462312, 38.0480668], [-119.8462473, 38.048108], [-119.8462822, 38.0481301], [-119.8463532, 38.0481418]], [[-119.8463948, 38.0485389], [-119.8463868, 38.0485325], [-119.8463358, 38.048541], [-119.846305, 38.0485589], [-119.8462781, 38.0486001], [-119.8462875, 38.048635], [-119.8462982, 38.0486392], [-119.8463412, 38.0486297], [-119.8463935, 38.0485874], [-119.8464002, 38.0485684], [-119.8463948, 38.0485389]], [[-119.8464833, 38.0481682], [-119.8463935, 38.0481713], [-119.846321, 38.0482072], [-119.8463184, 38.0482263], [-119.8463385, 38.0482463], [-119.8463921, 38.0482463], [-119.8464525, 38.0482305], [-119.846486, 38.0482167], [-119.8465142, 38.048183], [-119.8464833, 38.0481682]], [[-119.8464216, 38.0484523], [-119.8464082, 38.0484216], [-119.8463519, 38.0484512], [-119.8463331, 38.0484723], [-119.8463398, 38.0484977], [-119.8463774, 38.0484987], [-119.8464096, 38.0484829], [-119.8464216, 38.0484523]], [[-119.8468146, 38.0479601], [-119.8468709, 38.047827], [-119.8468736, 38.0477426], [-119.8468253, 38.0477151], [-119.8467824, 38.0477616], [-119.8467475, 38.0478841], [-119.84671, 38.0479686], [-119.84671, 38.0480066], [-119.8467234, 38.0480193], [-119.846769, 38.0480066], [-119.8468146, 38.0479601]], [[-119.8479947, 38.0471575], [-119.8479036, 38.0471744], [-119.8478499, 38.0471596], [-119.847748, 38.0471596], [-119.8476782, 38.0471173], [-119.8476514, 38.0471194], [-119.8476273, 38.0471321], [-119.8476353, 38.0472103], [-119.8476541, 38.0472588], [-119.8477104, 38.0473243], [-119.8477319, 38.0473623], [-119.847815, 38.0474088], [-119.847858, 38.047449], [-119.8478794, 38.0474595], [-119.847925, 38.0474637], [-119.8479465, 38.0474574], [-119.8479974, 38.047375], [-119.8479787, 38.0473201], [-119.8479813, 38.0473011], [-119.8480377, 38.0472694], [-119.8480672, 38.047242], [-119.8480752, 38.0472145], [-119.8480564, 38.0471934], [-119.8479947, 38.0471575]]]]}, "properties": {"id": "kibbie_lake", "name": "Kibbie Lake", "osm": ["relation/14125318"], "found_by": "name", "area_km2": 0.4894}}]}