{"type": "FeatureCollection", "features": [{"type": "Feature", "geometry": {"type": "MultiPolygon", "coordinates": [[[[-123.2883901, 47.4924587], [-123.2883017, 47.4924409], [-123.2882288, 47.4925045], [-123.2880706, 47.4925178], [-123.2880189, 47.4925795], [-123.2879299, 47.4926162], [-123.2877866, 47.4925782], [-123.2876551, 47.4926203], [-123.2875196, 47.4926539], [-123.2873812, 47.4926386], [-123.2872944, 47.4926016], [-123.287206, 47.4926035], [-123.2871163, 47.4925813], [-123.2870487, 47.4926153], [-123.2868496, 47.4925857], [-123.2867776, 47.4926431], [-123.2866618, 47.4926543], [-123.2863349, 47.4926423], [-123.285845, 47.4926668], [-123.2857178, 47.4926772], [-123.2856816, 47.4927649], [-123.2855679, 47.4927932], [-123.2855041, 47.4927928], [-123.2854388, 47.4928242], [-123.2853816, 47.4928677], [-123.2853623, 47.4929319], [-123.2853051, 47.4929769], [-123.2851953, 47.4930339], [-123.2850869, 47.4930421], [-123.2850509, 47.4930707], [-123.2849613, 47.4931073], [-123.2848278, 47.4931993], [-123.284761, 47.493205], [-123.2846943, 47.4932473], [-123.284612, 47.4932605], [-123.2845296, 47.4933464], [-123.2844535, 47.4933614], [-123.2843318, 47.4934429], [-123.2842635, 47.4934073], [-123.2841472, 47.4934146], [-123.2840875, 47.4934424], [-123.2840549, 47.493498], [-123.2839598, 47.4934925], [-123.2838728, 47.4935389], [-123.2838099, 47.4935943], [-123.2837211, 47.4935794], [-123.283655, 47.4936337], [-123.2835694, 47.4936589], [-123.2833085, 47.4937515], [-123.2832283, 47.4937616], [-123.2831353, 47.4937633], [-123.2830182, 47.4938198], [-123.2829414, 47.493862], [-123.2828633, 47.4938621], [-123.2826719, 47.4938345], [-123.2825542, 47.4938927], [-123.2824747, 47.4939142], [-123.2823634, 47.4939231], [-123.2822828, 47.4938999], [-123.2822156, 47.4939746], [-123.2821484, 47.4939921], [-123.2820562, 47.4939658], [-123.2819789, 47.4939568], [-123.2818948, 47.4940185], [-123.281729, 47.4940056], [-123.2816144, 47.4940503], [-123.2814484, 47.4940748], [-123.2812913, 47.4940826], [-123.2812631, 47.4940542], [-123.2811603, 47.4940516], [-123.2810594, 47.4940715], [-123.2810262, 47.4941019], [-123.2809299, 47.4941083], [-123.2807893, 47.4941149], [-123.2807513, 47.4941625], [-123.280647, 47.4942035], [-123.2804947, 47.4942068], [-123.280447, 47.4942715], [-123.2803769, 47.4943289], [-123.2803049, 47.4943402], [-123.2802256, 47.4943799], [-123.2801556, 47.4943915], [-123.2800868, 47.4944132], [-123.2800482, 47.4944579], [-123.2799961, 47.494472], [-123.279913, 47.4944944], [-123.2798178, 47.4945044], [-123.2797296, 47.4945114], [-123.2796559, 47.4945505], [-123.279583, 47.4945233], [-123.2794932, 47.4945328], [-123.2794273, 47.4945528], [-123.2793874, 47.4946151], [-123.2793525, 47.4946459], [-123.2792763, 47.4946759], [-123.2792532, 47.4947197], [-123.2791882, 47.4947341], [-123.2791246, 47.4947584], [-123.2790867, 47.494799], [-123.2790268, 47.4948023], [-123.2789948, 47.4948461], [-123.2789023, 47.4948538], [-123.2788427, 47.4949036], [-123.2787291, 47.4949023], [-123.2786778, 47.4949392], [-123.2786141, 47.4949443], [-123.2784754, 47.4949911], [-123.27838, 47.4949998], [-123.2781878, 47.4950589], [-123.277995, 47.4950802], [-123.2778236, 47.4951243], [-123.2776728, 47.4951568], [-123.2774931, 47.4952236], [-123.2773806, 47.4952492], [-123.2771582, 47.495343], [-123.2770734, 47.4953636], [-123.276994, 47.4953631], [-123.2768797, 47.4953722], [-123.2767836, 47.4953894], [-123.2767092, 47.4954236], [-123.2766524, 47.4953948], [-123.2765732, 47.495386], [-123.2764518, 47.4953504], [-123.276335, 47.4953971], [-123.2762631, 47.4953625], [-123.276206, 47.4953844], [-123.276149, 47.4953681], [-123.2760527, 47.4953958], [-123.2759897, 47.4954333], [-123.2759267, 47.4954294], [-123.2757584, 47.4954466], [-123.2756862, 47.4954872], [-123.2755997, 47.4954977], [-123.2755158, 47.4955568], [-123.2754319, 47.4955438], [-123.2754038, 47.4956248], [-123.2752208, 47.4956141], [-123.2751124, 47.4956313], [-123.2750335, 47.4956536], [-123.2749823, 47.4956837], [-123.2748584, 47.4956254], [-123.2747539, 47.4956337], [-123.2746544, 47.49563], [-123.2745837, 47.4956924], [-123.274524, 47.4956775], [-123.2742094, 47.4956637], [-123.2739558, 47.4956378], [-123.2739272, 47.495665], [-123.2739038, 47.4957055], [-123.2738593, 47.49571], [-123.2738226, 47.4956496], [-123.2736877, 47.4956247], [-123.2735523, 47.4955973], [-123.2734412, 47.4956324], [-123.2733791, 47.4956358], [-123.2733284, 47.495613], [-123.2733217, 47.4955925], [-123.2732369, 47.4955525], [-123.2731857, 47.4955951], [-123.2731783, 47.495665], [-123.2730358, 47.4956328], [-123.2729647, 47.4956722], [-123.2728936, 47.4956521], [-123.2727821, 47.4956776], [-123.2726649, 47.495643], [-123.2725607, 47.4956071], [-123.2724564, 47.495631], [-123.2723631, 47.4956572], [-123.2722712, 47.4956406], [-123.2719107, 47.495604], [-123.2718808, 47.495584], [-123.271821, 47.495543], [-123.271749, 47.4955141], [-123.2717111, 47.4954851], [-123.2715841, 47.4954766], [-123.271549, 47.4954282], [-123.271457, 47.495427], [-123.2713915, 47.4954331], [-123.271326, 47.4954063], [-123.27126, 47.4953774], [-123.271195, 47.4953737], [-123.271056, 47.4953557], [-123.270936, 47.4953832], [-123.270821, 47.4953831], [-123.270753, 47.4954328], [-123.270659, 47.4954371], [-123.270506, 47.4954312], [-123.270393, 47.495448], [-123.2702863, 47.4954353], [-123.270252, 47.495385], [-123.2701503, 47.4953746], [-123.270103, 47.4954221], [-123.2700361, 47.4954515], [-123.269978, 47.495431], [-123.2698706, 47.4953829], [-123.2697904, 47.495395], [-123.2696837, 47.4953827], [-123.2696199, 47.4953438], [-123.2694932, 47.4954141], [-123.2693823, 47.4953316], [-123.2693394, 47.495381], [-123.2692916, 47.4953913], [-123.2691784, 47.4953309], [-123.269136, 47.4952692], [-123.269036, 47.495231], [-123.268938, 47.4952459], [-123.268828, 47.4952667], [-123.268773, 47.4952935], [-123.268698, 47.4952592], [-123.268451, 47.495283], [-123.2682999, 47.4952453], [-123.2682266, 47.4951953], [-123.2681367, 47.4951937], [-123.2679703, 47.4951973], [-123.2678662, 47.4951823], [-123.2678332, 47.4952328], [-123.2677239, 47.4952264], [-123.2676351, 47.4952145], [-123.2675642, 47.49525], [-123.267485, 47.495212], [-123.267323, 47.495147], [-123.267236, 47.4950957], [-123.267213, 47.49505], [-123.267087, 47.495024], [-123.26697, 47.4950168], [-123.266854, 47.4949746], [-123.266844, 47.4950131], [-123.266798, 47.4950428], [-123.266657, 47.4950091], [-123.26653, 47.4949931], [-123.266503, 47.4950615], [-123.266454, 47.4951242], [-123.2663, 47.4951555], [-123.266201, 47.4951603], [-123.266086, 47.4951131], [-123.266, 47.4951375], [-123.266034, 47.4951877], [-123.266031, 47.4952369], [-123.265984, 47.4953201], [-123.265907, 47.4953126], [-123.265851, 47.495343], [-123.265774, 47.4953327], [-123.265639, 47.4953007], [-123.265583, 47.4953116], [-123.265528, 47.4952936], [-123.265458, 47.4952713], [-123.265461, 47.4952364], [-123.265425, 47.4952094], [-123.265353, 47.4952503], [-123.265308, 47.4952072], [-123.265268, 47.4951834], [-123.265193, 47.4952157], [-123.265179, 47.4952675], [-123.265089, 47.4952957], [-123.26496, 47.4953359], [-123.264911, 47.4953911], [-123.264781, 47.4954246], [-123.264723, 47.4954715], [-123.264604, 47.4954922], [-123.264525, 47.4955549], [-123.264364, 47.4955612], [-123.26429, 47.4955983], [-123.264248, 47.4955457], [-123.264205, 47.4955254], [-123.264181, 47.495571], [-123.264125, 47.4955963], [-123.264044, 47.4955425], [-123.263963, 47.495528], [-123.263818, 47.4955487], [-123.263699, 47.4955255], [-123.26363, 47.4955007], [-123.263525, 47.4955148], [-123.263395, 47.4955157], [-123.26319, 47.4955059], [-123.263083, 47.4954776], [-123.262928, 47.4954973], [-123.262885, 47.4954583], [-123.262827, 47.4954445], [-123.262752, 47.4954806], [-123.262662, 47.4954736], [-123.262512, 47.4954745], [-123.262409, 47.4954471], [-123.262316, 47.4954482], [-123.262173, 47.4954321], [-123.262045, 47.495458], [-123.2617811, 47.4954235], [-123.2617313, 47.495461], [-123.2616591, 47.4954344], [-123.261593, 47.4954349], [-123.2614581, 47.4954098], [-123.26141, 47.4953783], [-123.261354, 47.4953783], [-123.261296, 47.4953468], [-123.2612231, 47.4953123], [-123.26115, 47.4953236], [-123.2610904, 47.4952753], [-123.2610225, 47.4952799], [-123.2609522, 47.4952336], [-123.2608625, 47.4952609], [-123.2607651, 47.4952373], [-123.2605897, 47.4951991], [-123.2604006, 47.4952346], [-123.2602772, 47.495206], [-123.2601709, 47.4952167], [-123.259998, 47.495193], [-123.2599102, 47.4952091], [-123.2598082, 47.4952195], [-123.2597061, 47.4951922], [-123.2595923, 47.495186], [-123.2595046, 47.4951984], [-123.2594137, 47.4951699], [-123.2593496, 47.4952163], [-123.2593301, 47.495289], [-123.2592194, 47.4952849], [-123.2591793, 47.4953169], [-123.2591937, 47.4953725], [-123.259156, 47.4954304], [-123.2590439, 47.4954879], [-123.2589579, 47.4955161], [-123.2588589, 47.495512], [-123.2587599, 47.4955695], [-123.2585951, 47.4955835], [-123.2585, 47.4955637], [-123.258421, 47.4955557], [-123.258399, 47.4956092], [-123.258324, 47.4955713], [-123.258256, 47.4955884], [-123.25821, 47.4955459], [-123.258156, 47.4955257], [-123.258037, 47.4955617], [-123.257808, 47.4955883], [-123.2576595, 47.4955712], [-123.257568, 47.4955969], [-123.257433, 47.4955989], [-123.257331, 47.4955423], [-123.257171, 47.4955078], [-123.257022, 47.4955264], [-123.25691, 47.4955759], [-123.2567621, 47.4955625], [-123.2566101, 47.495537], [-123.2564698, 47.4955501], [-123.2564331, 47.4955716], [-123.256435, 47.495624], [-123.2564039, 47.4956024], [-123.256357, 47.4955924], [-123.2563029, 47.495606], [-123.2562488, 47.4956147], [-123.2562188, 47.495587], [-123.2561729, 47.4955622], [-123.2561127, 47.4955625], [-123.2560711, 47.4955782], [-123.2560203, 47.4955608], [-123.2560151, 47.4955199], [-123.2559943, 47.4954987], [-123.255972, 47.4954822], [-123.255926, 47.4954898], [-123.2558972, 47.4955032], [-123.2558536, 47.4955088], [-123.2558072, 47.4955095], [-123.2557565, 47.4955088], [-123.2557215, 47.4954983], [-123.2556733, 47.4954638], [-123.2556109, 47.4954429], [-123.2555513, 47.4954573], [-123.255506, 47.4954629], [-123.255464, 47.495465], [-123.2554223, 47.4954311], [-123.255379, 47.4954457], [-123.255319, 47.4954495], [-123.255268, 47.4954254], [-123.255236, 47.4954065], [-123.255169, 47.4953991], [-123.255127, 47.4954008], [-123.255094, 47.4954161], [-123.255037, 47.4954184], [-123.254999, 47.495415], [-123.254984, 47.4953999], [-123.254939, 47.4953954], [-123.254916, 47.4954084], [-123.254874, 47.4954144], [-123.254821, 47.4954291], [-123.254767, 47.4954069], [-123.254723, 47.4954122], [-123.254679, 47.4954009], [-123.254657, 47.4953494], [-123.254613, 47.4953218], [-123.254534, 47.4952765], [-123.254498, 47.4952451], [-123.254464, 47.4952214], [-123.254429, 47.4952037], [-123.254395, 47.4951587], [-123.254357, 47.4951505], [-123.25433, 47.4951317], [-123.254293, 47.4950909], [-123.254258, 47.4950998], [-123.254218, 47.4950949], [-123.2542, 47.495045], [-123.254163, 47.4950277], [-123.25415, 47.4949941], [-123.25417, 47.4949712], [-123.254181, 47.4949507], [-123.254158, 47.4949329], [-123.2541047, 47.4949268], [-123.2540604, 47.4949274], [-123.2540234, 47.4949038], [-123.2539906, 47.4948781], [-123.2539544, 47.4948468], [-123.2539327, 47.494819], [-123.2539555, 47.4947887], [-123.2539662, 47.4947581], [-123.2539912, 47.4947454], [-123.254007, 47.4947271], [-123.2539713, 47.4946834], [-123.2539482, 47.4946255], [-123.2539235, 47.4945675], [-123.253892, 47.494529], [-123.2538604, 47.4944994], [-123.2538449, 47.4944633], [-123.2538321, 47.4944329], [-123.2537965, 47.494408], [-123.2537847, 47.4943799], [-123.2537271, 47.4943304], [-123.2537031, 47.4942704], [-123.2536435, 47.494227], [-123.2536048, 47.4942221], [-123.2535649, 47.494187], [-123.2535643, 47.4941471], [-123.2535259, 47.4941193], [-123.253479, 47.4941047], [-123.2534366, 47.4940832], [-123.2534139, 47.4940492], [-123.2534035, 47.4940135], [-123.2533401, 47.4939802], [-123.2532733, 47.4939566], [-123.2532077, 47.4939359], [-123.2531529, 47.4939392], [-123.2530753, 47.4939187], [-123.2530091, 47.493906], [-123.2529415, 47.4938741], [-123.2528802, 47.4938634], [-123.2528258, 47.4938431], [-123.2527628, 47.4937959], [-123.2526864, 47.493743], [-123.2525356, 47.4936808], [-123.2524915, 47.4936766], [-123.2524484, 47.4936851], [-123.2524169, 47.4936641], [-123.252389, 47.4936372], [-123.2523552, 47.4936165], [-123.2523105, 47.493613], [-123.2522741, 47.4936351], [-123.252224, 47.493623], [-123.2521446, 47.4936018], [-123.2520945, 47.4935676], [-123.2520807, 47.4935294], [-123.2520569, 47.4935027], [-123.252001, 47.493474], [-123.251896, 47.4934201], [-123.2518547, 47.4934168], [-123.2518241, 47.4934339], [-123.2517758, 47.4934475], [-123.2517063, 47.4934432], [-123.2516775, 47.4934591], [-123.2516325, 47.4934758], [-123.2515704, 47.4934651], [-123.2514049, 47.4934415], [-123.2513364, 47.493429], [-123.2513087, 47.4934174], [-123.2512899, 47.4933954], [-123.2512219, 47.4933754], [-123.2511737, 47.4933815], [-123.2510592, 47.4933534], [-123.2509611, 47.493325], [-123.2509412, 47.4932989], [-123.2508332, 47.4932956], [-123.2507906, 47.4932772], [-123.2507466, 47.4932728], [-123.2507039, 47.4932779], [-123.250626, 47.4932733], [-123.250577, 47.4932603], [-123.2505102, 47.4932617], [-123.2504652, 47.4932536], [-123.2504231, 47.493239], [-123.250381, 47.4932362], [-123.250346, 47.4932182], [-123.250308, 47.4932221], [-123.2502638, 47.4932355], [-123.2502178, 47.4932238], [-123.2501532, 47.4932222], [-123.2501157, 47.4931974], [-123.2500594, 47.4931877], [-123.2498516, 47.4931771], [-123.2498436, 47.4931897], [-123.2497918, 47.4931753], [-123.2497997, 47.4931621], [-123.2496032, 47.4931022], [-123.2495898, 47.4931177], [-123.2494895, 47.4930844], [-123.24949, 47.4930502], [-123.2493805, 47.4930303], [-123.2492896, 47.4930154], [-123.2492117, 47.4930051], [-123.2491562, 47.4929947], [-123.2491105, 47.4930024], [-123.2490819, 47.493034], [-123.249026, 47.4930399], [-123.2489812, 47.4930295], [-123.2489323, 47.4930289], [-123.2488878, 47.4930437], [-123.2488375, 47.493046], [-123.2487456, 47.4930435], [-123.248677, 47.4930629], [-123.2485975, 47.4930728], [-123.2485455, 47.4930615], [-123.2485123, 47.4930735], [-123.2484935, 47.4930948], [-123.2484592, 47.4930889], [-123.2484098, 47.4930748], [-123.2483562, 47.493074], [-123.2483118, 47.493103], [-123.248282, 47.4931113], [-123.2482429, 47.4931035], [-123.2481836, 47.4930807], [-123.2481032, 47.493062], [-123.2479859, 47.4930533], [-123.2478798, 47.4930804], [-123.2478335, 47.493074], [-123.2477909, 47.4930869], [-123.2477535, 47.4931118], [-123.2476867, 47.4931422], [-123.2476349, 47.4931577], [-123.2476115, 47.4931846], [-123.2475771, 47.4931812], [-123.2475565, 47.4931582], [-123.2474937, 47.4931651], [-123.2474532, 47.4931953], [-123.2474161, 47.4932083], [-123.2473366, 47.4932298], [-123.247307, 47.4932543], [-123.2473066, 47.4932959], [-123.2473146, 47.4933344], [-123.2473236, 47.493391], [-123.2473398, 47.4934493], [-123.2473334, 47.4934742], [-123.247318, 47.4934845], [-123.2472889, 47.4934745], [-123.2472748, 47.4934309], [-123.2472531, 47.493349], [-123.2472175, 47.4933274], [-123.2471983, 47.4932928], [-123.2471429, 47.4932131], [-123.247113, 47.4931106], [-123.2471225, 47.4929982], [-123.2471064, 47.49294], [-123.2470457, 47.4928984], [-123.2469619, 47.4928362], [-123.2469305, 47.4928014], [-123.2468294, 47.492757], [-123.2467488, 47.492748], [-123.2466813, 47.4927298], [-123.2465798, 47.4927017], [-123.2465224, 47.4926586], [-123.2464802, 47.4926202], [-123.2464211, 47.492583], [-123.2463679, 47.4925431], [-123.246218, 47.4924598], [-123.2456675, 47.492202], [-123.2456321, 47.4921601], [-123.2455813, 47.492134], [-123.2455384, 47.4921428], [-123.2454843, 47.4921564], [-123.2453818, 47.4921277], [-123.2452633, 47.4920982], [-123.2451295, 47.4920457], [-123.2449881, 47.4919807], [-123.2448911, 47.4919402], [-123.2447639, 47.4918907], [-123.2446455, 47.4917382], [-123.244596, 47.4916373], [-123.2445233, 47.4915186], [-123.2445138, 47.4914786], [-123.2444933, 47.4914314], [-123.2444549, 47.4913869], [-123.24437, 47.491353], [-123.2443368, 47.4912907], [-123.2442635, 47.4912486], [-123.2440685, 47.4911294], [-123.2440527, 47.4910783], [-123.2440244, 47.4910214], [-123.2439553, 47.4909602], [-123.2438768, 47.4908976], [-123.2438124, 47.490788], [-123.2437475, 47.490715], [-123.2436848, 47.4906199], [-123.2436257, 47.4905343], [-123.2435877, 47.4905291], [-123.2435229, 47.4904851], [-123.2434843, 47.4904589], [-123.2433663, 47.4904091], [-123.243283, 47.4903993], [-123.2431424, 47.4903899], [-123.243009, 47.4903893], [-123.2428374, 47.4903695], [-123.2427006, 47.4903912], [-123.2424732, 47.4904547], [-123.2422153, 47.4904807], [-123.2420001, 47.4905642], [-123.2419121, 47.4905892], [-123.2417816, 47.4905593], [-123.2416894, 47.4905965], [-123.2415804, 47.4906008], [-123.2413773, 47.4906869], [-123.2413045, 47.4906801], [-123.2412514, 47.4906515], [-123.2412751, 47.490586], [-123.2413431, 47.490529], [-123.2414569, 47.4904538], [-123.2415165, 47.4903678], [-123.2416295, 47.4902777], [-123.2417571, 47.4902449], [-123.241831, 47.4901793], [-123.2417964, 47.4901203], [-123.2418729, 47.4900344], [-123.2419328, 47.4900062], [-123.242035, 47.489958], [-123.2420889, 47.4898882], [-123.242026, 47.489852], [-123.2421516, 47.4898057], [-123.2422929, 47.4897405], [-123.2424117, 47.4897173], [-123.2424799, 47.4896439], [-123.2426402, 47.489587], [-123.2427235, 47.4895872], [-123.2428007, 47.4895485], [-123.2428481, 47.4895119], [-123.2431195, 47.4894117], [-123.243243, 47.489354], [-123.2432623, 47.4893058], [-123.2432937, 47.4892912], [-123.2432721, 47.4892578], [-123.2432301, 47.4892404], [-123.2432112, 47.4891568], [-123.2432066, 47.4890894], [-123.2431806, 47.4890423], [-123.2431227, 47.489016], [-123.2430758, 47.4888517], [-123.2430311, 47.4886885], [-123.2430454, 47.4886413], [-123.2430781, 47.4885718], [-123.2430327, 47.4885394], [-123.2430156, 47.4884697], [-123.2429975, 47.4883745], [-123.2429137, 47.4883386], [-123.2429278, 47.488267], [-123.2429344, 47.4881912], [-123.2428709, 47.4881559], [-123.2428552, 47.4881222], [-123.2427581, 47.4880861], [-123.2424934, 47.488096], [-123.2424559, 47.4880719], [-123.2424861, 47.488017], [-123.2425717, 47.4879776], [-123.2426756, 47.4879374], [-123.2427522, 47.4879388], [-123.2428431, 47.4879203], [-123.242938, 47.4878767], [-123.2430134, 47.4878496], [-123.2431006, 47.4878109], [-123.2431713, 47.4877561], [-123.2432636, 47.4877067], [-123.2433795, 47.4875977], [-123.243481, 47.4875317], [-123.243484, 47.4874802], [-123.243506, 47.4874396], [-123.2435047, 47.4874048], [-123.2434825, 47.4873455], [-123.243493, 47.4873025], [-123.2435908, 47.4872674], [-123.2437523, 47.4871765], [-123.2439295, 47.487034], [-123.2439666, 47.4869931], [-123.2439297, 47.4869475], [-123.2438496, 47.4869359], [-123.2437637, 47.4869301], [-123.24369, 47.4868762], [-123.2436826, 47.4868274], [-123.243736, 47.4868076], [-123.2437915, 47.4867827], [-123.2437805, 47.486744], [-123.2437134, 47.4867023], [-123.2436758, 47.4866626], [-123.2436965, 47.4866365], [-123.2437306, 47.4866272], [-123.2437538, 47.4866086], [-123.2437311, 47.4865814], [-123.2436742, 47.4865689], [-123.243663, 47.486536], [-123.2436555, 47.486469], [-123.243621, 47.4864193], [-123.2435995, 47.4863788], [-123.2435872, 47.4863453], [-123.2435827, 47.4862996], [-123.243577, 47.4862565], [-123.2436061, 47.4862039], [-123.2436275, 47.4861464], [-123.2436734, 47.4861085], [-123.243739, 47.4860544], [-123.243741, 47.4860097], [-123.243742, 47.4859789], [-123.243797, 47.4859524], [-123.243823, 47.4859349], [-123.24388, 47.4859245], [-123.243954, 47.4859201], [-123.243996, 47.4859019], [-123.2440234, 47.485883], [-123.244061, 47.4858695], [-123.24413, 47.4858563], [-123.2441944, 47.4858555], [-123.244281, 47.4858814], [-123.2443504, 47.4858888], [-123.244421, 47.4858516], [-123.2444947, 47.4857985], [-123.2445011, 47.4857439], [-123.2445497, 47.4857189], [-123.2446459, 47.4857075], [-123.2447198, 47.485707], [-123.2447621, 47.4857374], [-123.244858, 47.4857302], [-123.244935, 47.4857711], [-123.245045, 47.4857618], [-123.245108, 47.4857438], [-123.2451613, 47.4857427], [-123.2452054, 47.4857644], [-123.2452316, 47.4857665], [-123.2452877, 47.485771], [-123.245348, 47.4857694], [-123.245847, 47.4857436], [-123.2458992, 47.4857101], [-123.2459638, 47.4856762], [-123.2459906, 47.4856572], [-123.2460233, 47.4856418], [-123.246059, 47.4856342], [-123.2460667, 47.4856098], [-123.2460888, 47.4855962], [-123.2461002, 47.4855729], [-123.246149, 47.485536], [-123.2463003, 47.4854113], [-123.2463569, 47.4853594], [-123.246398, 47.4853399], [-123.246443, 47.4853311], [-123.246504, 47.4853435], [-123.2465599, 47.485375], [-123.246598, 47.4854064], [-123.246652, 47.4854065], [-123.246697, 47.4853784], [-123.2467137, 47.4853091], [-123.2467027, 47.4852182], [-123.246707, 47.485137], [-123.2467401, 47.4850008], [-123.2467211, 47.484858], [-123.2466769, 47.4847985], [-123.246612, 47.4847484], [-123.2465603, 47.4847143], [-123.246484, 47.4846752], [-123.2464306, 47.4846615], [-123.2463691, 47.4846166], [-123.246317, 47.4845635], [-123.246256, 47.4845406], [-123.2461738, 47.4844938], [-123.2461055, 47.4844259], [-123.246058, 47.4843405], [-123.2460255, 47.484282], [-123.2459902, 47.4841982], [-123.2459901, 47.4838252], [-123.2460186, 47.4834434], [-123.2460581, 47.4831744], [-123.2460565, 47.4831163], [-123.2460203, 47.4830573], [-123.2459561, 47.4830378], [-123.2458431, 47.4829513], [-123.2457241, 47.4829199], [-123.2456389, 47.4828862], [-123.2455552, 47.4828125], [-123.2454646, 47.4827473], [-123.2453599, 47.4826915], [-123.2452748, 47.4826146], [-123.2451533, 47.482575], [-123.245006, 47.4825109], [-123.2448805, 47.4824798], [-123.2448062, 47.4824695], [-123.2447569, 47.4824442], [-123.2446853, 47.4823926], [-123.2446059, 47.4823205], [-123.2445586, 47.4823114], [-123.2445171, 47.4822852], [-123.2444899, 47.4822503], [-123.2444474, 47.4822145], [-123.2443998, 47.4821856], [-123.2443219, 47.4821608], [-123.2442714, 47.4821682], [-123.2442218, 47.4821674], [-123.2442016, 47.482149], [-123.2441886, 47.4821305], [-123.2441333, 47.482125], [-123.2440804, 47.4821208], [-123.2440263, 47.4821278], [-123.2439666, 47.4821134], [-123.2438961, 47.482116], [-123.243801, 47.482092], [-123.2436011, 47.4821454], [-123.2434327, 47.4821308], [-123.2432646, 47.4821756], [-123.243081, 47.4822305], [-123.2430287, 47.4823346], [-123.2428069, 47.4823788], [-123.2425898, 47.4823847], [-123.2427243, 47.4822542], [-123.2428204, 47.4821792], [-123.2428338, 47.4821213], [-123.2429486, 47.4820609], [-123.2430382, 47.4819873], [-123.243117, 47.4819442], [-123.2432014, 47.481959], [-123.2432887, 47.48196], [-123.2434478, 47.4818814], [-123.2435477, 47.4818118], [-123.2436677, 47.48175], [-123.2438071, 47.4817369], [-123.243904, 47.4817087], [-123.2439923, 47.4816473], [-123.2440991, 47.4816505], [-123.2441569, 47.4816847], [-123.2442311, 47.4817528], [-123.2442996, 47.4817677], [-123.2443825, 47.4817484], [-123.2444944, 47.4817896], [-123.244587, 47.481775], [-123.2446395, 47.4818309], [-123.2446426, 47.4819041], [-123.2446955, 47.4819287], [-123.2447961, 47.4819239], [-123.2448816, 47.4819575], [-123.2449803, 47.481994], [-123.2451327, 47.4819773], [-123.2452355, 47.4819661], [-123.2453151, 47.4819219], [-123.2454537, 47.4819372], [-123.2455226, 47.4819125], [-123.2456553, 47.4819429], [-123.2457376, 47.4819828], [-123.245829, 47.4819713], [-123.2459075, 47.4819424], [-123.2460468, 47.4818537], [-123.2461004, 47.4817697], [-123.2461716, 47.4816655], [-123.2462026, 47.4814945], [-123.2463766, 47.4814786], [-123.2463549, 47.4813571], [-123.2463276, 47.4812156], [-123.2462816, 47.4811023], [-123.2461145, 47.480976], [-123.2460454, 47.4809182], [-123.2459749, 47.4809011], [-123.2459289, 47.4808638], [-123.2459637, 47.4808095], [-123.2459775, 47.4807504], [-123.2460549, 47.4806822], [-123.2461666, 47.4806407], [-123.2462954, 47.4805009], [-123.2463215, 47.4804345], [-123.246422, 47.480377], [-123.2464053, 47.4801798], [-123.246338, 47.4799169], [-123.2464087, 47.4797226], [-123.2465159, 47.4796775], [-123.246596, 47.47956], [-123.2466852, 47.479235], [-123.2467043, 47.4789754], [-123.246806, 47.478801], [-123.2468547, 47.4785972], [-123.2469716, 47.4783331], [-123.2470603, 47.4781213], [-123.2470775, 47.4779975], [-123.2471767, 47.4778619], [-123.2472327, 47.4776674], [-123.247281, 47.4775482], [-123.247328, 47.4773613], [-123.2474018, 47.4772197], [-123.247488, 47.4770971], [-123.2476622, 47.4769815], [-123.247789, 47.476772], [-123.247811, 47.4767206], [-123.2478537, 47.4766526], [-123.2479049, 47.4765725], [-123.2479372, 47.4764231], [-123.2479364, 47.476323], [-123.2479821, 47.4762779], [-123.247895, 47.476188], [-123.2478678, 47.4760768], [-123.2477456, 47.4759821], [-123.2476739, 47.4758679], [-123.247522, 47.4757862], [-123.2474414, 47.4757062], [-123.2473798, 47.4756497], [-123.247234, 47.475595], [-123.246985, 47.4755176], [-123.2469243, 47.4754611], [-123.2468408, 47.4754081], [-123.2468224, 47.4753389], [-123.2467784, 47.475282], [-123.2467178, 47.4752314], [-123.2466833, 47.475154], [-123.2466019, 47.4750686], [-123.246557, 47.475022], [-123.2464178, 47.4749471], [-123.2462612, 47.4749235], [-123.2460804, 47.4748856], [-123.2459822, 47.4749029], [-123.2458917, 47.4748918], [-123.2456927, 47.4748439], [-123.2455127, 47.4747842], [-123.2453307, 47.4746995], [-123.2452164, 47.474619], [-123.2451516, 47.4745313], [-123.2451027, 47.4744649], [-123.2450157, 47.4744023], [-123.2448675, 47.4743339], [-123.2447078, 47.4742968], [-123.244615, 47.4742292], [-123.2445249, 47.4742186], [-123.2443956, 47.4742705], [-123.2442514, 47.4742681], [-123.2440474, 47.4742534], [-123.2439792, 47.4742119], [-123.2438872, 47.4742276], [-123.2437874, 47.4741881], [-123.2437047, 47.4742261], [-123.2436009, 47.4742374], [-123.2434977, 47.4742298], [-123.2432931, 47.4741936], [-123.2430854, 47.4741224], [-123.2429896, 47.4740786], [-123.2429142, 47.4740231], [-123.2427569, 47.4739342], [-123.2426201, 47.4739025], [-123.2425536, 47.4738492], [-123.242425, 47.473836], [-123.2423479, 47.4737535], [-123.2422207, 47.4736657], [-123.2420199, 47.473632], [-123.2418374, 47.4736118], [-123.2416929, 47.4735566], [-123.241538, 47.4734695], [-123.2414126, 47.4734238], [-123.2413381, 47.4734111], [-123.2412452, 47.4734108], [-123.241116, 47.4734878], [-123.2410603, 47.473533], [-123.2408739, 47.473526], [-123.2408158, 47.4734849], [-123.2407291, 47.4734583], [-123.2406142, 47.4734441], [-123.240549, 47.4734068], [-123.2403872, 47.4733833], [-123.2403688, 47.4733417], [-123.240303, 47.473313], [-123.2401848, 47.4733037], [-123.2400614, 47.4732748], [-123.2399371, 47.4732134], [-123.2397641, 47.473186], [-123.2396019, 47.4731923], [-123.2394869, 47.473214], [-123.2393761, 47.4732438], [-123.239317, 47.4732014], [-123.239238, 47.4731771], [-123.2391991, 47.4731432], [-123.2391873, 47.4731013], [-123.2391685, 47.4730794], [-123.2390552, 47.4730851], [-123.2389656, 47.4731145], [-123.2388602, 47.4731314], [-123.2386731, 47.4731766], [-123.2385121, 47.4732103], [-123.2383949, 47.4732765], [-123.2381878, 47.4732866], [-123.2380325, 47.4732691], [-123.2378859, 47.4732815], [-123.2377906, 47.4732443], [-123.23769, 47.473241], [-123.2375203, 47.4731751], [-123.2373349, 47.473145], [-123.2371656, 47.4731561], [-123.2368916, 47.4731871], [-123.2366688, 47.4731627], [-123.2365396, 47.4731115], [-123.236405, 47.473073], [-123.2363432, 47.4729992], [-123.2363375, 47.4729296], [-123.2362726, 47.4728726], [-123.2361796, 47.4728677], [-123.2361066, 47.4728606], [-123.2360545, 47.4727831], [-123.2361378, 47.4727129], [-123.2362493, 47.4726557], [-123.2362112, 47.4724843], [-123.2361833, 47.4723857], [-123.236108, 47.472329], [-123.2361297, 47.472262], [-123.2361204, 47.4721647], [-123.235982, 47.4721374], [-123.2358904, 47.4720356], [-123.2358338, 47.471916], [-123.2356376, 47.471889], [-123.2355812, 47.4717765], [-123.2353881, 47.4717275], [-123.235189, 47.4718056], [-123.2350916, 47.4717895], [-123.235096, 47.471654], [-123.2350945, 47.471557], [-123.234989, 47.4714896], [-123.2347322, 47.4714614], [-123.234394, 47.4714175], [-123.2341843, 47.4712776], [-123.2339854, 47.4711205], [-123.2338589, 47.4709811], [-123.2336573, 47.4708325], [-123.2336132, 47.4707041], [-123.2332985, 47.4705918], [-123.2333313, 47.4705229], [-123.2332757, 47.4704677], [-123.233107, 47.4704989], [-123.2329441, 47.4705579], [-123.2328582, 47.4704819], [-123.232854, 47.47039], [-123.232707, 47.4703], [-123.2325345, 47.4703158], [-123.232344, 47.4702325], [-123.232346, 47.4701214], [-123.2322635, 47.470089], [-123.2321119, 47.4699837], [-123.2320121, 47.4699157], [-123.2318907, 47.4698824], [-123.2317163, 47.4698865], [-123.2316033, 47.4698064], [-123.231551, 47.4697916], [-123.2314109, 47.469752], [-123.2311501, 47.4696619], [-123.2308451, 47.4696409], [-123.2305811, 47.4696745], [-123.230385, 47.4697401], [-123.2301467, 47.4697202], [-123.23001, 47.4697801], [-123.2298751, 47.4697693], [-123.2297483, 47.4697856], [-123.2296039, 47.4698719], [-123.2295071, 47.4698557], [-123.2293443, 47.4698669], [-123.2292226, 47.4698086], [-123.2290627, 47.4696927], [-123.2291147, 47.4696511], [-123.2292371, 47.4696095], [-123.2293171, 47.4695233], [-123.229329, 47.4694219], [-123.2292964, 47.4693531], [-123.229305, 47.4692827], [-123.2294014, 47.4691762], [-123.2294516, 47.4691212], [-123.229484, 47.4690586], [-123.2294698, 47.4689409], [-123.229395, 47.4688615], [-123.229285, 47.4688262], [-123.2291923, 47.4688338], [-123.2291018, 47.4688577], [-123.2289712, 47.4688637], [-123.2288047, 47.4688301], [-123.2287408, 47.4687834], [-123.228639, 47.468759], [-123.228531, 47.4686161], [-123.2284525, 47.4685506], [-123.228354, 47.468491], [-123.2281181, 47.4683054], [-123.2279547, 47.4682042], [-123.2277561, 47.468039], [-123.2276459, 47.467904], [-123.2275386, 47.4678189], [-123.227381, 47.467738], [-123.2272625, 47.4676514], [-123.2271504, 47.4675637], [-123.2269722, 47.4674253], [-123.2267219, 47.4673188], [-123.2265666, 47.4672058], [-123.2264535, 47.4671628], [-123.226358, 47.4671047], [-123.2263871, 47.4669966], [-123.2263633, 47.4668842], [-123.2261045, 47.4666237], [-123.2259104, 47.4664941], [-123.2258331, 47.4664434], [-123.2257998, 47.4663823], [-123.2257875, 47.4662931], [-123.2256945, 47.4662327], [-123.2255895, 47.4661805], [-123.225444, 47.4661229], [-123.2251275, 47.4658695], [-123.2249992, 47.4657968], [-123.224939, 47.4657613], [-123.2248703, 47.4657527], [-123.2246937, 47.4658164], [-123.2245804, 47.4659294], [-123.224502, 47.4659588], [-123.2244214, 47.4659266], [-123.2244113, 47.4658194], [-123.2244386, 47.4657135], [-123.2244356, 47.4655907], [-123.2243952, 47.4655171], [-123.2243507, 47.4654813], [-123.224285, 47.4654541], [-123.2242028, 47.4654421], [-123.2240891, 47.4654217], [-123.2239516, 47.4654563], [-123.2238459, 47.4654911], [-123.223736, 47.4655529], [-123.2235523, 47.4657778], [-123.2234557, 47.4659234], [-123.223328, 47.466048], [-123.2232321, 47.4661371], [-123.2230703, 47.4662057], [-123.2229124, 47.4663269], [-123.222763, 47.4664073], [-123.2225402, 47.4664808], [-123.2223588, 47.466519], [-123.2222103, 47.4665636], [-123.2220972, 47.4666518], [-123.2220083, 47.4666925], [-123.221848, 47.4667127], [-123.2217318, 47.4667676], [-123.2216765, 47.4668994], [-123.2216783, 47.4670237], [-123.2217233, 47.4670922], [-123.2217249, 47.4671416], [-123.2216105, 47.4672469], [-123.2215544, 47.4673659], [-123.2214765, 47.4674429], [-123.221434, 47.4675465], [-123.221274, 47.4676614], [-123.2211607, 47.4677737], [-123.2211392, 47.4678891], [-123.2211363, 47.468002], [-123.2210286, 47.4682187], [-123.2209324, 47.4684066], [-123.2208923, 47.468509], [-123.220873, 47.4686095], [-123.2207314, 47.4688519], [-123.2205915, 47.4689668], [-123.2204857, 47.4690616], [-123.2203813, 47.469171], [-123.2203079, 47.469272], [-123.2202192, 47.4693249], [-123.220078, 47.4693726], [-123.2199208, 47.4693845], [-123.21979, 47.4693897], [-123.2196308, 47.469492], [-123.2195671, 47.4695545], [-123.2195202, 47.469617], [-123.2194603, 47.4695301], [-123.219421, 47.4694683], [-123.2193749, 47.4694456], [-123.219278, 47.4694532], [-123.2191786, 47.469446], [-123.2190678, 47.4693819], [-123.218965, 47.4693596], [-123.218622, 47.4693569], [-123.2184633, 47.4693929], [-123.218327, 47.469458], [-123.2181599, 47.4695632], [-123.218058, 47.4696372], [-123.2179142, 47.4696702], [-123.2177577, 47.469693], [-123.2176094, 47.4698037], [-123.2173724, 47.4698889], [-123.2172735, 47.4699282], [-123.2172194, 47.4699878], [-123.2171647, 47.4700527], [-123.2171123, 47.4701278], [-123.21701, 47.4702565], [-123.2169931, 47.4703257], [-123.2170162, 47.4703857], [-123.2170221, 47.4704632], [-123.2169905, 47.4705269], [-123.2168755, 47.470609], [-123.2167591, 47.4706519], [-123.2165964, 47.4706763], [-123.21649, 47.4706908], [-123.2163287, 47.4707919], [-123.2161116, 47.470954], [-123.2159947, 47.4710433], [-123.2159216, 47.471095], [-123.2158752, 47.4711815], [-123.2158047, 47.4712541], [-123.2157596, 47.4713643], [-123.2157021, 47.4714061], [-123.2156864, 47.4714463], [-123.2156371, 47.471479], [-123.2155579, 47.471496], [-123.2155343, 47.4715248], [-123.2155124, 47.471571], [-123.2154409, 47.4716271], [-123.2152971, 47.4716745], [-123.2151353, 47.4717225], [-123.2149632, 47.4717465], [-123.2148622, 47.471807], [-123.214763, 47.4719455], [-123.2146295, 47.4720303], [-123.214566, 47.4721037], [-123.2144354, 47.4721655], [-123.214373, 47.4722473], [-123.214376, 47.4723016], [-123.2143097, 47.4723494], [-123.2142229, 47.4723745], [-123.2141933, 47.4724147], [-123.2142133, 47.4724964], [-123.2141708, 47.4725388], [-123.214188, 47.4725758], [-123.2142023, 47.4726091], [-123.2141494, 47.4726473], [-123.2141318, 47.4727176], [-123.2140894, 47.4727576], [-123.2140451, 47.4726907], [-123.2139938, 47.472576], [-123.2140147, 47.4725066], [-123.2140132, 47.472427], [-123.2139352, 47.472287], [-123.2139483, 47.4721834], [-123.2139469, 47.4721126], [-123.213893, 47.4720527], [-123.2138266, 47.4719968], [-123.213787, 47.4719348], [-123.2137762, 47.4718246], [-123.213896, 47.471795], [-123.2140392, 47.4717118], [-123.214124, 47.471632], [-123.2141372, 47.4715648], [-123.2141031, 47.4715037], [-123.2140578, 47.4714562], [-123.2140326, 47.4714087], [-123.2141299, 47.4713414], [-123.2141708, 47.4712726], [-123.2141639, 47.4711543], [-123.2141677, 47.4710964], [-123.214214, 47.4710446], [-123.214385, 47.4709474], [-123.2144513, 47.4708979], [-123.2144864, 47.4708407], [-123.2145503, 47.470832], [-123.2146233, 47.4708611], [-123.214711, 47.470845], [-123.2148011, 47.4708063], [-123.214871, 47.4707477], [-123.214925, 47.4706313], [-123.2148854, 47.4705484], [-123.2149686, 47.4704927], [-123.2150581, 47.4704681], [-123.2151249, 47.4704212], [-123.2152806, 47.4702581], [-123.2152894, 47.4702231], [-123.2152417, 47.4702014], [-123.215074, 47.4701891], [-123.2149748, 47.4701915], [-123.2148599, 47.4702179], [-123.2145871, 47.4703345], [-123.2144637, 47.4704466], [-123.214366, 47.4704461], [-123.2143485, 47.4704002], [-123.214418, 47.470259], [-123.214706, 47.4699999], [-123.2149611, 47.4698739], [-123.2151633, 47.4698435], [-123.2153597, 47.4698941], [-123.2155064, 47.4698794], [-123.215718, 47.469776], [-123.216368, 47.469306], [-123.2166843, 47.4690941], [-123.216869, 47.4688892], [-123.2170217, 47.468527], [-123.21771, 47.4683172], [-123.218298, 47.4680444], [-123.218948, 47.4675041], [-123.219223, 47.467447], [-123.219893, 47.4670594], [-123.220041, 47.4664435], [-123.220323, 47.4659708], [-123.221527, 47.4650353], [-123.2217673, 47.4648325], [-123.2218776, 47.4644716], [-123.2218127, 47.4644324], [-123.22165, 47.4644546], [-123.2216101, 47.46446], [-123.2214097, 47.4644324], [-123.2212901, 47.4643848], [-123.2212198, 47.4643313], [-123.2212569, 47.4642851], [-123.2213484, 47.4642573], [-123.2214655, 47.4642246], [-123.221632, 47.4641106], [-123.222041, 47.4638166], [-123.2221652, 47.4636407], [-123.222183, 47.4636155], [-123.2219326, 47.4634526], [-123.2217818, 47.4631355], [-123.2216941, 47.4630792], [-123.22175, 47.4630263], [-123.221705, 47.462872], [-123.2218178, 47.462708], [-123.2219229, 47.4626882], [-123.222003, 47.4626296], [-123.222098, 47.4624515], [-123.2222098, 47.4623383], [-123.2222732, 47.4623232], [-123.2222997, 47.4623641], [-123.2221986, 47.4624575], [-123.222162, 47.4625659], [-123.2222155, 47.4626093], [-123.2223113, 47.4626022], [-123.222411, 47.462537], [-123.2225006, 47.4625187], [-123.2225939, 47.4624493], [-123.2226516, 47.4622942], [-123.2226785, 47.4621265], [-123.222745, 47.4619689], [-123.2228667, 47.4618018], [-123.2229421, 47.4616983], [-123.2229956, 47.4616249], [-123.223119, 47.4614917], [-123.2231008, 47.4614238], [-123.2229295, 47.4613229], [-123.2227377, 47.4612279], [-123.2225621, 47.4610991], [-123.222333, 47.460972], [-123.2220275, 47.4609395], [-123.221948, 47.4609485], [-123.2219237, 47.4608726], [-123.2218405, 47.4608187], [-123.221736, 47.4607511], [-123.221621, 47.4607785], [-123.221471, 47.4608804], [-123.2212529, 47.4610554], [-123.2210757, 47.4611361], [-123.2209164, 47.4613011], [-123.2207528, 47.4614391], [-123.2206517, 47.4616269], [-123.22048, 47.4617758], [-123.2204141, 47.461766], [-123.2204236, 47.4615744], [-123.220567, 47.4612888], [-123.2207041, 47.4612023], [-123.2208287, 47.4610906], [-123.2208065, 47.460942], [-123.2207843, 47.4608262], [-123.2205585, 47.4606615], [-123.2205076, 47.4606192], [-123.220489, 47.4605757], [-123.2204726, 47.4605355], [-123.2204433, 47.4605068], [-123.2204003, 47.4604882], [-123.2203372, 47.4604606], [-123.2202901, 47.4604368], [-123.2201784, 47.4604192], [-123.2200833, 47.4604043], [-123.2200411, 47.4604238], [-123.2199514, 47.4604396], [-123.2198544, 47.4604505], [-123.2198179, 47.4604653], [-123.2197902, 47.4604937], [-123.2197601, 47.4605257], [-123.2197049, 47.4605443], [-123.2194812, 47.4605619], [-123.2193288, 47.4605861], [-123.2191812, 47.4606215], [-123.2190601, 47.4607723], [-123.2189883, 47.460804], [-123.2188529, 47.4608222], [-123.2187176, 47.4608026], [-123.2183866, 47.4607164], [-123.2182188, 47.4606339], [-123.218078, 47.4605371], [-123.2180037, 47.4605027], [-123.2180207, 47.4604434], [-123.2180949, 47.4603054], [-123.2180584, 47.4602477], [-123.218002, 47.4602027], [-123.2179408, 47.4601937], [-123.2178265, 47.4602313], [-123.2176448, 47.4602983], [-123.2175098, 47.4603594], [-123.2174541, 47.4603504], [-123.2174268, 47.4603068], [-123.2174689, 47.4602343], [-123.217506, 47.460119], [-123.217498, 47.4599115], [-123.217517, 47.4598159], [-123.217488, 47.4597869], [-123.2174236, 47.4597907], [-123.2173206, 47.4598286], [-123.2171699, 47.4598997], [-123.217113, 47.4599599], [-123.2170457, 47.4599266], [-123.2169476, 47.4599179], [-123.216736, 47.4599814], [-123.2164963, 47.4600941], [-123.2164112, 47.4601094], [-123.2163205, 47.4601087], [-123.2161053, 47.460146], [-123.216018, 47.4601123], [-123.2160209, 47.4600928], [-123.2161076, 47.4600643], [-123.2162012, 47.4600332], [-123.2164303, 47.4599465], [-123.2165845, 47.4598604], [-123.2167535, 47.4597714], [-123.216929, 47.459642], [-123.2169726, 47.4595924], [-123.2169821, 47.4595327], [-123.2169013, 47.4594676], [-123.2167585, 47.4594213], [-123.2165995, 47.4594009], [-123.216527, 47.4593915], [-123.2165326, 47.4593625], [-123.216539, 47.4593296], [-123.2166934, 47.4593509], [-123.2168157, 47.4593544], [-123.2169756, 47.4593903], [-123.2171586, 47.4593377], [-123.2172475, 47.4592975], [-123.2172892, 47.4592646], [-123.2173177, 47.4591291], [-123.2172711, 47.458999], [-123.2172462, 47.4589574], [-123.2172085, 47.4588942], [-123.2171678, 47.4588515], [-123.2171276, 47.4588277], [-123.2170813, 47.45881], [-123.2169912, 47.4587962], [-123.2168841, 47.4587446], [-123.2168595, 47.458723], [-123.2168362, 47.4586985], [-123.2168073, 47.4586681], [-123.21677, 47.458601], [-123.216783, 47.4584988], [-123.2168212, 47.4583832], [-123.2168957, 47.4582539], [-123.216992, 47.4581502], [-123.2171114, 47.4580001], [-123.2171448, 47.457962], [-123.2171703, 47.4578651], [-123.2171598, 47.4577199], [-123.2171013, 47.4575513], [-123.2170442, 47.4573891], [-123.2169442, 47.4571989], [-123.2170158, 47.457177], [-123.2170616, 47.4572087], [-123.2170973, 47.4572039], [-123.217126, 47.4571577], [-123.2171459, 47.4570844], [-123.217119, 47.4570251], [-123.2171415, 47.4568977], [-123.2171622, 47.456743], [-123.2170951, 47.4566568], [-123.2168374, 47.456411], [-123.2167879, 47.4563338], [-123.2168492, 47.4562976], [-123.2171112, 47.4561766], [-123.2173341, 47.4560829], [-123.2174622, 47.4559762], [-123.2174021, 47.4556079], [-123.217177, 47.455356], [-123.2173106, 47.4552303], [-123.2172515, 47.454898], [-123.215374, 47.454381], [-123.212654, 47.454143], [-123.211973, 47.453991], [-123.211884, 47.453928], [-123.211869, 47.453838], [-123.211927, 47.453685], [-123.211881, 47.453424], [-123.21158, 47.453191], [-123.211598, 47.453047], [-123.211836, 47.452903], [-123.211814, 47.452741], [-123.211916, 47.45256], [-123.211985, 47.452047], [-123.211815, 47.451751], [-123.212054, 47.451516], [-123.21194, 47.451112], [-123.21218, 47.450913], [-123.212088, 47.450455], [-123.212463, 47.450373], [-123.212634, 47.450247], [-123.2131092, 47.4497453], [-123.213351, 47.44949], [-123.21335, 47.449391], [-123.213032, 47.449265], [-123.213204, 47.448806], [-123.212727, 47.44842], [-123.212605, 47.448249], [-123.213045, 47.448176], [-123.213226, 47.448023], [-123.213534, 47.447456], [-123.213568, 47.447204], [-123.213774, 47.446942], [-123.213848, 47.446537], [-123.2140448, 47.4463025], [-123.2142185, 47.445895], [-123.2145165, 47.4457511], [-123.214968, 47.445554], [-123.2157885, 47.4451994], [-123.216766, 47.444777], [-123.217016, 47.44457], [-123.217027, 47.4443], [-123.216914, 47.443697], [-123.216869, 47.443517], [-123.216721, 47.443329], [-123.216915, 47.44295], [-123.216915, 47.442806], [-123.216745, 47.442492], [-123.21704, 47.442275], [-123.217154, 47.441933], [-123.217415, 47.441465], [-123.217859, 47.441041], [-123.21787, 47.440897], [-123.2176846, 47.4407007], [-123.217666, 47.440681], [-123.217666, 47.440609], [-123.217973, 47.440312], [-123.218007, 47.440213], [-123.217917, 47.439826], [-123.218019, 47.439583], [-123.218031, 47.439259], [-123.218316, 47.43888], [-123.218394, 47.438574], [-123.218305, 47.438143], [-123.21844, 47.437827], [-123.218486, 47.437386], [-123.218408, 47.437054], [-123.218737, 47.436747], [-123.218976, 47.436045], [-123.218988, 47.435775], [-123.219238, 47.435316], [-123.219465, 47.434712], [-123.219478, 47.434595], [-123.2193981, 47.4344629], [-123.219261, 47.434236], [-123.219249, 47.433948], [-123.219137, 47.433633], [-123.21933, 47.432724], [-123.21941, 47.432472], [-123.219558, 47.432256], [-123.219899, 47.431922], [-123.220104, 47.431319], [-123.22007, 47.431004], [-123.219819, 47.430617], [-123.219547, 47.430492], [-123.21949, 47.430393], [-123.219434, 47.429844], [-123.219524, 47.429592], [-123.219514, 47.428962], [-123.2193883, 47.4287824], [-123.219206, 47.428522], [-123.219161, 47.428315], [-123.219162, 47.428171], [-123.219321, 47.427901], [-123.219401, 47.427487], [-123.2194623, 47.4273618], [-123.2195451, 47.4272554], [-123.2196287, 47.4271694], [-123.2196538, 47.4271307], [-123.2196455, 47.4270995], [-123.2196025, 47.4270877], [-123.2195297, 47.4270894], [-123.2194113, 47.4271017], [-123.219285, 47.4271161], [-123.2191501, 47.4271315], [-123.219035, 47.4271288], [-123.2189921, 47.4271245], [-123.218943, 47.427117], [-123.2188507, 47.427105], [-123.2187467, 47.427054], [-123.218689, 47.4269476], [-123.2186919, 47.4269167], [-123.2186929, 47.4269055], [-123.2186939, 47.4268955], [-123.2186977, 47.4268518], [-123.2187002, 47.4268297], [-123.2188199, 47.4267337], [-123.218992, 47.426669], [-123.21948, 47.426578], [-123.220299, 47.426342], [-123.220436, 47.426252], [-123.220619, 47.426009], [-123.220652, 47.425595], [-123.220937, 47.425126], [-123.220994, 47.424865], [-123.221119, 47.424658], [-123.221218, 47.4244431], [-123.221289, 47.424289], [-123.2216509, 47.4239564], [-123.2216287, 47.423854], [-123.2214266, 47.4238201], [-123.2212698, 47.4237], [-123.2212288, 47.4235854], [-123.221145, 47.4235464], [-123.2210898, 47.423491], [-123.2210827, 47.4234092], [-123.2211422, 47.4233393], [-123.2212389, 47.4232946], [-123.2217806, 47.4232081], [-123.2221957, 47.4231455], [-123.2223262, 47.4231188], [-123.2224334, 47.4230832], [-123.2225215, 47.4230359], [-123.2226014, 47.4229851], [-123.2226684, 47.4229326], [-123.22272, 47.4228857], [-123.2227639, 47.4228369], [-123.2228009, 47.4227854], [-123.2228429, 47.4227091], [-123.2228616, 47.4226452], [-123.2228721, 47.4225699], [-123.2228596, 47.4224704], [-123.2228408, 47.4223923], [-123.2228091, 47.422317], [-123.2227722, 47.4222618], [-123.2227237, 47.4222032], [-123.2226626, 47.42215], [-123.2225987, 47.4220981], [-123.2225247, 47.422048], [-123.2224464, 47.4219823], [-123.2223908, 47.4219077], [-123.2223609, 47.4218263], [-123.222358, 47.4217418], [-123.2223703, 47.4216917], [-123.2224087, 47.4216508], [-123.222632, 47.421677], [-123.223087, 47.421676], [-123.223308, 47.421613], [-123.223314, 47.421388], [-123.223064, 47.421028], [-123.223496, 47.420703], [-123.223611, 47.420424], [-123.223598, 47.420145], [-123.223804, 47.419839], [-123.223815, 47.419758], [-123.223701, 47.419686], [-123.223701, 47.419623], [-123.223974, 47.419515], [-123.223986, 47.419461], [-123.223815, 47.419371], [-123.223816, 47.419308], [-123.224065, 47.419155], [-123.22435, 47.419127], [-123.224418, 47.419073], [-123.2245871, 47.4188143], [-123.2245691, 47.4185097], [-123.2249548, 47.4182996], [-123.2249065, 47.418233], [-123.225076, 47.4181763], [-123.2252373, 47.4181224], [-123.2252888, 47.4181889], [-123.2254331, 47.4181725], [-123.2255664, 47.4181435], [-123.225668, 47.4181604], [-123.2257498, 47.4182379], [-123.2257681, 47.4183572], [-123.2258158, 47.4184085], [-123.2258214, 47.4184551], [-123.2258407, 47.4184272], [-123.2258822, 47.4184229], [-123.2259278, 47.4184343], [-123.2259639, 47.4184649], [-123.2260707, 47.4186744], [-123.2261388, 47.4187226], [-123.2261742, 47.4187738], [-123.2261706, 47.4188306], [-123.2261983, 47.4188566], [-123.226278, 47.418857], [-123.2263139, 47.4188363], [-123.2263272, 47.4187548], [-123.226357, 47.418718], [-123.2263506, 47.4186812], [-123.2263306, 47.4186634], [-123.2263049, 47.4186135], [-123.2263691, 47.4185807], [-123.2263652, 47.4185535], [-123.2262835, 47.4184968], [-123.2262977, 47.4184439], [-123.2263425, 47.4184054], [-123.226539, 47.4183851], [-123.2267067, 47.4183369], [-123.2268577, 47.4183276], [-123.2270469, 47.4182645], [-123.227309, 47.4183106], [-123.2274216, 47.418392], [-123.2276966, 47.4184755], [-123.2278488, 47.418493], [-123.2279504, 47.418478], [-123.228466, 47.418588], [-123.2285631, 47.4186512], [-123.2285638, 47.4187183], [-123.2284909, 47.4188144], [-123.2283448, 47.4188792], [-123.2278774, 47.4189767], [-123.2278375, 47.4190156], [-123.2278448, 47.4190625], [-123.2279081, 47.4190883], [-123.2281872, 47.419094], [-123.2284296, 47.4191056], [-123.2286116, 47.4190719], [-123.2288321, 47.4190303], [-123.2290943, 47.4189442], [-123.2293552, 47.4188493], [-123.2294473, 47.4187805], [-123.2294344, 47.4187471], [-123.2292607, 47.4187121], [-123.229048, 47.418699], [-123.2289371, 47.4186593], [-123.2289202, 47.4185733], [-123.2290004, 47.4185455], [-123.2290787, 47.41851], [-123.2292517, 47.418544], [-123.2293944, 47.4185381], [-123.2295307, 47.4184189], [-123.2296301, 47.4183389], [-123.2297421, 47.4183085], [-123.229807, 47.418351], [-123.2299578, 47.418384], [-123.2300714, 47.4183635], [-123.2302793, 47.4181139], [-123.230375, 47.417738], [-123.231092, 47.417233], [-123.2314724, 47.4171499], [-123.231876, 47.417106], [-123.2320726, 47.4170513], [-123.232501, 47.416879], [-123.233024, 47.416752], [-123.2333095, 47.4165923], [-123.233479, 47.416562], [-123.2336176, 47.4165921], [-123.2338297, 47.4165881], [-123.2338884, 47.4166248], [-123.2338991, 47.4166851], [-123.2338637, 47.4167229], [-123.233558, 47.416787], [-123.233493, 47.4168494], [-123.2327444, 47.4171633], [-123.2325719, 47.4172473], [-123.2322108, 47.4173239], [-123.2320631, 47.4174139], [-123.2318012, 47.417774], [-123.2318308, 47.4178338], [-123.2319279, 47.4178215], [-123.2321524, 47.4179409], [-123.2323401, 47.4178728], [-123.2324333, 47.4178922], [-123.2325564, 47.4180771], [-123.2327088, 47.4182604], [-123.2327531, 47.4184325], [-123.2327417, 47.4184874], [-123.2328263, 47.4186275], [-123.2328283, 47.418692], [-123.2328032, 47.4187929], [-123.2329427, 47.41898], [-123.2331198, 47.4190872], [-123.2332381, 47.4192296], [-123.233222, 47.4199319], [-123.233132, 47.4201056], [-123.2330805, 47.4201645], [-123.2329972, 47.4202596], [-123.2329399, 47.4203097], [-123.2329363, 47.4203852], [-123.232968, 47.4204552], [-123.2330491, 47.4205499], [-123.233103, 47.4206553], [-123.2330895, 47.4207655], [-123.232955, 47.4210089], [-123.2327733, 47.4212655], [-123.2327683, 47.4212725], [-123.2327261, 47.4213321], [-123.2325358, 47.4214968], [-123.232325, 47.4215692], [-123.2322703, 47.4215663], [-123.2322121, 47.4215954], [-123.2322012, 47.4216388], [-123.2321658, 47.4216601], [-123.2320661, 47.4216936], [-123.2319, 47.4217184], [-123.2316937, 47.4217704], [-123.2316166, 47.4218118], [-123.2315942, 47.421947], [-123.2316674, 47.4220355], [-123.2319202, 47.4221739], [-123.2320386, 47.4222006], [-123.232249, 47.4222568], [-123.2323446, 47.4223389], [-123.2323745, 47.4224383], [-123.2323515, 47.4226158], [-123.2323659, 47.4227304], [-123.2324139, 47.4228117], [-123.2324281, 47.4230533], [-123.2324677, 47.4230809], [-123.2324643, 47.4232991], [-123.2324274, 47.4234301], [-123.2323708, 47.4234759], [-123.2323755, 47.4235142], [-123.2323558, 47.4235297], [-123.2323505, 47.423547], [-123.232363, 47.4235701], [-123.2324173, 47.4236108], [-123.232434, 47.4236795], [-123.232388, 47.4240428], [-123.2327052, 47.4250044], [-123.2327355, 47.4250406], [-123.2327635, 47.4250632], [-123.2328032, 47.425073], [-123.2328985, 47.4250812], [-123.232969, 47.4251146], [-123.233004, 47.4251611], [-123.2330214, 47.4252251], [-123.2330029, 47.425639], [-123.2328314, 47.4260233], [-123.2325925, 47.4261934], [-123.2325874, 47.4263014], [-123.2327318, 47.4265508], [-123.2327099, 47.4268624], [-123.2327741, 47.4270449], [-123.2327406, 47.4271851], [-123.232785, 47.4273025], [-123.2327858, 47.4275914], [-123.2328734, 47.4277454], [-123.2330097, 47.4278709], [-123.2330771, 47.4279754], [-123.233217, 47.4280279], [-123.2333795, 47.4280475], [-123.2334878, 47.4280929], [-123.2336124, 47.4280791], [-123.23374, 47.4281561], [-123.2338512, 47.4282033], [-123.2340175, 47.4282396], [-123.2340424, 47.428277], [-123.2339707, 47.4283212], [-123.2338759, 47.4283443], [-123.2337815, 47.4283405], [-123.233713, 47.428363], [-123.2335307, 47.4283379], [-123.2333387, 47.4283982], [-123.2332483, 47.4284044], [-123.2331906, 47.4283669], [-123.2330799, 47.4283671], [-123.2330136, 47.4284021], [-123.2329558, 47.4284419], [-123.232904, 47.4284336], [-123.2328387, 47.4284496], [-123.2328142, 47.4284872], [-123.2328069, 47.4291043], [-123.2328968, 47.4292841], [-123.2329113, 47.4293862], [-123.2330596, 47.4295088], [-123.2332256, 47.4296432], [-123.233373, 47.4297003], [-123.2334362, 47.4297665], [-123.233454, 47.42988], [-123.2333428, 47.4299948], [-123.2331419, 47.4300864], [-123.233112, 47.43015], [-123.2331403, 47.4302411], [-123.2332011, 47.4303094], [-123.2332902, 47.4303725], [-123.2333538, 47.4303855], [-123.2334212, 47.4303818], [-123.2334772, 47.4303544], [-123.2335348, 47.4303521], [-123.2335687, 47.4303808], [-123.2335674, 47.4304275], [-123.2335183, 47.4305128], [-123.2334833, 47.4306152], [-123.2333998, 47.430715], [-123.2333932, 47.4307928], [-123.233426, 47.4308427], [-123.2334145, 47.4308871], [-123.2333486, 47.4309328], [-123.2333056, 47.4309997], [-123.2333194, 47.431114], [-123.2332155, 47.431327], [-123.2330832, 47.4313486], [-123.2330019, 47.431435], [-123.2330283, 47.4316489], [-123.2330194, 47.4318288], [-123.2328757, 47.4320238], [-123.2328823, 47.4322532], [-123.2328695, 47.432504], [-123.2327905, 47.4326033], [-123.2327855, 47.4326551], [-123.2327026, 47.4327807], [-123.2326057, 47.4328857], [-123.2325597, 47.43298], [-123.2325058, 47.4330151], [-123.2324846, 47.4330838], [-123.232532, 47.433193], [-123.2326419, 47.4332831], [-123.2326228, 47.4333326], [-123.2327826, 47.4334692], [-123.232796, 47.4335089], [-123.2327875, 47.4335575], [-123.2327399, 47.4336061], [-123.2326643, 47.433692], [-123.2326369, 47.4338524], [-123.2326726, 47.4343826], [-123.232569, 47.4345597], [-123.2325122, 47.4345995], [-123.2324788, 47.4346506], [-123.2325307, 47.4347037], [-123.2325569, 47.4347647], [-123.232635, 47.4348091], [-123.2326364, 47.4348521], [-123.2326082, 47.4348823], [-123.2325829, 47.434979], [-123.2325807, 47.4351287], [-123.2324968, 47.4351007], [-123.2324324, 47.4350992], [-123.2323728, 47.4351481], [-123.2323871, 47.4351951], [-123.2324206, 47.435389], [-123.232375, 47.4354887], [-123.2323353, 47.4356885], [-123.2322127, 47.4359033], [-123.2319343, 47.4360378], [-123.2317543, 47.4360485], [-123.2316702, 47.4360888], [-123.2315139, 47.4362437], [-123.2314236, 47.4363951], [-123.2314012, 47.4365527], [-123.2313463, 47.4365905], [-123.2312595, 47.4366182], [-123.2311833, 47.4366289], [-123.2310369, 47.4366196], [-123.2307957, 47.4364751], [-123.2305925, 47.4363344], [-123.2302666, 47.4362834], [-123.2299249, 47.4362111], [-123.2297062, 47.4362224], [-123.2295981, 47.4362051], [-123.2295297, 47.43621], [-123.229393, 47.4362538], [-123.2293916, 47.4363036], [-123.2294069, 47.4363157], [-123.22949, 47.4363342], [-123.2295886, 47.4364444], [-123.2296664, 47.4365779], [-123.229704, 47.4367658], [-123.2298066, 47.4370185], [-123.2297688, 47.4371761], [-123.2299215, 47.4374072], [-123.2298626, 47.4375583], [-123.2298743, 47.4376925], [-123.2298647, 47.4377485], [-123.2299048, 47.4377766], [-123.2300763, 47.4378153], [-123.2306234, 47.4379047], [-123.2312199, 47.4380268], [-123.2320223, 47.4382715], [-123.23212, 47.4383518], [-123.2322309, 47.43837], [-123.2321909, 47.4384444], [-123.2318149, 47.4385289], [-123.2316065, 47.4386168], [-123.2312828, 47.4386484], [-123.2310631, 47.4386353], [-123.2307837, 47.4386675], [-123.2305672, 47.4387133], [-123.2304178, 47.4388115], [-123.2302994, 47.4388325], [-123.2302116, 47.4388683], [-123.2301313, 47.4389642], [-123.2299213, 47.4395894], [-123.2298336, 47.4404748], [-123.229874, 47.4405635], [-123.2300919, 47.4407616], [-123.2302854, 47.4409172], [-123.2304723, 47.4412663], [-123.2305641, 47.4412833], [-123.2305892, 47.441355], [-123.231188, 47.441591], [-123.2317455, 47.441952], [-123.2317567, 47.4420492], [-123.2316765, 47.4421404], [-123.2315, 47.442247], [-123.231494, 47.442364], [-123.231836, 47.442624], [-123.231848, 47.442714], [-123.231677, 47.443029], [-123.231642, 47.443245], [-123.231824, 47.443398], [-123.232155, 47.443523], [-123.232051, 47.443829], [-123.23187, 47.443965], [-123.231631, 47.44437], [-123.231654, 47.444892], [-123.231756, 47.445261], [-123.231819, 47.445315], [-123.232769, 47.445421], [-123.233177, 47.445357], [-123.233211, 47.445501], [-123.232824, 47.44569], [-123.23212, 47.446493], [-123.232119, 47.446583], [-123.232279, 47.446825], [-123.232631, 47.447041], [-123.232562, 47.447302], [-123.232392, 47.44741], [-123.232313, 47.447545], [-123.232551, 47.448192], [-123.232802, 47.448372], [-123.233382, 47.448461], [-123.233063, 47.448596], [-123.232472, 47.449056], [-123.232381, 47.449354], [-123.232415, 47.449524], [-123.232744, 47.449911], [-123.233228, 47.450261], [-123.232926, 47.450405], [-123.233017, 47.450648], [-123.233132, 47.450774], [-123.233472, 47.451034], [-123.233756, 47.451168], [-123.234485, 47.45123], [-123.234234, 47.451572], [-123.234246, 47.451716], [-123.234518, 47.452112], [-123.234893, 47.4523], [-123.2347, 47.452741], [-123.23478, 47.452984], [-123.234701, 47.453263], [-123.234826, 47.453614], [-123.235224, 47.453829], [-123.234905, 47.454369], [-123.234711, 47.454568], [-123.234427, 47.454748], [-123.234461, 47.454946], [-123.234853, 47.455305], [-123.234758, 47.455404], [-123.234301, 47.455612], [-123.234199, 47.455702], [-123.234028, 47.456108], [-123.233836, 47.456378], [-123.233824, 47.456504], [-123.233983, 47.45681], [-123.234495, 47.457007], [-123.234495, 47.457124], [-123.234267, 47.45743], [-123.234268, 47.457502], [-123.234403, 47.457592], [-123.234392, 47.45788], [-123.234461, 47.458023], [-123.234962, 47.458148], [-123.235053, 47.458211], [-123.234984, 47.45849], [-123.235666, 47.458732], [-123.235746, 47.458966], [-123.236201, 47.459172], [-123.236594, 47.459675], [-123.236907, 47.460286], [-123.237384, 47.460528], [-123.237396, 47.460897], [-123.237589, 47.461103], [-123.237611, 47.461274], [-123.238084, 47.461732], [-123.238237, 47.461921], [-123.238385, 47.462019], [-123.238942, 47.462207], [-123.239341, 47.462404], [-123.23966, 47.462737], [-123.240353, 47.463257], [-123.24123, 47.46375], [-123.242128, 47.464153], [-123.242571, 47.464512], [-123.242867, 47.464862], [-123.2433, 47.465095], [-123.243448, 47.465311], [-123.24355, 47.465374], [-123.244198, 47.465552], [-123.245235, 47.466333], [-123.24668, 47.467086], [-123.247329, 47.467273], [-123.247795, 47.467542], [-123.24825, 47.467685], [-123.248717, 47.467936], [-123.249502, 47.468105], [-123.2497324, 47.4682961], [-123.249935, 47.468464], [-123.2499677, 47.4685305], [-123.250094, 47.468788], [-123.25106, 47.469434], [-123.251635, 47.469558], [-123.252901, 47.470078], [-123.254372, 47.471019], [-123.25468, 47.47127], [-123.254656, 47.47163], [-123.254724, 47.471801], [-123.255087, 47.472187], [-123.255451, 47.472456], [-123.2567585, 47.473245], [-123.256836, 47.47338], [-123.256631, 47.473632], [-123.256517, 47.473894], [-123.256528, 47.474074], [-123.256856, 47.474415], [-123.256867, 47.474658], [-123.256936, 47.474739], [-123.258668, 47.475598], [-123.258697, 47.47585], [-123.25881, 47.475931], [-123.259289, 47.475948], [-123.26163, 47.476663], [-123.261903, 47.47686], [-123.262401, 47.477615], [-123.262572, 47.477731], [-123.263265, 47.47799], [-123.263635, 47.477972], [-123.263687, 47.478008], [-123.263595, 47.478116], [-123.263106, 47.478198], [-123.262741, 47.478235], [-123.262367, 47.478146], [-123.262207, 47.478155], [-123.261853, 47.478273], [-123.261854, 47.478399], [-123.262035, 47.47874], [-123.262126, 47.479181], [-123.26242, 47.479513], [-123.262715, 47.479701], [-123.262841, 47.479737], [-123.263501, 47.4797], [-123.263887, 47.479762], [-123.264103, 47.479869], [-123.264297, 47.480085], [-123.264666, 47.480264], [-123.265126, 47.480344], [-123.265172, 47.480613], [-123.265045, 47.480866], [-123.265125, 47.48092], [-123.265273, 47.48091], [-123.2655, 47.48082], [-123.265763, 47.480864], [-123.266001, 47.480846], [-123.266503, 47.480718], [-123.266981, 47.480663], [-123.26722, 47.48051], [-123.267368, 47.480473], [-123.26921, 47.480325], [-123.269313, 47.480253], [-123.269381, 47.480028], [-123.269747, 47.479496], [-123.270008, 47.4793126], [-123.270105, 47.479324], [-123.270156, 47.479729], [-123.270565, 47.480106], [-123.270872, 47.480195], [-123.271362, 47.480221], [-123.272452, 47.480515], [-123.27276, 47.480497], [-123.27334, 47.480333], [-123.274091, 47.480224], [-123.279939, 47.480093], [-123.28036, 47.480127], [-123.280528, 47.480231], [-123.280741, 47.480423], [-123.280747, 47.480495], [-123.280518, 47.480532], [-123.280485, 47.480577], [-123.280472, 47.481162], [-123.28021, 47.48146], [-123.280233, 47.481711], [-123.280562, 47.481837], [-123.281165, 47.481925], [-123.281905, 47.481932], [-123.282052, 47.481887], [-123.282599, 47.481859], [-123.282792, 47.481516], [-123.283055, 47.481381], [-123.28326, 47.481344], [-123.284124, 47.48136], [-123.285172, 47.481132], [-123.286127, 47.48113], [-123.286366, 47.481237], [-123.286547, 47.481462], [-123.286786, 47.481623], [-123.288219, 47.482079], [-123.288901, 47.482077], [-123.289163, 47.482031], [-123.289618, 47.481859], [-123.2899073, 47.481584], [-123.2900702, 47.4815211], [-123.2903981, 47.4815133], [-123.2907218, 47.4815153], [-123.290853, 47.4815284], [-123.291121, 47.481594], [-123.292019, 47.481916], [-123.292974, 47.482157], [-123.294237, 47.482198], [-123.295386, 47.482447], [-123.2975583, 47.4824599], [-123.298389, 47.482502], [-123.299323, 47.482743], [-123.299788, 47.482787], [-123.301347, 47.482711], [-123.301606, 47.482742], [-123.303327, 47.482993], [-123.303668, 47.483065], [-123.304123, 47.483252], [-123.304691, 47.48362], [-123.305066, 47.483979], [-123.305385, 47.484194], [-123.3056, 47.484544], [-123.305599, 47.484787], [-123.305532, 47.484931], [-123.305668, 47.485003], [-123.305861, 47.485254], [-123.305896, 47.48547], [-123.3065651, 47.4858283], [-123.3068092, 47.4858736], [-123.3070157, 47.4857893], [-123.3071616, 47.485765], [-123.3072974, 47.4857894], [-123.3073618, 47.4857237], [-123.307292, 47.4856361], [-123.3073175, 47.4855745], [-123.307318, 47.4854845], [-123.3074088, 47.4854364], [-123.3075723, 47.4855029], [-123.3076608, 47.4855754], [-123.3078244, 47.4856715], [-123.3078312, 47.485801], [-123.307753, 47.4858875], [-123.307658, 47.485933], [-123.307626, 47.4859832], [-123.3076473, 47.4860429], [-123.3078901, 47.4862814], [-123.308421, 47.4865899], [-123.308715, 47.486884], [-123.309049, 47.487068], [-123.309317, 47.487233], [-123.309409, 47.487395], [-123.3103835, 47.4884895], [-123.3108679, 47.4890851], [-123.3109921, 47.4892639], [-123.311196, 47.4894234], [-123.311542, 47.489572], [-123.3116275, 47.4896939], [-123.3119684, 47.4898439], [-123.31197, 47.4899461], [-123.3119339, 47.4901099], [-123.311704, 47.490574], [-123.311521, 47.490872], [-123.311566, 47.491115], [-123.311986, 47.491581], [-123.312543, 47.492012], [-123.313112, 47.492217], [-123.313533, 47.492306], [-123.3138701, 47.4922235], [-123.3140488, 47.4922321], [-123.3141499, 47.4922606], [-123.3143049, 47.4923731], [-123.314484, 47.4925763], [-123.314656, 47.4930064], [-123.3147177, 47.4932366], [-123.314713, 47.493513], [-123.3147097, 47.4936317], [-123.3147499, 47.4937277], [-123.3148449, 47.4938597], [-123.3148974, 47.4939796], [-123.315061, 47.4940991], [-123.315306, 47.494236], [-123.3155814, 47.4942533], [-123.3159927, 47.4942593], [-123.3161096, 47.4943067], [-123.3161974, 47.4944218], [-123.316205, 47.494548], [-123.316319, 47.494881], [-123.316318, 47.495313], [-123.316156, 47.495637], [-123.316182, 47.495835], [-123.316116, 47.496037], [-123.315901, 47.496321], [-123.315515, 47.496687], [-123.315257, 47.497043], [-123.315206, 47.497786], [-123.3151, 47.49802], [-123.315985, 47.498256], [-123.316644, 47.498641], [-123.316793, 47.498811], [-123.316872, 47.49918], [-123.317116, 47.499314], [-123.317423, 47.499889], [-123.317595, 47.49997], [-123.3177706, 47.4999291], [-123.318152, 47.500283], [-123.318334, 47.500616], [-123.318435, 47.501407], [-123.318489, 47.501479], [-123.3185466, 47.5015037], [-123.3186364, 47.5015164], [-123.3186834, 47.5015666], [-123.3187089, 47.5016077], [-123.3186659, 47.5017682], [-123.3184462, 47.5017959], [-123.3182958, 47.5018389], [-123.3181945, 47.5018425], [-123.3181623, 47.5018213], [-123.318036, 47.501867], [-123.3180216, 47.5019119], [-123.3180491, 47.5020052], [-123.3181828, 47.50198], [-123.3181842, 47.5019851], [-123.3181769, 47.5019869], [-123.3181922, 47.5020246], [-123.3181966, 47.5020247], [-123.3181975, 47.5020289], [-123.3181017, 47.5021065], [-123.3181389, 47.502141], [-123.318309, 47.502136], [-123.318685, 47.502009], [-123.3188521, 47.5020598], [-123.3189261, 47.5022407], [-123.3189442, 47.5022665], [-123.3190569, 47.5027925], [-123.3189938, 47.5029003], [-123.3190353, 47.5029724], [-123.3191737, 47.5029996], [-123.319651, 47.503114], [-123.3201695, 47.5030414], [-123.3206397, 47.5030942], [-123.3210126, 47.5031953], [-123.3212194, 47.5033555], [-123.3213086, 47.5034535], [-123.3212677, 47.5035367], [-123.3210214, 47.503655], [-123.3207607, 47.5037795], [-123.3205431, 47.5040099], [-123.3206924, 47.5040966], [-123.3204442, 47.5044028], [-123.3207768, 47.5047], [-123.3211362, 47.5046674], [-123.3216298, 47.5047399], [-123.3219087, 47.504912], [-123.3221224, 47.5049266], [-123.3222172, 47.5049971], [-123.3222672, 47.5050694], [-123.3231767, 47.5054962], [-123.3230853, 47.5056192], [-123.3230004, 47.5057349], [-123.322493, 47.5055935], [-123.3222497, 47.5055895], [-123.3220156, 47.5056211], [-123.3218265, 47.5056515], [-123.3219433, 47.505689], [-123.3220789, 47.5057228], [-123.3221428, 47.505718], [-123.322213, 47.5057243], [-123.3222832, 47.5057469], [-123.3223336, 47.5057695], [-123.3222447, 47.5057789], [-123.3221557, 47.5057695], [-123.3220779, 47.5057995], [-123.3220299, 47.5057619], [-123.3219777, 47.5057347], [-123.3218494, 47.5057554], [-123.3218203, 47.5057972], [-123.32173, 47.50574], [-123.3216558, 47.5057371], [-123.3217081, 47.5058281], [-123.3218082, 47.505868], [-123.3219036, 47.5059719], [-123.3221598, 47.5061319], [-123.3222192, 47.5062077], [-123.322224, 47.5062351], [-123.3221059, 47.5061501], [-123.3220431, 47.5060834], [-123.3219757, 47.5060427], [-123.3219082, 47.5060203], [-123.3218516, 47.5060261], [-123.3217103, 47.5059421], [-123.3215091, 47.5058607], [-123.3213852, 47.5058406], [-123.3212613, 47.5058378], [-123.3211368, 47.5058444], [-123.3210333, 47.5058718], [-123.3208905, 47.5058787], [-123.3207478, 47.5058652], [-123.3206813, 47.5059243], [-123.3206629, 47.5059937], [-123.3208015, 47.5060673], [-123.3208939, 47.5061497], [-123.3209049, 47.5062226], [-123.3208465, 47.5062736], [-123.3208038, 47.5063551], [-123.3206704, 47.5064026], [-123.3205251, 47.5064386], [-123.3203798, 47.5064498], [-123.320117, 47.5065007], [-123.3198523, 47.5065428], [-123.3195708, 47.5065836], [-123.3192893, 47.5065998], [-123.3190078, 47.5066136], [-123.3187263, 47.5066132], [-123.3190381, 47.5067319], [-123.3191415, 47.5067373], [-123.3192959, 47.506817], [-123.3193876, 47.5067924], [-123.3194793, 47.5068422], [-123.3195711, 47.5068545], [-123.3196628, 47.5068223], [-123.3197126, 47.5069261], [-123.3198141, 47.5069246], [-123.319917, 47.50696], [-123.3199812, 47.5070344], [-123.3200795, 47.5070239], [-123.3201807, 47.5070465], [-123.3202634, 47.5070784], [-123.3203612, 47.5071216], [-123.3204578, 47.5071337], [-123.320548, 47.5070767], [-123.3206115, 47.5070111], [-123.3207923, 47.5070264], [-123.3208943, 47.5070703], [-123.3208848, 47.5071345], [-123.3210449, 47.5071606], [-123.3211907, 47.5072147], [-123.3213457, 47.5072353], [-123.3213582, 47.5072768], [-123.3214433, 47.50735], [-123.321468, 47.507401], [-123.3214458, 47.50745], [-123.3214698, 47.5075059], [-123.3215334, 47.5075592], [-123.3215382, 47.5076246], [-123.3215042, 47.5076684], [-123.321602, 47.5079008], [-123.3216462, 47.5079896], [-123.3216766, 47.5080325], [-123.3216752, 47.5080755], [-123.3216247, 47.5080771], [-123.3215106, 47.5079144], [-123.3214225, 47.5077363], [-123.3213833, 47.5076113], [-123.3213324, 47.5075688], [-123.3213024, 47.5074973], [-123.3212498, 47.5074478], [-123.3211788, 47.5073615], [-123.3210709, 47.5073398], [-123.3208165, 47.5073194], [-123.3205622, 47.507319], [-123.3202601, 47.5072995], [-123.3199982, 47.5072764], [-123.3194409, 47.5072179], [-123.3191603, 47.5071357], [-123.3189074, 47.5070442], [-123.3187502, 47.5070233], [-123.318593, 47.5069927], [-123.3184371, 47.5069708], [-123.3182885, 47.5069291], [-123.3182037, 47.5069216], [-123.318119, 47.5069023], [-123.318048, 47.5068969], [-123.317977, 47.5068795], [-123.3178921, 47.506848], [-123.3178371, 47.5068047], [-123.3177516, 47.506818], [-123.3176996, 47.5068385], [-123.3175791, 47.5067972], [-123.3175789, 47.5067446], [-123.317491, 47.5067214], [-123.317408, 47.5067105], [-123.3173251, 47.506731], [-123.3171898, 47.5067471], [-123.3170657, 47.5067267], [-123.3169466, 47.5066736], [-123.316847, 47.5065971], [-123.3167214, 47.5065003], [-123.3165923, 47.5063725], [-123.3165468, 47.5063057], [-123.3164649, 47.5062462], [-123.3163707, 47.5062147], [-123.3162764, 47.5061833], [-123.3161601, 47.5060862], [-123.3159383, 47.5060717], [-123.3159429, 47.5059698], [-123.3160753, 47.5059041], [-123.3160728, 47.5058638], [-123.3159954, 47.5058462], [-123.315916, 47.505846], [-123.3158328, 47.5057783], [-123.3157408, 47.5057378], [-123.3156793, 47.5056779], [-123.3156789, 47.5056172], [-123.3156189, 47.5056061], [-123.3155589, 47.5055976], [-123.3155412, 47.5054871], [-123.3156611, 47.5054239], [-123.3154798, 47.5053587], [-123.3153638, 47.5053154], [-123.31527, 47.505223], [-123.315151, 47.5050942], [-123.3151812, 47.5050171], [-123.3151798, 47.5049337], [-123.315142, 47.5048894], [-123.3150629, 47.5048845], [-123.3150244, 47.5048383], [-123.3150901, 47.5047696], [-123.315043, 47.5047363], [-123.3148963, 47.5047442], [-123.3148235, 47.5046837], [-123.3148103, 47.5045938], [-123.3147904, 47.504525], [-123.3147202, 47.5045166], [-123.3147216, 47.504453], [-123.3146921, 47.5043957], [-123.3146882, 47.5043385], [-123.3146267, 47.5043104], [-123.3145654, 47.5043122], [-123.314475, 47.5042453], [-123.3145896, 47.5042157], [-123.3147516, 47.5042233], [-123.3148057, 47.504207], [-123.3147793, 47.5041189], [-123.3147898, 47.5040346], [-123.3147351, 47.5039428], [-123.3147642, 47.5038409], [-123.3145845, 47.5037767], [-123.3145038, 47.5037452], [-123.3144232, 47.5037224], [-123.314356, 47.5037282], [-123.3143212, 47.5036639], [-123.3142189, 47.5036624], [-123.3141173, 47.5036305], [-123.3140787, 47.5036799], [-123.3140065, 47.5036984], [-123.3139225, 47.5037348], [-123.3138558, 47.5036746], [-123.3137676, 47.5036937], [-123.3137282, 47.5037415], [-123.3137388, 47.5037893], [-123.3136705, 47.5038048], [-123.3135903, 47.5038371], [-123.313515, 47.503823], [-123.313446, 47.5037989], [-123.3133769, 47.5038016], [-123.3133093, 47.503769], [-123.3132388, 47.5037613], [-123.3132196, 47.5036955], [-123.3131629, 47.5036681], [-123.3130627, 47.5036549], [-123.313036, 47.503582], [-123.3129926, 47.5035533], [-123.3129869, 47.5035028], [-123.3129381, 47.5034853], [-123.312912, 47.503438], [-123.3129275, 47.5033739], [-123.3129, 47.50333], [-123.3129263, 47.5032677], [-123.3130257, 47.5032233], [-123.3131527, 47.5031936], [-123.3132061, 47.5031848], [-123.3132596, 47.5031543], [-123.3133176, 47.5031809], [-123.313387, 47.5031578], [-123.3136172, 47.503157], [-123.3136618, 47.5031198], [-123.3137264, 47.5031224], [-123.313781, 47.5030908], [-123.3138356, 47.5030878], [-123.3139425, 47.503062], [-123.314048, 47.5030303], [-123.3141564, 47.5030203], [-123.3142636, 47.5029925], [-123.3143602, 47.5029532], [-123.3144568, 47.502928], [-123.3145803, 47.5029347], [-123.3146297, 47.5029095], [-123.3146675, 47.5028843], [-123.3147392, 47.5029079], [-123.3147911, 47.502873], [-123.3149249, 47.5028294], [-123.315005, 47.5028099], [-123.3150723, 47.5028111], [-123.3151444, 47.5027872], [-123.3152027, 47.502821], [-123.315298, 47.5027627], [-123.315423, 47.5027387], [-123.3155508, 47.5027196], [-123.3156527, 47.5026671], [-123.3157226, 47.5026525], [-123.3158148, 47.5026218], [-123.3159173, 47.5026428], [-123.3159995, 47.5025809], [-123.3160944, 47.5025819], [-123.316188, 47.5025956], [-123.3162861, 47.5025774], [-123.3163456, 47.5025382], [-123.3163977, 47.502527], [-123.3164581, 47.5025389], [-123.3165194, 47.5024841], [-123.3166064, 47.5025041], [-123.3166561, 47.5024739], [-123.3166758, 47.50244], [-123.3167564, 47.5024271], [-123.3168103, 47.5024458], [-123.3168642, 47.5024318], [-123.3169541, 47.5023998], [-123.3170038, 47.5023488], [-123.3170927, 47.5023333], [-123.3171972, 47.5023246], [-123.3173003, 47.5022477], [-123.3173061, 47.5022277], [-123.3172995, 47.5022084], [-123.3172913, 47.5021903], [-123.3172689, 47.5021478], [-123.3172625, 47.5020885], [-123.3172016, 47.50208], [-123.3171454, 47.5021014], [-123.3170595, 47.5021136], [-123.3169781, 47.5021402], [-123.3168101, 47.5021918], [-123.3167072, 47.5021998], [-123.316616, 47.5022172], [-123.3165293, 47.5022571], [-123.3164409, 47.5022614], [-123.3163461, 47.502297], [-123.3162659, 47.5023056], [-123.3161272, 47.5023724], [-123.3160372, 47.5023908], [-123.3159437, 47.5024165], [-123.3155886, 47.5025148], [-123.3148776, 47.5026858], [-123.3141889, 47.5028705], [-123.3140042, 47.5029111], [-123.3138195, 47.5029368], [-123.3134741, 47.5030052], [-123.3133496, 47.503035], [-123.3132252, 47.5030494], [-123.3131583, 47.5030435], [-123.3130915, 47.5030573], [-123.3129854, 47.5030472], [-123.3128678, 47.5030195], [-123.3127566, 47.5030083], [-123.3126608, 47.5029811], [-123.3126267, 47.5029381], [-123.3125926, 47.5029084], [-123.312522, 47.5028708], [-123.3124515, 47.5028684], [-123.3124, 47.50281], [-123.312334, 47.5027898], [-123.3123269, 47.5027162], [-123.3122277, 47.5026835], [-123.3122172, 47.5026102], [-123.3121467, 47.5025325], [-123.3120824, 47.5025031], [-123.3120884, 47.5024483], [-123.3121038, 47.5023797], [-123.3120547, 47.5022847], [-123.311945, 47.502226], [-123.3119086, 47.5021714], [-123.3118218, 47.5021407], [-123.3118419, 47.5020811], [-123.3118017, 47.5020216], [-123.3117353, 47.501964], [-123.3116689, 47.5019358], [-123.311662, 47.5018879], [-123.3115763, 47.50184], [-123.3115824, 47.5017715], [-123.3115284, 47.5017587], [-123.3114928, 47.5017235], [-123.31148, 47.5016306], [-123.3114192, 47.5016153], [-123.3113885, 47.5015558], [-123.3114273, 47.5014776], [-123.3113969, 47.5014211], [-123.3113673, 47.5013775], [-123.3114229, 47.5013399], [-123.311355, 47.50131], [-123.311249, 47.5012464], [-123.3111983, 47.5012217], [-123.3111424, 47.501235], [-123.3110837, 47.5012086], [-123.311025, 47.501208], [-123.3109312, 47.5011636], [-123.310846, 47.5011729], [-123.3107287, 47.5011292], [-123.3106531, 47.5010974], [-123.3105274, 47.5010655], [-123.3104457, 47.5010598], [-123.3104065, 47.5010268], [-123.3103542, 47.5010116], [-123.3102814, 47.501074], [-123.310178, 47.5010372], [-123.310198, 47.5009933], [-123.3101568, 47.5009494], [-123.3101284, 47.5008737], [-123.3100652, 47.5008584], [-123.3099222, 47.500808], [-123.3098418, 47.5007411], [-123.309739, 47.50072], [-123.30967, 47.5006413], [-123.3095882, 47.5005614], [-123.3096139, 47.5004599], [-123.3096098, 47.5004018], [-123.3094846, 47.5003844], [-123.3093593, 47.5003428], [-123.3092912, 47.5002573], [-123.309284, 47.500173], [-123.3092198, 47.5001014], [-123.309114, 47.500056], [-123.3090622, 47.5000211], [-123.3089809, 47.4999746], [-123.3088907, 47.4999597], [-123.3088005, 47.499967], [-123.3087061, 47.499953], [-123.3086387, 47.4999226], [-123.30851, 47.499887], [-123.3083852, 47.4998838], [-123.3083367, 47.4997944], [-123.3082777, 47.4997478], [-123.3081794, 47.4996705], [-123.3080906, 47.4996359], [-123.3080638, 47.4995987], [-123.308004, 47.4995747], [-123.307897, 47.499549], [-123.3077909, 47.499546], [-123.3076675, 47.4994734], [-123.3075648, 47.4993892], [-123.3074953, 47.4993533], [-123.3074474, 47.4992919], [-123.3073299, 47.4992138], [-123.3071741, 47.4991732], [-123.3070731, 47.4990754], [-123.3069808, 47.49906], [-123.3070046, 47.4990172], [-123.3069836, 47.4989795], [-123.3068198, 47.4989071], [-123.3067834, 47.4988312], [-123.3067731, 47.4987357], [-123.3066527, 47.4987119], [-123.3065433, 47.4986487], [-123.3064575, 47.4985709], [-123.3064263, 47.4985205], [-123.3063951, 47.4984578], [-123.3063299, 47.4984217], [-123.3061744, 47.498362], [-123.3061176, 47.4982655], [-123.3060594, 47.4982169], [-123.3059536, 47.4982009], [-123.305864, 47.4981956], [-123.305787, 47.498166], [-123.3056392, 47.4981202], [-123.3055537, 47.4981119], [-123.3054777, 47.4980849], [-123.3054288, 47.4980329], [-123.3054255, 47.4979447], [-123.3053282, 47.4978338], [-123.3052468, 47.4977492], [-123.3052044, 47.4976086], [-123.3051728, 47.4975054], [-123.3051074, 47.4973953], [-123.3050829, 47.497267], [-123.3049669, 47.4970968], [-123.3049245, 47.4970372], [-123.3049158, 47.4969731], [-123.3048748, 47.496893], [-123.3048261, 47.4968458], [-123.3047971, 47.4967947], [-123.3046841, 47.4967571], [-123.3046661, 47.4966797], [-123.3045588, 47.4966053], [-123.3044801, 47.4966157], [-123.3044015, 47.4966121], [-123.3042904, 47.4965634], [-123.3043009, 47.4965011], [-123.304192, 47.4964628], [-123.3041271, 47.4963817], [-123.3040109, 47.4963204], [-123.3039617, 47.496221], [-123.3038651, 47.4961371], [-123.303878, 47.496054], [-123.3037862, 47.495999], [-123.3036663, 47.4959526], [-123.3034169, 47.4958619], [-123.3033388, 47.4958851], [-123.303225, 47.4958697], [-123.303049, 47.4958147], [-123.3029194, 47.495831], [-123.3028708, 47.4958551], [-123.302787, 47.495853], [-123.3027181, 47.4957984], [-123.3026408, 47.4958323], [-123.3025466, 47.4957981], [-123.302431, 47.4957898], [-123.302419, 47.4957247], [-123.3023158, 47.495698], [-123.3022402, 47.495636], [-123.3021768, 47.4956098], [-123.3021285, 47.4955515], [-123.3020414, 47.495522], [-123.302204, 47.4954874], [-123.3022214, 47.4954286], [-123.302032, 47.4954107], [-123.3019424, 47.4954051], [-123.3018909, 47.4954826], [-123.3018394, 47.4954587], [-123.3015822, 47.495356], [-123.3012952, 47.4952936], [-123.3010713, 47.4952144], [-123.3008101, 47.4951068], [-123.3006799, 47.4950209], [-123.30056, 47.4950339], [-123.300438, 47.4949694], [-123.3003159, 47.494957], [-123.3002001, 47.4949164], [-123.300102, 47.494843], [-123.299965, 47.494832], [-123.2998311, 47.494793], [-123.2997104, 47.4947501], [-123.2995607, 47.4947393], [-123.2993704, 47.4946834], [-123.2992626, 47.49469], [-123.2991729, 47.4946647], [-123.2990734, 47.4946604], [-123.2990484, 47.4946058], [-123.2989867, 47.4945838], [-123.298925, 47.4945871], [-123.2988653, 47.4945903], [-123.2988056, 47.4945621], [-123.2987191, 47.4945255], [-123.298714, 47.494487], [-123.298641, 47.4944685], [-123.2985665, 47.4944768], [-123.2985231, 47.4944149], [-123.2984452, 47.4944206], [-123.2983673, 47.4944032], [-123.2981718, 47.4943677], [-123.2980575, 47.494327], [-123.2979658, 47.4943075], [-123.2978741, 47.4943228], [-123.2977664, 47.4942837], [-123.2976771, 47.4942322], [-123.2976258, 47.4941816], [-123.2975565, 47.4941788], [-123.2974753, 47.4941761], [-123.2973705, 47.4941463], [-123.2972818, 47.4941457], [-123.2972633, 47.4941071], [-123.2972162, 47.494088], [-123.2971117, 47.4940932], [-123.2970536, 47.4940008], [-123.2969705, 47.4939919], [-123.2968873, 47.4940013], [-123.2968094, 47.4939761], [-123.2967316, 47.4939686], [-123.2966715, 47.4939252], [-123.296643, 47.4938753], [-123.29656, 47.4938489], [-123.2964938, 47.4938795], [-123.2964275, 47.4938647], [-123.2963663, 47.4938263], [-123.2963454, 47.4937768], [-123.2962546, 47.4937246], [-123.296177, 47.493747], [-123.2960334, 47.4936541], [-123.2959441, 47.4936699], [-123.2958895, 47.4936198], [-123.2958215, 47.4935647], [-123.295661, 47.4935089], [-123.295553, 47.4935342], [-123.2954357, 47.4934595], [-123.2953262, 47.4934032], [-123.2953062, 47.4933202], [-123.29529, 47.493188], [-123.2951944, 47.4931555], [-123.2951346, 47.4930609], [-123.2950499, 47.4929523], [-123.294988, 47.4929084], [-123.294938, 47.492784], [-123.294875, 47.4927093], [-123.2947709, 47.4927096], [-123.2946849, 47.4927261], [-123.2945796, 47.4927171], [-123.2945019, 47.492769], [-123.2944349, 47.4927782], [-123.2943732, 47.4928161], [-123.2943182, 47.4927868], [-123.2942507, 47.4927811], [-123.2941953, 47.4928015], [-123.294121, 47.4927871], [-123.2940207, 47.4927925], [-123.293949, 47.492736], [-123.2938639, 47.4927608], [-123.2937775, 47.4927563], [-123.2937091, 47.4927286], [-123.2937053, 47.492667], [-123.2936939, 47.4926238], [-123.2936511, 47.4926036], [-123.2936222, 47.4925535], [-123.293489, 47.4925639], [-123.2933915, 47.4925795], [-123.293367, 47.49262], [-123.2933062, 47.4926514], [-123.293309, 47.4926963], [-123.293265, 47.492719], [-123.2931144, 47.492713], [-123.2929656, 47.4926459], [-123.2928227, 47.4926135], [-123.2927186, 47.4925348], [-123.2926531, 47.4925535], [-123.2925876, 47.4925476], [-123.2925033, 47.4925586], [-123.2923787, 47.4925287], [-123.292288, 47.492434], [-123.2922343, 47.4923708], [-123.2921678, 47.4923524], [-123.2921078, 47.4924014], [-123.2920477, 47.49242], [-123.2918931, 47.4923874], [-123.2918056, 47.4924245], [-123.2917068, 47.492429], [-123.2916079, 47.4923823], [-123.2914811, 47.4923501], [-123.2913761, 47.4923528], [-123.2913029, 47.492379], [-123.291266, 47.4924205], [-123.2911546, 47.4924133], [-123.2911194, 47.492363], [-123.2910206, 47.4923695], [-123.2909302, 47.4924062], [-123.2908045, 47.4923587], [-123.2907252, 47.4923773], [-123.2906722, 47.4924178], [-123.2905682, 47.4923905], [-123.2904642, 47.4924195], [-123.2903198, 47.4923879], [-123.2901952, 47.4923685], [-123.2901312, 47.4923821], [-123.290078, 47.4924185], [-123.2899715, 47.4924201], [-123.2898338, 47.4924271], [-123.2897232, 47.4924521], [-123.2896481, 47.4924995], [-123.2895, 47.492513], [-123.2892797, 47.4924716], [-123.2891217, 47.4924404], [-123.2891224, 47.4923874], [-123.289168, 47.4923532], [-123.2891302, 47.4922876], [-123.2891143, 47.4922246], [-123.2890813, 47.4921936], [-123.28903, 47.4921831], [-123.2889126, 47.4921709], [-123.2887985, 47.4922035], [-123.2887292, 47.4922268], [-123.2886907, 47.4922682], [-123.2887248, 47.4923004], [-123.2887632, 47.4923254], [-123.2887574, 47.4923919], [-123.2886487, 47.4923928], [-123.2885507, 47.4924239], [-123.2883901, 47.4924587]], [[-123.2177463, 47.4550295], [-123.2176862, 47.4549929], [-123.2176011, 47.4550153], [-123.2175554, 47.4550397], [-123.2175636, 47.4550998], [-123.2176114, 47.455139], [-123.2176861, 47.4551492], [-123.2177548, 47.4551016], [-123.2177463, 47.4550295]], [[-123.2180362, 47.4598457], [-123.2180826, 47.4597255], [-123.2179872, 47.4596779], [-123.217876, 47.4596713], [-123.2177337, 47.4596888], [-123.2176325, 47.4597694], [-123.217609, 47.4598568], [-123.2176468, 47.4599109], [-123.2177281, 47.4599639], [-123.2178603, 47.4599577], [-123.2180362, 47.4598457]], [[-123.2185406, 47.4597147], [-123.2185634, 47.4597705], [-123.2188672, 47.4598971], [-123.219091, 47.4599317], [-123.2192768, 47.4598791], [-123.2194393, 47.4597963], [-123.2194792, 47.459676], [-123.2193351, 47.4596395], [-123.2191513, 47.459576], [-123.2189563, 47.4596022], [-123.2188314, 47.459626], [-123.218783, 47.4595777], [-123.2186739, 47.459569], [-123.2185858, 47.4596257], [-123.2185406, 47.4597147]], [[-123.2226727, 47.4640077], [-123.2226541, 47.4639656], [-123.2225989, 47.4639519], [-123.2225499, 47.4639697], [-123.2225629, 47.4640181], [-123.2225944, 47.4640481], [-123.222648, 47.4640452], [-123.2226727, 47.4640077]], [[-123.3073726, 47.4863506], [-123.3075096, 47.4862326], [-123.3074646, 47.4861436], [-123.3073956, 47.4861526], [-123.3072816, 47.4862336], [-123.3071226, 47.4863956], [-123.3071176, 47.4864586], [-123.3071456, 47.4865216], [-123.3072356, 47.4866116], [-123.3073836, 47.4865936], [-123.3073726, 47.4864856], [-123.3073726, 47.4863506]], [[-123.314217, 47.497626], [-123.314408, 47.497338], [-123.314584, 47.497004], [-123.314405, 47.49718], [-123.314245, 47.497244], [-123.31396, 47.497281], [-123.313869, 47.497326], [-123.313869, 47.497398], [-123.31412, 47.49755], [-123.314217, 47.497626]], [[-123.3218248, 47.505157], [-123.3216396, 47.5050617], [-123.3214549, 47.5049652], [-123.3213847, 47.5050254], [-123.3213032, 47.5049843], [-123.3212511, 47.5049414], [-123.321141, 47.504946], [-123.3210135, 47.5049983], [-123.3208605, 47.5050274], [-123.3207887, 47.5049973], [-123.3205794, 47.5049679], [-123.3204969, 47.5049995], [-123.3205487, 47.5051389], [-123.320479, 47.5052064], [-123.3202658, 47.5052275], [-123.3201296, 47.5050994], [-123.3199798, 47.5050723], [-123.3198543, 47.505046], [-123.3197757, 47.5050389], [-123.319835, 47.5051111], [-123.3200117, 47.5051111], [-123.3201251, 47.5051908], [-123.3202533, 47.505284], [-123.3205196, 47.5052947], [-123.3206749, 47.5053515], [-123.3208651, 47.5053794], [-123.3210741, 47.5053785], [-123.3212924, 47.50535], [-123.3214461, 47.5053403], [-123.3216239, 47.5054269], [-123.321774, 47.5055166], [-123.3221633, 47.5054671], [-123.3221645, 47.5054315], [-123.3219888, 47.5053979], [-123.3220636, 47.5053304], [-123.3218747, 47.505257], [-123.3218248, 47.505157]]]]}, "properties": {"id": "lake_cushman", "name": "Lake Cushman", "osm": ["relation/12118044"], "found_by": "name", "area_km2": 16.441}}]}