{"type": "FeatureCollection", "features": [{"type": "Feature", "geometry": {"type": "MultiPolygon", "coordinates": [[[[-119.8155266, 38.0772952], [-119.8155642, 38.0772719], [-119.8156419, 38.0772719], [-119.8156661, 38.0772846], [-119.8156714, 38.0773078], [-119.8156661, 38.077348], [-119.81565, 38.0773817], [-119.8157144, 38.0774071], [-119.8157358, 38.0775633], [-119.8157331, 38.0776013], [-119.815709, 38.077633], [-119.8156607, 38.0776689], [-119.8156661, 38.07769], [-119.8157251, 38.0776963], [-119.8157573, 38.07769], [-119.8158324, 38.0776499], [-119.8158592, 38.077652], [-119.8158914, 38.0776858], [-119.8159826, 38.0776816], [-119.8160014, 38.0776942], [-119.8160121, 38.0777343], [-119.8160604, 38.0777386], [-119.8160765, 38.0777027], [-119.8160738, 38.0775887], [-119.8160845, 38.0775696], [-119.8161221, 38.0775443], [-119.8161462, 38.077538], [-119.8162293, 38.077538], [-119.8162562, 38.0775443], [-119.8162937, 38.0775718], [-119.8163098, 38.0776098], [-119.8163125, 38.077652], [-119.8162884, 38.0777048], [-119.8162803, 38.0777935], [-119.816291, 38.0778125], [-119.8163903, 38.0778336], [-119.8164117, 38.0778695], [-119.8164091, 38.0778885], [-119.816393, 38.0779011], [-119.8163259, 38.077918], [-119.8163018, 38.0779455], [-119.8163071, 38.0779835], [-119.8163447, 38.0780109], [-119.8163554, 38.0780299], [-119.8163474, 38.0780722], [-119.8162669, 38.0781566], [-119.8162589, 38.0782157], [-119.8162401, 38.0782516], [-119.8161542, 38.0783171], [-119.8161247, 38.0784142], [-119.8160738, 38.0784501], [-119.8159611, 38.078486], [-119.8158833, 38.0785493], [-119.8158431, 38.0785937], [-119.8157761, 38.0786105], [-119.8157412, 38.0786338], [-119.815717, 38.0786633], [-119.815827, 38.0787013], [-119.8158592, 38.0787351], [-119.8158941, 38.0788132], [-119.8159692, 38.0788111], [-119.8160175, 38.0787985], [-119.8160335, 38.0787858], [-119.8160416, 38.0786929], [-119.816055, 38.0786802], [-119.816106, 38.0786718], [-119.8161301, 38.0786169], [-119.8161784, 38.0785662], [-119.8162696, 38.0785071], [-119.8163071, 38.0785324], [-119.8163044, 38.0786697], [-119.8162374, 38.0788534], [-119.8161757, 38.0789441], [-119.8161623, 38.0790497], [-119.8161408, 38.0791088], [-119.8161113, 38.0793242], [-119.8160255, 38.0794403], [-119.8159826, 38.0795353], [-119.8158887, 38.0796683], [-119.8157948, 38.0797591], [-119.8157546, 38.0798562], [-119.8157734, 38.079871], [-119.8158002, 38.0798689], [-119.8158297, 38.0798478], [-119.8158538, 38.0798056], [-119.8158699, 38.079795], [-119.8158941, 38.0797971], [-119.8159799, 38.0799132], [-119.8159906, 38.0799512], [-119.8159906, 38.0800104], [-119.8159048, 38.0801096], [-119.8158136, 38.0801814], [-119.8157063, 38.0802299], [-119.8155749, 38.0802637], [-119.8154622, 38.0802658], [-119.8153791, 38.0802426], [-119.8153362, 38.0802004], [-119.8152933, 38.080175], [-119.8152342, 38.0801011], [-119.8152047, 38.0800779], [-119.8151618, 38.0800906], [-119.8151296, 38.0801286], [-119.8151216, 38.0801666], [-119.8151323, 38.080213], [-119.8151752, 38.0802637], [-119.8151779, 38.080289], [-119.8151752, 38.0803608], [-119.8151377, 38.0804664], [-119.815135, 38.0805867], [-119.815194, 38.0806226], [-119.8151967, 38.0806437], [-119.8151296, 38.0807493], [-119.8151243, 38.0808401], [-119.8151565, 38.0808422], [-119.8152021, 38.0808232], [-119.8152664, 38.0808654], [-119.8152959, 38.0808612], [-119.815363, 38.0808338], [-119.8154113, 38.0808274], [-119.8154381, 38.0808316], [-119.8154676, 38.0808633], [-119.8154676, 38.0808823], [-119.8154542, 38.0808992], [-119.8154515, 38.0809583], [-119.8154971, 38.0810322], [-119.81554, 38.0810533], [-119.8156473, 38.0810554], [-119.815709, 38.0810723], [-119.8157921, 38.0811314], [-119.8158404, 38.0811779], [-119.8158833, 38.0811948], [-119.8159423, 38.0812581], [-119.8159826, 38.0813426], [-119.8159933, 38.0814038], [-119.8159933, 38.0815938], [-119.8159826, 38.0816572], [-119.815945, 38.0817268], [-119.8158887, 38.0817543], [-119.8158512, 38.0817923], [-119.8157948, 38.0819232], [-119.8157841, 38.0820224], [-119.8157626, 38.08209], [-119.815709, 38.0821554], [-119.8156688, 38.0822251], [-119.8155749, 38.08228], [-119.8154703, 38.0823137], [-119.8154005, 38.0823264], [-119.8152396, 38.0823264], [-119.8151913, 38.0823201], [-119.8151484, 38.0823095], [-119.8150787, 38.0822589], [-119.8150411, 38.0822145], [-119.8150384, 38.0821955], [-119.8150572, 38.0821596], [-119.8151672, 38.0820773], [-119.8151726, 38.0820604], [-119.8151645, 38.0820456], [-119.8151431, 38.0820393], [-119.8150867, 38.0820414], [-119.8150224, 38.0820773], [-119.8149982, 38.0820794], [-119.8148668, 38.0820562], [-119.8148373, 38.0820836], [-119.8148346, 38.0821301], [-119.8148212, 38.082147], [-119.8147783, 38.0821575], [-119.8147675, 38.0821744], [-119.8147702, 38.0822441], [-119.8147836, 38.0822589], [-119.8148534, 38.0822884], [-119.8148561, 38.0823074], [-119.81484, 38.0823433], [-119.8148534, 38.0823813], [-119.8148721, 38.082394], [-119.8149419, 38.0824045], [-119.8151672, 38.0824045], [-119.8152477, 38.082413], [-119.8152691, 38.0824193], [-119.8152825, 38.0824362], [-119.8152825, 38.0824552], [-119.8152664, 38.08247], [-119.8150572, 38.0825396], [-119.8149231, 38.0825481], [-119.8147541, 38.0825882], [-119.8146173, 38.0825967], [-119.8145664, 38.0826114], [-119.8144966, 38.0826558], [-119.8144349, 38.0827085], [-119.8143974, 38.0827761], [-119.8144054, 38.0827951], [-119.8144242, 38.0828078], [-119.8144779, 38.0828078], [-119.8145261, 38.0827972], [-119.8145369, 38.0828162], [-119.8144805, 38.0829197], [-119.814451, 38.0829471], [-119.8144162, 38.0829661], [-119.8142391, 38.0830126], [-119.8140192, 38.0830189], [-119.813987, 38.08304], [-119.8139522, 38.0831097], [-119.8139495, 38.0831477], [-119.8139629, 38.0831857], [-119.8139843, 38.0831962], [-119.8140085, 38.0831962], [-119.8140433, 38.0831667], [-119.8140433, 38.0830928], [-119.8140675, 38.0830865], [-119.8140916, 38.0830886], [-119.8141667, 38.0831392], [-119.8142177, 38.0831435], [-119.8145556, 38.0829957], [-119.8147059, 38.0829661], [-119.8148561, 38.0829661], [-119.8149848, 38.0829408], [-119.8149982, 38.0829556], [-119.8149982, 38.0829746], [-119.8149741, 38.0830041], [-119.8149258, 38.0830168], [-119.8147729, 38.0830337], [-119.8147434, 38.083059], [-119.8147193, 38.0830653], [-119.8146576, 38.0830548], [-119.814612, 38.083059], [-119.8145798, 38.0830865], [-119.8145825, 38.0831055], [-119.8146147, 38.0831561], [-119.8146468, 38.0831878], [-119.8147005, 38.0831836], [-119.8148346, 38.083116], [-119.8148829, 38.083116], [-119.814899, 38.0831308], [-119.814899, 38.0831519], [-119.8148587, 38.0831709], [-119.81484, 38.0832068], [-119.81484, 38.083268], [-119.8148534, 38.0833102], [-119.8149043, 38.083306], [-119.8149473, 38.0832891], [-119.8150197, 38.0832786], [-119.8150599, 38.0833018], [-119.8151323, 38.0833187], [-119.8152342, 38.083306], [-119.8152718, 38.0833314], [-119.815371, 38.0833335], [-119.8154113, 38.0833482], [-119.8154488, 38.0833757], [-119.8154488, 38.0834221], [-119.8154113, 38.0834876], [-119.8154005, 38.0835615], [-119.815371, 38.0835889], [-119.8152396, 38.083629], [-119.8151457, 38.0836354], [-119.8150089, 38.0836333], [-119.8148963, 38.0836586], [-119.8147836, 38.0836565], [-119.8146924, 38.0836987], [-119.8145744, 38.083724], [-119.8145369, 38.083705], [-119.8144886, 38.0836987], [-119.8144457, 38.0837135], [-119.8144296, 38.0837283], [-119.8143894, 38.0838233], [-119.8143089, 38.0838908], [-119.8141962, 38.0839014], [-119.8141533, 38.0839162], [-119.8141399, 38.0839542], [-119.8141426, 38.0839753], [-119.8141587, 38.0839922], [-119.8142257, 38.0840154], [-119.8142713, 38.0840597], [-119.8143598, 38.0840977], [-119.8144135, 38.0841484], [-119.8144645, 38.0841589], [-119.8144886, 38.0841526], [-119.8145261, 38.0841252], [-119.8146307, 38.0840703], [-119.8146576, 38.0840618], [-119.8146763, 38.0840787], [-119.8147166, 38.0842561], [-119.8147085, 38.0842941], [-119.814679, 38.0843215], [-119.8145852, 38.0843806], [-119.8145637, 38.0844165], [-119.8145664, 38.0844482], [-119.8146039, 38.0844777], [-119.8146334, 38.0845178], [-119.8146576, 38.0845727], [-119.8146495, 38.0845896], [-119.814612, 38.0846192], [-119.8145047, 38.0846804], [-119.8144966, 38.0847205], [-119.8145422, 38.084767], [-119.8145342, 38.0847881], [-119.8144752, 38.0848261], [-119.8143974, 38.0848599], [-119.8142955, 38.0848852], [-119.8142526, 38.0849063], [-119.814215, 38.0849316], [-119.8141935, 38.0849654], [-119.8141748, 38.0849781], [-119.8140541, 38.0850224], [-119.8140246, 38.0850541], [-119.813979, 38.0850583], [-119.8139361, 38.0850731], [-119.8139253, 38.0850879], [-119.8139092, 38.0851575], [-119.8139361, 38.0852525], [-119.8139253, 38.0852884], [-119.8139012, 38.0853032], [-119.8137724, 38.0853306], [-119.8137403, 38.0853475], [-119.8137295, 38.0853644], [-119.8137429, 38.0854784], [-119.8137859, 38.0855439], [-119.8137912, 38.0855903], [-119.8137912, 38.0856135], [-119.8137805, 38.0856283], [-119.8137429, 38.0856536], [-119.8136866, 38.0856663], [-119.8136169, 38.0856452], [-119.8135713, 38.0855544], [-119.8135203, 38.0855375], [-119.8134774, 38.085546], [-119.8134211, 38.0855776], [-119.8133969, 38.0855819], [-119.8133245, 38.0855798], [-119.8132092, 38.0855565], [-119.8131448, 38.0855565], [-119.8130429, 38.085584], [-119.812772, 38.0855988], [-119.8127291, 38.0856114], [-119.8127022, 38.0856389], [-119.8126566, 38.0857318], [-119.8126218, 38.0857571], [-119.8125547, 38.0857761], [-119.812485, 38.0858479], [-119.8124769, 38.0859344], [-119.8124313, 38.0859914], [-119.8122865, 38.0860738], [-119.8121497, 38.0861075], [-119.8121256, 38.0861054], [-119.8121095, 38.0860949], [-119.8121068, 38.0860569], [-119.8121175, 38.08604], [-119.8122543, 38.0859619], [-119.8122999, 38.085945], [-119.8123562, 38.0859091], [-119.8123589, 38.0858922], [-119.8122731, 38.0858394], [-119.8122409, 38.0857909], [-119.8122221, 38.0857824], [-119.8122007, 38.0857782], [-119.812147, 38.0858352], [-119.8121041, 38.0858394], [-119.8120451, 38.0858225], [-119.8118895, 38.0857254], [-119.8118413, 38.0856853], [-119.8118064, 38.0856389], [-119.8117849, 38.0856368], [-119.8117447, 38.0856536], [-119.8116991, 38.08566], [-119.8116615, 38.0856452], [-119.8116401, 38.0856515], [-119.8116267, 38.0856895], [-119.8116079, 38.0857022], [-119.8115784, 38.0857064], [-119.8115382, 38.0856938], [-119.8114899, 38.0856959], [-119.8113906, 38.0857106], [-119.8113209, 38.0857296], [-119.811278, 38.0857444], [-119.8112378, 38.085793], [-119.8112163, 38.0858014], [-119.811058, 38.0858268], [-119.810991, 38.0858268], [-119.8109669, 38.0858225], [-119.8109481, 38.0858099], [-119.8109454, 38.0857888], [-119.8109561, 38.0857719], [-119.8110366, 38.085717], [-119.8111814, 38.0856621], [-119.8112458, 38.0856431], [-119.8114228, 38.0856093], [-119.8115623, 38.0855608], [-119.8116294, 38.0855249], [-119.8118439, 38.0854404], [-119.8119271, 38.0853961], [-119.8121443, 38.0853053], [-119.8123375, 38.0852082], [-119.8124796, 38.0851575], [-119.8125306, 38.0851575], [-119.812603, 38.0851322], [-119.812949, 38.0849591], [-119.8130134, 38.0849063], [-119.8130348, 38.0848746], [-119.8131019, 38.0848556], [-119.8131529, 38.0848599], [-119.8131743, 38.0848535], [-119.8133379, 38.0847944], [-119.8133755, 38.0847712], [-119.8133835, 38.0847522], [-119.813228, 38.0847205], [-119.8131019, 38.0846804], [-119.812949, 38.0846572], [-119.812898, 38.0846255], [-119.812839, 38.0846023], [-119.8127344, 38.084577], [-119.812713, 38.084577], [-119.8126969, 38.0845875], [-119.8126861, 38.0846276], [-119.8126084, 38.0846698], [-119.8125038, 38.0846593], [-119.8124689, 38.0846382], [-119.8124287, 38.0845917], [-119.8123857, 38.0845938], [-119.8123509, 38.084615], [-119.8123428, 38.0846318], [-119.8123428, 38.0846952], [-119.8123348, 38.0847121], [-119.812316, 38.0847247], [-119.8122758, 38.0847332], [-119.8121899, 38.0847142], [-119.8121524, 38.0846466], [-119.8121604, 38.0843764], [-119.812139, 38.0843257], [-119.8121202, 38.0843152], [-119.8120987, 38.0843152], [-119.8120773, 38.0843215], [-119.8120612, 38.0843363], [-119.8120451, 38.0843722], [-119.8120585, 38.0846424], [-119.8120853, 38.0847459], [-119.8121282, 38.0847627], [-119.8121578, 38.0848176], [-119.8121578, 38.0848366], [-119.8120129, 38.0849739], [-119.8118734, 38.0850034], [-119.8118171, 38.0850351], [-119.8117715, 38.0850477], [-119.8117286, 38.0850414], [-119.8117179, 38.0850245], [-119.8117206, 38.0849865], [-119.8117098, 38.0849696], [-119.8116884, 38.0849591], [-119.8116025, 38.0849359], [-119.8115757, 38.0849105], [-119.8115543, 38.0849042], [-119.8114872, 38.0849147], [-119.8114657, 38.0849126], [-119.8114496, 38.0849], [-119.8114041, 38.0848176], [-119.8113853, 38.0848071], [-119.8113665, 38.0847353], [-119.8113424, 38.0847057], [-119.8113343, 38.0845685], [-119.8112968, 38.0844756], [-119.8112914, 38.0843996], [-119.8112834, 38.0843848], [-119.8112646, 38.0843743], [-119.8111975, 38.0843806], [-119.8111546, 38.0843933], [-119.8111251, 38.0844186], [-119.8111251, 38.0844376], [-119.8111117, 38.0844545], [-119.81105, 38.0844672], [-119.8110339, 38.0844798], [-119.8110205, 38.0845748], [-119.8110017, 38.0845833], [-119.8109615, 38.0845706], [-119.81094, 38.084577], [-119.8109105, 38.0846276], [-119.8108515, 38.0846614], [-119.8108301, 38.0847057], [-119.8108193, 38.0847649], [-119.8108086, 38.084786], [-119.8107871, 38.0848007], [-119.8107255, 38.0847733], [-119.8106986, 38.0847733], [-119.810645, 38.0847944], [-119.8106128, 38.0848113], [-119.8106021, 38.0848261], [-119.8106021, 38.0848472], [-119.810586, 38.0848577], [-119.8104197, 38.0849169], [-119.8103553, 38.0849717], [-119.8102936, 38.0849886], [-119.8102829, 38.0850055], [-119.8102883, 38.0850435], [-119.8101997, 38.0850815], [-119.8101568, 38.0850857], [-119.8101461, 38.0850689], [-119.8101461, 38.0850119], [-119.8101273, 38.0850055], [-119.8100495, 38.0850287], [-119.809961, 38.0850857], [-119.8097625, 38.0850752], [-119.8096982, 38.0850562], [-119.8096123, 38.085052], [-119.8095453, 38.085033], [-119.8092744, 38.0849865], [-119.8091054, 38.084995], [-119.8089981, 38.0850097], [-119.8088586, 38.0850583], [-119.8088238, 38.0850562], [-119.8087406, 38.0850351], [-119.8086119, 38.0849316], [-119.8085877, 38.0848789], [-119.8086011, 38.0848641], [-119.8086253, 38.084862], [-119.8086736, 38.0848725], [-119.8086977, 38.0848683], [-119.8087111, 38.0848514], [-119.8087084, 38.0848345], [-119.8086065, 38.0848029], [-119.808577, 38.0847754], [-119.808569, 38.0846593], [-119.8086521, 38.0846234], [-119.8086682, 38.0846086], [-119.8086682, 38.0845896], [-119.8086092, 38.084558], [-119.8085609, 38.0844904], [-119.8084992, 38.0844397], [-119.808408, 38.0843785], [-119.808341, 38.0843616], [-119.8081988, 38.0843595], [-119.8081774, 38.0843658], [-119.8081371, 38.0844081], [-119.8080969, 38.0844207], [-119.8080137, 38.0844186], [-119.8079681, 38.0844102], [-119.8079279, 38.0843975], [-119.8079199, 38.0843827], [-119.8079601, 38.0843616], [-119.8080888, 38.0843299], [-119.808282, 38.0842539], [-119.8084697, 38.0842033], [-119.8085582, 38.0841653], [-119.8086065, 38.0841526], [-119.8086655, 38.0841231], [-119.8086762, 38.0841083], [-119.8086682, 38.0840914], [-119.8085877, 38.0840576], [-119.8085234, 38.0840154], [-119.8084831, 38.0840027], [-119.8083946, 38.0839922], [-119.8083678, 38.0839732], [-119.808341, 38.0839098], [-119.808349, 38.0838676], [-119.8083651, 38.0838507], [-119.8084563, 38.0838064], [-119.808467, 38.0837578], [-119.8085314, 38.0837093], [-119.8085314, 38.0836628], [-119.8085099, 38.0836248], [-119.8084939, 38.0835678], [-119.8085126, 38.0835087], [-119.8085395, 38.0834559], [-119.808577, 38.0834074], [-119.8085877, 38.0833672], [-119.8085904, 38.0832765], [-119.8085529, 38.083173], [-119.8085502, 38.0830991], [-119.8085234, 38.0830717], [-119.8085019, 38.0830696], [-119.8084858, 38.0830569], [-119.8084456, 38.0830126], [-119.8084429, 38.0829556], [-119.8084536, 38.0829387], [-119.8084724, 38.0829281], [-119.8085234, 38.0829281], [-119.8085743, 38.0829154], [-119.8087809, 38.0827677], [-119.8090169, 38.0826895], [-119.8091161, 38.0826368], [-119.8091885, 38.0826241], [-119.8092744, 38.0825882], [-119.8092985, 38.0825882], [-119.8093468, 38.0826051], [-119.8094621, 38.0826114], [-119.8095372, 38.0826283], [-119.8095882, 38.0826304], [-119.8097304, 38.0825945], [-119.8097947, 38.082565], [-119.8099959, 38.0825354], [-119.81002, 38.0825439], [-119.8100334, 38.0825608], [-119.8100334, 38.0826157], [-119.8100442, 38.0826325], [-119.8100656, 38.082641], [-119.8100925, 38.082641], [-119.8101622, 38.0825861], [-119.8102132, 38.0825988], [-119.8102587, 38.0825861], [-119.8102829, 38.0825945], [-119.8103258, 38.0826853], [-119.8103473, 38.0826938], [-119.810417, 38.0826727], [-119.8104894, 38.0826368], [-119.8105136, 38.0826325], [-119.810586, 38.0826431], [-119.8106101, 38.0826368], [-119.810645, 38.0825882], [-119.8106691, 38.0825861], [-119.8107013, 38.0826178], [-119.810755, 38.082584], [-119.8107657, 38.0825671], [-119.8107442, 38.0825629], [-119.8106986, 38.0825692], [-119.8106933, 38.0825502], [-119.8107067, 38.0825354], [-119.8107335, 38.0825333], [-119.8107415, 38.0825164], [-119.8106772, 38.0824636], [-119.8105726, 38.0824341], [-119.8105511, 38.0824446], [-119.8105323, 38.0824763], [-119.8105109, 38.0824869], [-119.8104948, 38.0824742], [-119.8104706, 38.0824742], [-119.8104331, 38.0824974], [-119.8104116, 38.0825016], [-119.8104143, 38.0824489], [-119.8104036, 38.0824151], [-119.8103902, 38.0824045], [-119.8103687, 38.0824045], [-119.8102883, 38.0824362], [-119.8102829, 38.0824024], [-119.8102909, 38.0823876], [-119.8103929, 38.0823285], [-119.8105672, 38.0822969], [-119.8106396, 38.0822736], [-119.8107469, 38.082223], [-119.8107952, 38.0822124], [-119.8109373, 38.0821343], [-119.81105, 38.08209], [-119.8110661, 38.0821026], [-119.811058, 38.0821195], [-119.8109749, 38.0821744], [-119.8108971, 38.0822124], [-119.8108864, 38.0822694], [-119.8108462, 38.082337], [-119.8108462, 38.082394], [-119.810932, 38.0824636], [-119.810932, 38.0825396], [-119.8109642, 38.0825967], [-119.8109213, 38.0826368], [-119.8109052, 38.0826938], [-119.8108837, 38.082698], [-119.8108703, 38.0827107], [-119.8108622, 38.0827487], [-119.8108703, 38.082774], [-119.8108864, 38.0827867], [-119.8110098, 38.0828057], [-119.8110634, 38.0827465], [-119.8110902, 38.0827444], [-119.8111734, 38.0827803], [-119.8112458, 38.0827909], [-119.8112994, 38.0828289], [-119.8114014, 38.0828289], [-119.811573, 38.0828014], [-119.8116213, 38.0828099], [-119.8116374, 38.0828268], [-119.8116615, 38.0828352], [-119.8116857, 38.0828352], [-119.8117822, 38.0828078], [-119.8117876, 38.0827888], [-119.8118037, 38.082774], [-119.8118734, 38.082755], [-119.8119593, 38.0827149], [-119.8120102, 38.0827212], [-119.8120236, 38.0827381], [-119.8120451, 38.0827465], [-119.812139, 38.0827212], [-119.8122141, 38.0827191], [-119.8122329, 38.0827085], [-119.8122892, 38.0826072], [-119.812308, 38.0825945], [-119.8123214, 38.0825249], [-119.8123455, 38.0824932], [-119.8123884, 38.0824446], [-119.8124662, 38.0824045], [-119.8124903, 38.082375], [-119.8124769, 38.0823602], [-119.8124179, 38.0823433], [-119.8124045, 38.0822884], [-119.8123589, 38.0822314], [-119.8123723, 38.0821955], [-119.8124394, 38.0821343], [-119.812493, 38.0821301], [-119.8125091, 38.0821174], [-119.8125494, 38.0820477], [-119.8125976, 38.0820372], [-119.8126164, 38.0820498], [-119.8126057, 38.0820878], [-119.8126298, 38.0820942], [-119.8126593, 38.0820625], [-119.8126754, 38.0820076], [-119.8126566, 38.0819802], [-119.8126566, 38.0819612], [-119.8126781, 38.0819253], [-119.8126835, 38.0818915], [-119.8126084, 38.0818324], [-119.8125628, 38.0818303], [-119.8125252, 38.0818535], [-119.8125011, 38.0818577], [-119.8124796, 38.0818535], [-119.8124689, 38.0818408], [-119.8124313, 38.0818239], [-119.8124099, 38.0818303], [-119.8123911, 38.0818641], [-119.8123536, 38.0818852], [-119.8123133, 38.0818978], [-119.8122704, 38.0818894], [-119.8122489, 38.0818957], [-119.8122168, 38.0819422], [-119.8121873, 38.082014], [-119.8121443, 38.0820266], [-119.8121309, 38.0820393], [-119.8120773, 38.0821829], [-119.8120531, 38.0821829], [-119.8120371, 38.0821934], [-119.8120156, 38.0822462], [-119.8119941, 38.082242], [-119.8119807, 38.0822293], [-119.8119807, 38.0821702], [-119.81197, 38.0821575], [-119.8119271, 38.0821512], [-119.8118788, 38.0821596], [-119.8116991, 38.0822546], [-119.8115757, 38.0823074], [-119.8114389, 38.0823855], [-119.8113853, 38.0824468], [-119.8113665, 38.0824573], [-119.8113263, 38.082451], [-119.8112351, 38.0824024], [-119.8112136, 38.0823982], [-119.8111734, 38.0823518], [-119.8111814, 38.082337], [-119.8112163, 38.0823116], [-119.811388, 38.0822356], [-119.8114014, 38.082223], [-119.8114148, 38.0821639], [-119.8114523, 38.0820963], [-119.8115167, 38.0820752], [-119.8115462, 38.0820477], [-119.8115382, 38.081995], [-119.8115462, 38.0819781], [-119.8115945, 38.0819633], [-119.8116481, 38.0819211], [-119.8116508, 38.0819021], [-119.8116669, 38.0818894], [-119.811675, 38.0818514], [-119.8117259, 38.0817902], [-119.811742, 38.0817332], [-119.811734, 38.0817163], [-119.8116642, 38.0817163], [-119.811632, 38.0816339], [-119.811632, 38.0816044], [-119.8116455, 38.0815664], [-119.8116562, 38.0815495], [-119.8117045, 38.0815284], [-119.8117393, 38.0814988], [-119.8117903, 38.0814355], [-119.8118493, 38.0813257], [-119.8118842, 38.0812961], [-119.8119083, 38.0812877], [-119.8119324, 38.0812877], [-119.8119485, 38.0813025], [-119.8119539, 38.0813257], [-119.8119512, 38.0813447], [-119.8119217, 38.0813932], [-119.8119003, 38.081465], [-119.8118976, 38.0815263], [-119.811919, 38.0815368], [-119.8119459, 38.0815347], [-119.8119673, 38.0815241], [-119.8120719, 38.0814165], [-119.8121336, 38.0813827], [-119.8121819, 38.0813658], [-119.8122597, 38.0813637], [-119.8123133, 38.0814059], [-119.8123133, 38.0814249], [-119.8122892, 38.0814587], [-119.8122919, 38.0814777], [-119.812308, 38.0814946], [-119.8123133, 38.0815368], [-119.8122919, 38.0815727], [-119.8122597, 38.0815959], [-119.8121926, 38.0816044], [-119.8121363, 38.0816339], [-119.812088, 38.0816719], [-119.8119941, 38.0817965], [-119.8119029, 38.0818704], [-119.8118654, 38.0818873], [-119.8117957, 38.0818873], [-119.8117501, 38.0819021], [-119.8117179, 38.0819717], [-119.8116937, 38.0820013], [-119.8116562, 38.0820161], [-119.8115274, 38.0821976], [-119.8115087, 38.0822356], [-119.8115355, 38.082242], [-119.8116106, 38.0821997], [-119.8117662, 38.082147], [-119.8118064, 38.0821258], [-119.8118466, 38.0820414], [-119.8119003, 38.0820013], [-119.8119754, 38.0819253], [-119.8122409, 38.081769], [-119.8122919, 38.0816635], [-119.8123375, 38.0816255], [-119.8124206, 38.0815811], [-119.8124716, 38.0815727], [-119.8125252, 38.0815389], [-119.812544, 38.0815495], [-119.8125708, 38.0816255], [-119.8125976, 38.0816339], [-119.8126245, 38.0816318], [-119.8126459, 38.081598], [-119.8126245, 38.0815094], [-119.8126271, 38.0814735], [-119.8126406, 38.0814566], [-119.8126647, 38.081465], [-119.8126835, 38.0815051], [-119.8127612, 38.0815051], [-119.8127747, 38.0815199], [-119.8127747, 38.081541], [-119.8128256, 38.0815368], [-119.8128659, 38.0814798], [-119.812898, 38.0814545], [-119.8128927, 38.0814355], [-119.8128498, 38.0813996], [-119.8128471, 38.0813806], [-119.8128605, 38.0813658], [-119.8129356, 38.0813658], [-119.8129329, 38.0813109], [-119.8129115, 38.0812623], [-119.8129168, 38.0812433], [-119.8129329, 38.0812328], [-119.8129597, 38.0812307], [-119.8129785, 38.0812433], [-119.8130026, 38.0812982], [-119.8130214, 38.0813109], [-119.8130697, 38.0813088], [-119.8130912, 38.0812982], [-119.8131368, 38.0812518], [-119.8131448, 38.0811969], [-119.8132253, 38.0811547], [-119.8132601, 38.081123], [-119.8133245, 38.0810977], [-119.8134372, 38.0810048], [-119.8134667, 38.0809583], [-119.813413, 38.0809034], [-119.8133513, 38.0808929], [-119.8132816, 38.0808528], [-119.8132575, 38.0808528], [-119.8132387, 38.0808612], [-119.8131797, 38.0809182], [-119.8131582, 38.080952], [-119.8130938, 38.0809689], [-119.8130482, 38.0810322], [-119.8130322, 38.0810428], [-119.812941, 38.0810554], [-119.8128846, 38.0810871], [-119.8128685, 38.0811019], [-119.8128632, 38.081123], [-119.8128846, 38.0811357], [-119.8129329, 38.0811378], [-119.8129356, 38.0811568], [-119.8128444, 38.081237], [-119.8128256, 38.0812455], [-119.8128015, 38.0812455], [-119.8127881, 38.0812328], [-119.8127854, 38.0811568], [-119.8127934, 38.0811209], [-119.8128337, 38.0810301], [-119.8128578, 38.0809963], [-119.8129651, 38.0809119], [-119.8130187, 38.0808042], [-119.8130563, 38.0807535], [-119.8130965, 38.0807282], [-119.8131341, 38.0806353], [-119.8131394, 38.0805804], [-119.8131984, 38.0805234], [-119.8132011, 38.0804854], [-119.8131555, 38.0804854], [-119.813126, 38.0805002], [-119.8130831, 38.0805424], [-119.8130026, 38.0806416], [-119.8128659, 38.0807725], [-119.8127586, 38.0808908], [-119.8126325, 38.0810618], [-119.812595, 38.0811272], [-119.8125762, 38.0811863], [-119.8125333, 38.0812539], [-119.8125118, 38.0812623], [-119.8124662, 38.0812602], [-119.8124447, 38.0812328], [-119.8124608, 38.080971], [-119.8125225, 38.0808211], [-119.8126701, 38.0806817], [-119.8129168, 38.0804685], [-119.8129356, 38.0804579], [-119.8130107, 38.0804432], [-119.8130348, 38.0804495], [-119.8130429, 38.0804664], [-119.8130617, 38.0804791], [-119.8130858, 38.0804833], [-119.8131099, 38.080477], [-119.8131233, 38.0804622], [-119.8131475, 38.0803439], [-119.8131394, 38.0803292], [-119.8131207, 38.0803228], [-119.8130536, 38.080327], [-119.8130187, 38.0803524], [-119.8129946, 38.0803587], [-119.8129758, 38.0803524], [-119.8129597, 38.0803144], [-119.8129571, 38.0802764], [-119.8129812, 38.0802236], [-119.8130697, 38.0801054], [-119.8131716, 38.0800104], [-119.8132253, 38.0799724], [-119.8132843, 38.0799386], [-119.8133567, 38.0799175], [-119.8135176, 38.0798415], [-119.8136437, 38.0797633], [-119.8137134, 38.0797021], [-119.8138127, 38.0796324], [-119.8138556, 38.0795839], [-119.8139012, 38.0795501], [-119.8140085, 38.0794192], [-119.8140514, 38.0793474], [-119.8140943, 38.079301], [-119.8141801, 38.0791468], [-119.8142284, 38.0790962], [-119.8143035, 38.0790476], [-119.8143169, 38.0790286], [-119.8143518, 38.0789568], [-119.8143679, 38.0788576], [-119.8144135, 38.07879], [-119.8144296, 38.0787795], [-119.8144779, 38.078771], [-119.8145288, 38.0787837], [-119.8146388, 38.0787752], [-119.8147997, 38.0786612], [-119.8149473, 38.0786528], [-119.8149741, 38.0786443], [-119.8150224, 38.0785979], [-119.8150572, 38.0785493], [-119.8150572, 38.0784944], [-119.8150277, 38.0784628], [-119.8149124, 38.0784247], [-119.8148936, 38.078391], [-119.8148909, 38.0783509], [-119.8149043, 38.0783002], [-119.8149258, 38.0782706], [-119.8149741, 38.0782284], [-119.8150063, 38.0781439], [-119.8150545, 38.0780595], [-119.8150519, 38.0778779], [-119.8151484, 38.0777892], [-119.8152182, 38.0777407], [-119.8152289, 38.0777238], [-119.8152155, 38.0775929], [-119.8152262, 38.077557], [-119.8153603, 38.0775021], [-119.8153871, 38.0774746], [-119.8154408, 38.0774451], [-119.8155266, 38.0772952]], [[-119.8085502, 38.0840006], [-119.8086052, 38.0839964], [-119.8086293, 38.0839763], [-119.808628, 38.0839658], [-119.8086213, 38.0839573], [-119.8086092, 38.0839573], [-119.8085555, 38.0839816], [-119.8085502, 38.0840006]], [[-119.8088774, 38.0842012], [-119.8088855, 38.0841843], [-119.8088694, 38.0841695], [-119.8088425, 38.0841716], [-119.8087996, 38.0841864], [-119.8087245, 38.0841885], [-119.8086736, 38.0842561], [-119.8086736, 38.0842751], [-119.8086762, 38.0842941], [-119.8086923, 38.0843046], [-119.8087165, 38.0843067], [-119.8087782, 38.0842518], [-119.8088774, 38.0842012]], [[-119.8087084, 38.0839732], [-119.8087004, 38.08399], [-119.8087125, 38.0840323], [-119.8087017, 38.0840671], [-119.8087084, 38.0840924], [-119.808742, 38.0840861], [-119.808809, 38.0840513], [-119.8087983, 38.084027], [-119.8088157, 38.0839953], [-119.8088077, 38.0839784], [-119.8087446, 38.0839658], [-119.8087084, 38.0839732]], [[-119.808864, 38.0847395], [-119.8088533, 38.0847564], [-119.808864, 38.084862], [-119.8089096, 38.0848683], [-119.8090062, 38.0848197], [-119.8089981, 38.0847606], [-119.8090169, 38.0847268], [-119.8090088, 38.0847078], [-119.8089847, 38.0847078], [-119.8089176, 38.0847311], [-119.808864, 38.0847395]], [[-119.8098779, 38.0843532], [-119.809961, 38.0843278], [-119.8099798, 38.0842919], [-119.8099771, 38.0842518], [-119.8099369, 38.0841948], [-119.8098081, 38.0841378], [-119.8096526, 38.0841378], [-119.8096016, 38.0841231], [-119.8095748, 38.0841231], [-119.809387, 38.0841421], [-119.8093468, 38.0841864], [-119.8092797, 38.0842075], [-119.8092127, 38.0842539], [-119.809159, 38.0842645], [-119.8091108, 38.0842624], [-119.8090866, 38.0842708], [-119.8090115, 38.0843616], [-119.8089793, 38.0843891], [-119.8089364, 38.0844102], [-119.8089123, 38.0844418], [-119.8089069, 38.0845368], [-119.808923, 38.0845938], [-119.8089391, 38.0846044], [-119.8089606, 38.0846044], [-119.8090062, 38.0845875], [-119.8090705, 38.0845411], [-119.8092771, 38.084444], [-119.8093227, 38.0844313], [-119.8094595, 38.0844271], [-119.809548, 38.0844102], [-119.8096338, 38.0843532], [-119.8097008, 38.0843363], [-119.8097491, 38.0843363], [-119.8098108, 38.0843511], [-119.8098779, 38.0843532]], [[-119.8091067, 38.0839119], [-119.8092851, 38.0838423], [-119.8092851, 38.0838328], [-119.8091926, 38.0838359], [-119.809147, 38.0838655], [-119.8090799, 38.0838708], [-119.8090303, 38.0838834], [-119.8090249, 38.0839225], [-119.809033, 38.0839383], [-119.8090746, 38.0839309], [-119.8091067, 38.0839119]], [[-119.8094702, 38.0840534], [-119.8095158, 38.0840513], [-119.8095587, 38.0840576], [-119.8096043, 38.0840872], [-119.8096472, 38.0840914], [-119.8097545, 38.0840534], [-119.8097679, 38.0840238], [-119.8097625, 38.0840048], [-119.8097169, 38.0839626], [-119.8096392, 38.0839563], [-119.8095855, 38.0839668], [-119.8095614, 38.0839647], [-119.8095238, 38.0839373], [-119.8095104, 38.0839162], [-119.8095104, 38.0838972], [-119.8095587, 38.0838549], [-119.8095426, 38.083838], [-119.8095185, 38.0838359], [-119.8094782, 38.0838528], [-119.8094031, 38.0839014], [-119.8093602, 38.0839668], [-119.8093119, 38.0839753], [-119.8092851, 38.0839732], [-119.809269, 38.0839605], [-119.8092181, 38.0839626], [-119.8091671, 38.0840048], [-119.809159, 38.0840217], [-119.8091644, 38.0840745], [-119.8091725, 38.0840914], [-119.8091885, 38.0840998], [-119.8092932, 38.0840618], [-119.8094058, 38.0840703], [-119.8094702, 38.0840534]], [[-119.8103258, 38.0846677], [-119.810299, 38.0846698], [-119.8102105, 38.0847057], [-119.8101622, 38.0847142], [-119.8101032, 38.0847459], [-119.8099905, 38.0847754], [-119.8099208, 38.0848261], [-119.8096097, 38.084824], [-119.8095104, 38.0848535], [-119.8093843, 38.0848514], [-119.8093092, 38.0848577], [-119.8092851, 38.0848641], [-119.8092851, 38.0848831], [-119.8093119, 38.0849063], [-119.8093334, 38.0849063], [-119.809379, 38.0849401], [-119.8094004, 38.0849464], [-119.8095185, 38.0849401], [-119.8095614, 38.0849527], [-119.8096472, 38.0849527], [-119.809776, 38.0849169], [-119.8098618, 38.0849316], [-119.8098832, 38.0849232], [-119.8099208, 38.0848789], [-119.8099503, 38.0848683], [-119.8099718, 38.0848683], [-119.8100629, 38.0848345], [-119.8101327, 38.0848345], [-119.8102266, 38.0848155], [-119.810248, 38.084805], [-119.8103446, 38.0847247], [-119.8103446, 38.0846825], [-119.8103258, 38.0846677]], [[-119.8094004, 38.0836818], [-119.8093361, 38.0836881], [-119.809328, 38.0837262], [-119.8093361, 38.0837452], [-119.8093548, 38.0837557], [-119.8094058, 38.0837578], [-119.809548, 38.0837219], [-119.8097464, 38.0836501], [-119.8098591, 38.0835446], [-119.8099235, 38.083439], [-119.8099718, 38.0834306], [-119.8099905, 38.0834433], [-119.8099932, 38.0834623], [-119.8099744, 38.0835193], [-119.8099986, 38.0835214], [-119.8101595, 38.0834728], [-119.8102963, 38.0834242], [-119.8103339, 38.0834031], [-119.810358, 38.0833715], [-119.8103607, 38.0833525], [-119.8103929, 38.083325], [-119.8103982, 38.083287], [-119.8104197, 38.0832575], [-119.8104841, 38.08323], [-119.8105162, 38.0832047], [-119.810527, 38.0831477], [-119.8105162, 38.0831118], [-119.8104733, 38.0831033], [-119.810417, 38.0831287], [-119.8103473, 38.0832258], [-119.8103258, 38.08323], [-119.8102641, 38.0832216], [-119.810248, 38.0832321], [-119.8101944, 38.0833124], [-119.8101622, 38.083344], [-119.8101193, 38.0833482], [-119.8101112, 38.0833145], [-119.8100978, 38.0833018], [-119.8100522, 38.0833018], [-119.8099798, 38.0833356], [-119.8099315, 38.0833778], [-119.8098859, 38.0833841], [-119.8098645, 38.0833947], [-119.8097733, 38.0834749], [-119.8097518, 38.0834813], [-119.8096606, 38.0834813], [-119.8096445, 38.0834939], [-119.8096204, 38.0835509], [-119.8096043, 38.0835657], [-119.8095801, 38.0835699], [-119.8095641, 38.0835594], [-119.8095399, 38.0835573], [-119.8094434, 38.0836016], [-119.8094004, 38.0835995], [-119.8093763, 38.0836269], [-119.8094139, 38.0836501], [-119.8094165, 38.0836691], [-119.8094004, 38.0836818]], [[-119.8095936, 38.0833715], [-119.8096043, 38.0834095], [-119.8096231, 38.08342], [-119.8096472, 38.08342], [-119.8096821, 38.0833989], [-119.8097062, 38.0833672], [-119.8097035, 38.0833482], [-119.8096821, 38.083325], [-119.8096365, 38.0833292], [-119.8095936, 38.0833715]], [[-119.8096767, 38.0846318], [-119.8097867, 38.0846044], [-119.8097813, 38.0845622], [-119.8097625, 38.0845474], [-119.8097357, 38.0845411], [-119.8096606, 38.0845495], [-119.809615, 38.0845833], [-119.809615, 38.0846023], [-119.8096177, 38.0846213], [-119.8096311, 38.084634], [-119.8096767, 38.0846318]], [[-119.8100174, 38.0838634], [-119.8100603, 38.0838803], [-119.810079, 38.0839309], [-119.8101005, 38.0839352], [-119.8101783, 38.0839014], [-119.8102212, 38.0838592], [-119.8102561, 38.083762], [-119.81024, 38.0837494], [-119.810189, 38.0837536], [-119.8101702, 38.0837388], [-119.8101863, 38.0836649], [-119.8101461, 38.0836396], [-119.8100978, 38.083629], [-119.8099959, 38.0836396], [-119.8099476, 38.0836544], [-119.809894, 38.0836924], [-119.8098752, 38.0837283], [-119.8098108, 38.0837578], [-119.8098001, 38.0837747], [-119.8098081, 38.0838085], [-119.809843, 38.0838486], [-119.8098806, 38.0838634], [-119.8099503, 38.0838507], [-119.8100174, 38.0838634]], [[-119.8102614, 38.083572], [-119.8102748, 38.0835573], [-119.8102829, 38.0835214], [-119.8102561, 38.0834897], [-119.8102319, 38.0834918], [-119.8101836, 38.0835404], [-119.8101622, 38.0835805], [-119.8101676, 38.0835995], [-119.8101836, 38.08361], [-119.8102051, 38.0836058], [-119.8102614, 38.083572]], [[-119.8109306, 38.0842613], [-119.8108596, 38.0842086], [-119.8107965, 38.0842064], [-119.8107938, 38.08416], [-119.8107563, 38.0841494], [-119.810598, 38.0841315], [-119.8105498, 38.0841104], [-119.8104921, 38.084046], [-119.8104277, 38.084009], [-119.8103929, 38.0840017], [-119.8103553, 38.084009], [-119.8102762, 38.0840597], [-119.810248, 38.0840861], [-119.8102319, 38.0841294], [-119.8102628, 38.0841769], [-119.8102655, 38.0842096], [-119.8101957, 38.0842413], [-119.8102011, 38.0842782], [-119.8102306, 38.0842782], [-119.8103151, 38.084236], [-119.8103566, 38.0842254], [-119.8103902, 38.0841927], [-119.8105404, 38.0841558], [-119.8105659, 38.0841579], [-119.8105766, 38.0842265], [-119.8106302, 38.0842761], [-119.8106316, 38.0842856], [-119.8106115, 38.0842951], [-119.8106061, 38.0843109], [-119.8106383, 38.0843658], [-119.8106611, 38.0843838], [-119.8107348, 38.0843922], [-119.8107456, 38.0844176], [-119.810755, 38.0844218], [-119.8107791, 38.0844186], [-119.8108824, 38.0843584], [-119.8109172, 38.0843236], [-119.8109387, 38.0842909], [-119.8109306, 38.0842613]], [[-119.8105297, 38.0834665], [-119.8106155, 38.0834052], [-119.8106074, 38.0833862], [-119.8105833, 38.083382], [-119.8105323, 38.0833947], [-119.8105001, 38.08342], [-119.8104304, 38.0835003], [-119.8104304, 38.0835361], [-119.8104546, 38.0835361], [-119.8104706, 38.0835256], [-119.8105297, 38.0834665]], [[-119.8107362, 38.0832406], [-119.8107469, 38.0832237], [-119.8107657, 38.0831688], [-119.8108622, 38.0831603], [-119.810881, 38.0831498], [-119.8109776, 38.0830463], [-119.8109776, 38.0830231], [-119.8109534, 38.0830126], [-119.8109025, 38.0830126], [-119.8108596, 38.0830273], [-119.8108274, 38.083078], [-119.8108059, 38.0830886], [-119.8107764, 38.083059], [-119.8107523, 38.0830506], [-119.8106959, 38.0830843], [-119.8106477, 38.0831287], [-119.810653, 38.0832068], [-119.8106316, 38.0832786], [-119.8106638, 38.0833039], [-119.8106825, 38.0833335], [-119.8106986, 38.0833862], [-119.810712, 38.0833989], [-119.8107362, 38.0833926], [-119.8107335, 38.0833504], [-119.8107013, 38.0832997], [-119.8106986, 38.0832807], [-119.810704, 38.0832617], [-119.8107362, 38.0832406]], [[-119.8107684, 38.083553], [-119.8107711, 38.083534], [-119.8107603, 38.0835171], [-119.8106825, 38.0835108], [-119.810645, 38.0835615], [-119.8106396, 38.0835974], [-119.810653, 38.0836227], [-119.8106718, 38.0836269], [-119.8106933, 38.0836185], [-119.8107684, 38.083553]], [[-119.8108166, 38.0838687], [-119.8108153, 38.0839288], [-119.8108247, 38.0839563], [-119.8108596, 38.0839911], [-119.8109132, 38.0839964], [-119.8109427, 38.0839795], [-119.8109427, 38.0838328], [-119.8108837, 38.0838138], [-119.8108716, 38.0837747], [-119.8108462, 38.0837715], [-119.8108113, 38.0837842], [-119.8108006, 38.0838222], [-119.8108166, 38.0838687]], [[-119.8112565, 38.083116], [-119.8112404, 38.083097], [-119.8112136, 38.0830949], [-119.8111385, 38.0831097], [-119.8110795, 38.0831413], [-119.8109695, 38.0832469], [-119.8109052, 38.0832849], [-119.8109078, 38.0833567], [-119.8109239, 38.0833651], [-119.8109454, 38.083363], [-119.8109669, 38.0833504], [-119.8110822, 38.0832701], [-119.8111412, 38.0832152], [-119.8112404, 38.0831667], [-119.8112619, 38.083135], [-119.8112565, 38.083116]], [[-119.8117997, 38.0817743], [-119.8118426, 38.0817659], [-119.811911, 38.0817701], [-119.8119499, 38.0817353], [-119.8119821, 38.0817226], [-119.8119646, 38.0816994], [-119.811915, 38.0816941], [-119.8118936, 38.0816835], [-119.8118989, 38.081655], [-119.8118895, 38.081635], [-119.8118547, 38.0816381], [-119.8118117, 38.0816835], [-119.811797, 38.081711], [-119.8117903, 38.0817585], [-119.8117997, 38.0817743]], [[-119.8142928, 38.0826473], [-119.8143411, 38.0826093], [-119.8145127, 38.0825396], [-119.8145208, 38.0825228], [-119.8145154, 38.0825038], [-119.814494, 38.0824974], [-119.8141614, 38.0824953], [-119.8140782, 38.0825565], [-119.8139843, 38.0825755], [-119.81392, 38.0826199], [-119.8138502, 38.0826515], [-119.8138234, 38.0826515], [-119.8137563, 38.0826199], [-119.8137295, 38.0826199], [-119.8136732, 38.0826558], [-119.8136517, 38.0826642], [-119.8136249, 38.0826621], [-119.8135713, 38.0826558], [-119.8135498, 38.0826452], [-119.813523, 38.0826135], [-119.813515, 38.0825692], [-119.8135257, 38.0825502], [-119.8135605, 38.082527], [-119.8136035, 38.0824278], [-119.8136276, 38.0823982], [-119.8137322, 38.0823116], [-119.8137698, 38.0822673], [-119.8137805, 38.0822124], [-119.8137993, 38.0821807], [-119.8138878, 38.0821195], [-119.8139951, 38.0819907], [-119.8140326, 38.0819654], [-119.814097, 38.0819443], [-119.8141667, 38.0818535], [-119.814207, 38.0818345], [-119.8142365, 38.0817859], [-119.8143142, 38.0816909], [-119.8143706, 38.0816593], [-119.8144135, 38.0816466], [-119.8144698, 38.0816128], [-119.8144725, 38.0815748], [-119.8144618, 38.0815558], [-119.8144671, 38.0815368], [-119.814561, 38.0814861], [-119.8145583, 38.0814671], [-119.8145127, 38.0814692], [-119.8144698, 38.0814861], [-119.8144135, 38.081522], [-119.8143223, 38.0815368], [-119.8142767, 38.0815516], [-119.8142472, 38.0815811], [-119.8141238, 38.0816466], [-119.8140219, 38.0816508], [-119.81392, 38.0816656], [-119.8138717, 38.081655], [-119.8138261, 38.0816044], [-119.8138368, 38.0815284], [-119.8138288, 38.0815094], [-119.8137832, 38.0814925], [-119.8137563, 38.0814904], [-119.8137403, 38.081503], [-119.8137295, 38.0816297], [-119.813692, 38.0817796], [-119.813692, 38.0818345], [-119.8137161, 38.0818619], [-119.8137108, 38.0818809], [-119.8136008, 38.0819759], [-119.8135793, 38.0820308], [-119.8135337, 38.0820435], [-119.8134586, 38.0820287], [-119.8134211, 38.0820498], [-119.813413, 38.0820688], [-119.8134184, 38.0820878], [-119.8134586, 38.0821068], [-119.8134345, 38.0821681], [-119.8134184, 38.082185], [-119.8133996, 38.0821955], [-119.8133487, 38.0821892], [-119.8133272, 38.0821955], [-119.8133111, 38.0822272], [-119.8132923, 38.0822399], [-119.8132655, 38.0822441], [-119.8132145, 38.0822377], [-119.8131475, 38.0822082], [-119.8129812, 38.0822525], [-119.8129302, 38.0822589], [-119.8128659, 38.0822947], [-119.8127988, 38.082318], [-119.8127183, 38.082318], [-119.8126352, 38.0823623], [-119.8125869, 38.0824066], [-119.8125306, 38.0824953], [-119.8124796, 38.0825354], [-119.8124528, 38.0826009], [-119.8124662, 38.0826347], [-119.8124823, 38.0826452], [-119.8125011, 38.0826515], [-119.812595, 38.0826558], [-119.8128149, 38.0826051], [-119.812898, 38.0825713], [-119.8129946, 38.0825439], [-119.8131073, 38.0825249], [-119.8131743, 38.0825164], [-119.8132226, 38.0825206], [-119.8133594, 38.0825544], [-119.8134184, 38.0825882], [-119.813413, 38.0826241], [-119.8133647, 38.0826663], [-119.8133165, 38.08266], [-119.813236, 38.0827085], [-119.8132092, 38.0827381], [-119.813228, 38.0828057], [-119.8132199, 38.0828247], [-119.8131153, 38.082869], [-119.8130885, 38.0828964], [-119.8130831, 38.0829323], [-119.8131126, 38.0829767], [-119.8131126, 38.0830569], [-119.813118, 38.0830717], [-119.8131368, 38.0830801], [-119.8131609, 38.0830801], [-119.8132736, 38.0830675], [-119.8133835, 38.0830295], [-119.8134023, 38.0830189], [-119.8133916, 38.0829767], [-119.813405, 38.0829408], [-119.8134613, 38.0828838], [-119.8134828, 38.0828753], [-119.8135042, 38.0828774], [-119.8135176, 38.0828901], [-119.8135096, 38.0829471], [-119.8134801, 38.0829999], [-119.8134854, 38.0830569], [-119.8135015, 38.0830907], [-119.8135257, 38.0830949], [-119.8138073, 38.0830041], [-119.8138475, 38.0829809], [-119.8138529, 38.082964], [-119.8138422, 38.0829281], [-119.8138583, 38.0828922], [-119.8138422, 38.0828542], [-119.8138154, 38.08285], [-119.8137671, 38.0828606], [-119.8137403, 38.0828563], [-119.8137403, 38.0828352], [-119.8137537, 38.0828183], [-119.8137912, 38.0828014], [-119.8138985, 38.0828099], [-119.8139334, 38.0828289], [-119.8139387, 38.0828437], [-119.8138958, 38.0828901], [-119.8138985, 38.0829091], [-119.8139092, 38.082926], [-119.8139709, 38.0829471], [-119.8141721, 38.0829239], [-119.8142928, 38.0828732], [-119.8143142, 38.0828204], [-119.8143142, 38.0827803], [-119.8142982, 38.0827444], [-119.8142874, 38.0826853], [-119.8142928, 38.0826473]], [[-119.8126902, 38.0817902], [-119.8127545, 38.0817479], [-119.8127653, 38.081731], [-119.8127545, 38.0817131], [-119.8127331, 38.0817015], [-119.8126473, 38.0817215], [-119.8126338, 38.0817448], [-119.8126325, 38.0817838], [-119.8126446, 38.0817975], [-119.8126902, 38.0817902]], [[-119.8128243, 38.0853686], [-119.8128015, 38.0853792], [-119.81278, 38.0854056], [-119.8127586, 38.085394], [-119.8127331, 38.0854003], [-119.8126929, 38.0854235], [-119.8126781, 38.0854478], [-119.8126808, 38.0854584], [-119.8127036, 38.0854636], [-119.8127237, 38.0854848], [-119.8127733, 38.0854826], [-119.8128095, 38.0854225], [-119.8128632, 38.0853919], [-119.8128712, 38.085376], [-119.8128645, 38.0853686], [-119.8128243, 38.0853686]], [[-119.8129544, 38.0842075], [-119.8128377, 38.0842666], [-119.8128256, 38.0842824], [-119.812827, 38.0843014], [-119.8128846, 38.0842972], [-119.8130268, 38.0842603], [-119.8130643, 38.0842276], [-119.813067, 38.0842043], [-119.8129544, 38.0842075]], [[-119.813, 38.0817775], [-119.8130026, 38.0817585], [-119.8130161, 38.0817416], [-119.8130617, 38.0817289], [-119.8130778, 38.0817163], [-119.8130778, 38.081655], [-119.8131233, 38.0815621], [-119.8131609, 38.0815431], [-119.813185, 38.0815453], [-119.8132145, 38.0815917], [-119.8132494, 38.0816086], [-119.8132709, 38.0816107], [-119.8133379, 38.0815959], [-119.8134023, 38.0815643], [-119.8134479, 38.0815263], [-119.8134506, 38.0815073], [-119.8133916, 38.0814228], [-119.8133808, 38.0813257], [-119.8133943, 38.0813088], [-119.8134157, 38.0813109], [-119.8134452, 38.0813362], [-119.8135015, 38.0813151], [-119.8135096, 38.0812982], [-119.8135096, 38.0812222], [-119.8134989, 38.0811631], [-119.8134801, 38.0811272], [-119.8134747, 38.0810512], [-119.8134506, 38.0810597], [-119.8132977, 38.0812159], [-119.8132467, 38.081256], [-119.8131582, 38.0813616], [-119.8130563, 38.0814418], [-119.8129329, 38.081598], [-119.8129168, 38.0816128], [-119.8128498, 38.0816381], [-119.8128364, 38.0816508], [-119.8128283, 38.0816698], [-119.8128364, 38.0816867], [-119.8129007, 38.0816825], [-119.8129141, 38.0816952], [-119.8129034, 38.081788], [-119.8129168, 38.0818282], [-119.8129329, 38.0818408], [-119.8129758, 38.0818493], [-119.8130134, 38.0818303], [-119.8130187, 38.0818113], [-119.813, 38.0817775]], [[-119.8129825, 38.0840587], [-119.813008, 38.0840682], [-119.8130348, 38.0840977], [-119.8130563, 38.0841019], [-119.8130684, 38.0840998], [-119.813071, 38.0840903], [-119.8130697, 38.0840101], [-119.8130456, 38.0840038], [-119.8129691, 38.0839932], [-119.8129115, 38.0839932], [-119.8128431, 38.0840259], [-119.8128417, 38.0840449], [-119.8128632, 38.0840629], [-119.8129825, 38.0840587]], [[-119.8129772, 38.0851396], [-119.8129785, 38.0851902], [-119.8129973, 38.0852019], [-119.8130094, 38.0851997], [-119.8130965, 38.0851617], [-119.8131461, 38.0851565], [-119.8131931, 38.0851332], [-119.8132561, 38.0851311], [-119.8133057, 38.0851776], [-119.8133366, 38.0851966], [-119.8133621, 38.0852008], [-119.8134117, 38.0851934], [-119.813468, 38.0851712], [-119.8135632, 38.0850942], [-119.8135619, 38.0850699], [-119.8135391, 38.0850678], [-119.8134626, 38.0851058], [-119.8134144, 38.085109], [-119.8133942, 38.0851016], [-119.8133782, 38.0850836], [-119.8133808, 38.0850646], [-119.8134814, 38.0849992], [-119.8135538, 38.084977], [-119.8135954, 38.0849359], [-119.8135994, 38.0849084], [-119.813586, 38.0848936], [-119.8135136, 38.0848905], [-119.8135002, 38.08492], [-119.8134023, 38.0849264], [-119.8133728, 38.0849686], [-119.8133272, 38.0849876], [-119.8132789, 38.0849897], [-119.8132588, 38.0849834], [-119.8132521, 38.0849454], [-119.813236, 38.0849348], [-119.8132052, 38.0849432], [-119.8132011, 38.0849707], [-119.8130952, 38.0849781], [-119.8130898, 38.0849971], [-119.8130657, 38.0850129], [-119.813071, 38.0850404], [-119.8130308, 38.0850646], [-119.8130268, 38.0850826], [-119.8130067, 38.0851037], [-119.8130053, 38.0851237], [-119.8129772, 38.0851396]], [[-119.8130764, 38.0843817], [-119.8130228, 38.0844091], [-119.8130067, 38.0844239], [-119.813008, 38.0844429], [-119.8130402, 38.0844418], [-119.8131569, 38.0843975], [-119.8131596, 38.0843775], [-119.8131368, 38.0843669], [-119.8130764, 38.0843817]], [[-119.8131153, 38.084558], [-119.8131394, 38.0845622], [-119.8131716, 38.0846403], [-119.8131877, 38.084653], [-119.8132119, 38.0846593], [-119.8132896, 38.0846572], [-119.8133299, 38.0846361], [-119.8134345, 38.0846276], [-119.8134828, 38.0846171], [-119.8135686, 38.084577], [-119.8136196, 38.084539], [-119.8136893, 38.0845242], [-119.813759, 38.084501], [-119.8137778, 38.0844883], [-119.8137993, 38.0844693], [-119.813869, 38.084368], [-119.8139173, 38.0843257], [-119.8139173, 38.0843067], [-119.8139012, 38.0842941], [-119.8138368, 38.0842877], [-119.8138341, 38.0842687], [-119.8138583, 38.0842371], [-119.8138583, 38.0842202], [-119.8138449, 38.0842033], [-119.8137832, 38.0841779], [-119.8137188, 38.0841716], [-119.8136571, 38.0841906], [-119.8135632, 38.0842434], [-119.8134291, 38.0842772], [-119.8133889, 38.0843004], [-119.8132306, 38.0843046], [-119.8131877, 38.0843194], [-119.8132038, 38.0843363], [-119.813228, 38.0843426], [-119.813236, 38.0843616], [-119.8131502, 38.0844207], [-119.8131394, 38.0844397], [-119.8131448, 38.084501], [-119.8130322, 38.0845664], [-119.8130509, 38.0845791], [-119.8131153, 38.084558]], [[-119.8131488, 38.0853], [-119.8132414, 38.0852937], [-119.8132722, 38.085281], [-119.8132762, 38.0852726], [-119.8132722, 38.0852631], [-119.8132199, 38.0852589], [-119.8131877, 38.0852462], [-119.8131153, 38.0852958], [-119.8131166, 38.0853053], [-119.8131274, 38.0853085], [-119.8131488, 38.0853]], [[-119.8131368, 38.0818113], [-119.813126, 38.0818282], [-119.8131233, 38.0818809], [-119.8131394, 38.0818894], [-119.813185, 38.0818746], [-119.8132038, 38.0818366], [-119.8132038, 38.0817902], [-119.813177, 38.0817902], [-119.8131368, 38.0818113]], [[-119.813185, 38.0808105], [-119.8132065, 38.0808126], [-119.8132575, 38.0807768], [-119.8133004, 38.0807324], [-119.8133299, 38.0806796], [-119.8133674, 38.0806564], [-119.8134318, 38.0806311], [-119.8134425, 38.0805994], [-119.8134157, 38.0805635], [-119.8134479, 38.0805403], [-119.8135284, 38.080515], [-119.8135418, 38.0805023], [-119.8135445, 38.0804833], [-119.8135176, 38.080477], [-119.8134908, 38.0804833], [-119.8134452, 38.0805065], [-119.8133969, 38.0805192], [-119.8133943, 38.0804981], [-119.8134103, 38.0804601], [-119.8134425, 38.0804284], [-119.8135418, 38.0803925], [-119.8136035, 38.0803397], [-119.8136249, 38.080308], [-119.8136303, 38.08027], [-119.8136061, 38.0802342], [-119.8135874, 38.0802215], [-119.8135284, 38.0802215], [-119.8134854, 38.0802869], [-119.8134345, 38.0802933], [-119.8134157, 38.0803059], [-119.8133996, 38.0803418], [-119.8133567, 38.0803587], [-119.8133326, 38.0803904], [-119.8133326, 38.0804094], [-119.8133594, 38.0804347], [-119.8133594, 38.0805445], [-119.8132601, 38.0806712], [-119.813244, 38.0806817], [-119.8131958, 38.0806902], [-119.8131824, 38.080705], [-119.8131716, 38.0807219], [-119.8131689, 38.0807578], [-119.813185, 38.0808105]], [[-119.8132655, 38.0819274], [-119.8131904, 38.0819992], [-119.8132011, 38.0820118], [-119.8132467, 38.082014], [-119.8136115, 38.0818915], [-119.8136249, 38.0818788], [-119.8136061, 38.0818049], [-119.8135391, 38.0817754], [-119.813464, 38.0817712], [-119.8134452, 38.0817564], [-119.8134425, 38.0817374], [-119.8135418, 38.0816867], [-119.8136035, 38.0816297], [-119.813641, 38.0815811], [-119.8136464, 38.0815621], [-119.8136491, 38.0815431], [-119.8136303, 38.0815305], [-119.8135901, 38.0815516], [-119.8135069, 38.0816381], [-119.8133943, 38.0817078], [-119.8133835, 38.0817437], [-119.8134077, 38.0817965], [-119.813405, 38.0818303], [-119.8133808, 38.0818598], [-119.8132655, 38.0819274]], [[-119.8132414, 38.0802584], [-119.8132628, 38.0802605], [-119.8133017, 38.0802447], [-119.813299, 38.0802151], [-119.8132762, 38.0802035], [-119.8132508, 38.0802067], [-119.8132212, 38.0802278], [-119.8132239, 38.0802458], [-119.8132414, 38.0802584]], [[-119.813354, 38.0807556], [-119.8133594, 38.0807936], [-119.8134264, 38.0807936], [-119.8135605, 38.0807704], [-119.8135901, 38.080743], [-119.8135954, 38.0807261], [-119.813582, 38.0806691], [-119.8135605, 38.0806416], [-119.8135364, 38.0806416], [-119.8134157, 38.0807007], [-119.8133621, 38.0807387], [-119.813354, 38.0807556]], [[-119.8135619, 38.0805477], [-119.8135445, 38.080572], [-119.8134828, 38.0806226], [-119.8134828, 38.0806332], [-119.8135149, 38.0806311], [-119.8136209, 38.0806005], [-119.8136222, 38.0805825], [-119.8136088, 38.0805561], [-119.813574, 38.0805445], [-119.8135619, 38.0805477]], [[-119.8136115, 38.0814165], [-119.8136652, 38.0813785], [-119.8137322, 38.0813489], [-119.8137215, 38.081332], [-119.8136759, 38.0813215], [-119.813633, 38.0813405], [-119.8136008, 38.0813362], [-119.8136035, 38.0813172], [-119.8136222, 38.0813025], [-119.8136276, 38.0812835], [-119.8136008, 38.0812518], [-119.8136088, 38.0812349], [-119.8136598, 38.081199], [-119.8136598, 38.08118], [-119.8136491, 38.0811631], [-119.8136249, 38.0811589], [-119.8135901, 38.0811821], [-119.8135793, 38.081275], [-119.8135579, 38.0813468], [-119.8135203, 38.0814291], [-119.8135284, 38.081446], [-119.8136115, 38.0814165]], [[-119.8139414, 38.081009], [-119.8139548, 38.0809963], [-119.8139468, 38.0809351], [-119.81392, 38.0809034], [-119.8138878, 38.0808844], [-119.81381, 38.0808887], [-119.8137671, 38.080914], [-119.8137349, 38.0809625], [-119.8136812, 38.0809689], [-119.8136544, 38.0809647], [-119.8136356, 38.0809731], [-119.8135954, 38.0810364], [-119.8135954, 38.0810934], [-119.8136169, 38.081104], [-119.8136437, 38.0810744], [-119.8136893, 38.0810723], [-119.8137537, 38.0810512], [-119.8138449, 38.0810491], [-119.8139414, 38.081009]], [[-119.8138556, 38.0807831], [-119.8137657, 38.0806596], [-119.8137376, 38.0806005], [-119.8137389, 38.0804938], [-119.8137335, 38.0804833], [-119.8137094, 38.0804843], [-119.8136893, 38.0805065], [-119.8136745, 38.0805413], [-119.8136839, 38.0806015], [-119.8136665, 38.0806364], [-119.8136611, 38.0806944], [-119.8136424, 38.0807282], [-119.8136397, 38.0807683], [-119.813645, 38.0807768], [-119.8136772, 38.0807736], [-119.8137027, 38.0808327], [-119.8137228, 38.0808464], [-119.8137456, 38.0808464], [-119.8137926, 38.080838], [-119.8138422, 38.0808148], [-119.8138529, 38.0808063], [-119.8138556, 38.0807831]], [[-119.8137268, 38.0801687], [-119.8137322, 38.0801856], [-119.8137751, 38.0801898], [-119.813877, 38.0801729], [-119.8139575, 38.0801349], [-119.8141024, 38.079985], [-119.8141372, 38.0799618], [-119.8141211, 38.079928], [-119.8141024, 38.0799153], [-119.8140514, 38.0799069], [-119.8140326, 38.0798963], [-119.8139924, 38.0798478], [-119.8139682, 38.0798393], [-119.8139414, 38.0798436], [-119.8138797, 38.0799048], [-119.8138797, 38.0800019], [-119.8138744, 38.080023], [-119.8138583, 38.0800378], [-119.8138368, 38.0800294], [-119.8137671, 38.079966], [-119.8137295, 38.0799428], [-119.8137027, 38.0799407], [-119.8136544, 38.0799512], [-119.813641, 38.079966], [-119.813641, 38.079985], [-119.8137376, 38.0800758], [-119.8137429, 38.0801117], [-119.8137268, 38.0801687]], [[-119.8139307, 38.0849105], [-119.813924, 38.0848915], [-119.8138864, 38.0848957], [-119.8138154, 38.0849232], [-119.813759, 38.0849717], [-119.8137429, 38.0850002], [-119.8137443, 38.0850309], [-119.8137523, 38.0850372], [-119.8138542, 38.0850024], [-119.8139307, 38.0849105]], [[-119.8138006, 38.0803914], [-119.8137751, 38.0804083], [-119.8137845, 38.0804326], [-119.81381, 38.0804453], [-119.8138529, 38.0804316], [-119.8138449, 38.0804136], [-119.8138234, 38.0803967], [-119.8138006, 38.0803914]], [[-119.8138449, 38.0811462], [-119.8138757, 38.0811325], [-119.8138851, 38.0811114], [-119.8138811, 38.0811019], [-119.8138583, 38.0810987], [-119.8138154, 38.0811198], [-119.81381, 38.0811346], [-119.8138234, 38.0811462], [-119.8138449, 38.0811462]], [[-119.8144001, 38.0809689], [-119.8143867, 38.080933], [-119.8143652, 38.0809267], [-119.814325, 38.0809435], [-119.8142365, 38.0810702], [-119.8141265, 38.0811885], [-119.8140755, 38.0812581], [-119.8140541, 38.0812687], [-119.813987, 38.0812729], [-119.8139307, 38.0813109], [-119.8138556, 38.0814038], [-119.8138502, 38.0814228], [-119.8138583, 38.0814418], [-119.8139361, 38.0815284], [-119.8139897, 38.0815326], [-119.8140138, 38.081522], [-119.8140594, 38.0814545], [-119.8141372, 38.0814376], [-119.8142043, 38.0813827], [-119.8142311, 38.0813785], [-119.8143008, 38.0813869], [-119.814325, 38.0813785], [-119.8143759, 38.0813362], [-119.8143867, 38.0812982], [-119.8143867, 38.0812433], [-119.8144001, 38.0812096], [-119.814384, 38.0811589], [-119.8144028, 38.0810892], [-119.8143572, 38.0810512], [-119.8143974, 38.0809879], [-119.8144001, 38.0809689]], [[-119.8140004, 38.080725], [-119.8140138, 38.080706], [-119.8140112, 38.0806955], [-119.8139401, 38.0806532], [-119.8139173, 38.0806575], [-119.8138972, 38.080743], [-119.81392, 38.0807673], [-119.8139535, 38.080762], [-119.8140004, 38.080725]], [[-119.8140474, 38.0806554], [-119.8140608, 38.0806817], [-119.8141037, 38.0806912], [-119.8141305, 38.0806722], [-119.8141265, 38.0806416], [-119.8140903, 38.080591], [-119.8140648, 38.0805783], [-119.8140273, 38.0805245], [-119.8139964, 38.0805076], [-119.8139763, 38.0804812], [-119.8139521, 38.0804769], [-119.8139414, 38.0804822], [-119.8139441, 38.0805297], [-119.8139763, 38.0805878], [-119.8140474, 38.0806554]], [[-119.8139991, 38.0803672], [-119.8140313, 38.0803936], [-119.8140742, 38.0803957], [-119.8140809, 38.0803893], [-119.8140688, 38.0803651], [-119.8140259, 38.0803207], [-119.8139897, 38.0803112], [-119.8139884, 38.0803387], [-119.8139991, 38.0803672]], [[-119.8140541, 38.0822947], [-119.8140299, 38.0823285], [-119.8140085, 38.0824531], [-119.8140246, 38.0824658], [-119.814046, 38.0824658], [-119.8141801, 38.0824404], [-119.8143759, 38.0823792], [-119.8143518, 38.0823518], [-119.8142687, 38.0823137], [-119.8142445, 38.0822821], [-119.8142231, 38.0822715], [-119.814097, 38.0822779], [-119.8140541, 38.0822947]], [[-119.8140541, 38.0822335], [-119.8140702, 38.0822462], [-119.8140916, 38.0822462], [-119.8141158, 38.082242], [-119.8142096, 38.0821955], [-119.8142552, 38.0821871], [-119.8142901, 38.0821681], [-119.814333, 38.0821681], [-119.8143947, 38.082185], [-119.814443, 38.0821807], [-119.8144993, 38.0821005], [-119.814494, 38.0820583], [-119.8144725, 38.0820477], [-119.8144215, 38.0820477], [-119.8143733, 38.0820583], [-119.8143438, 38.0820836], [-119.8142579, 38.082128], [-119.8141587, 38.0821406], [-119.8141131, 38.0821554], [-119.8140568, 38.0821829], [-119.8140433, 38.0821976], [-119.8140541, 38.0822335]], [[-119.8140715, 38.0802996], [-119.8140903, 38.0803197], [-119.8141037, 38.0803218], [-119.8141252, 38.0803123], [-119.8141305, 38.0802743], [-119.8141775, 38.0802236], [-119.8142003, 38.0801814], [-119.8142016, 38.0801592], [-119.8141868, 38.0801444], [-119.8141573, 38.0801603], [-119.8141238, 38.0802173], [-119.8140809, 38.0802373], [-119.8140876, 38.0802648], [-119.8140715, 38.0802996]], [[-119.8142767, 38.0820794], [-119.8143545, 38.0820161], [-119.8144564, 38.0819844], [-119.8144832, 38.0819337], [-119.8145154, 38.0819063], [-119.8146817, 38.0818028], [-119.8146442, 38.0817416], [-119.8146227, 38.0817289], [-119.8145986, 38.081731], [-119.8145074, 38.081807], [-119.8144859, 38.0818176], [-119.8144349, 38.0818134], [-119.814325, 38.0818873], [-119.8142552, 38.0819063], [-119.8142096, 38.0819717], [-119.8141989, 38.0820266], [-119.8141989, 38.0820646], [-119.814207, 38.0820794], [-119.8142767, 38.0820794]], [[-119.8143357, 38.080838], [-119.8143223, 38.0808232], [-119.8142847, 38.0807958], [-119.8142606, 38.0807873], [-119.8142365, 38.0807936], [-119.8142204, 38.0808865], [-119.8142016, 38.0809182], [-119.814215, 38.0809604], [-119.8142391, 38.0809583], [-119.8142767, 38.0809372], [-119.8143384, 38.080857], [-119.8143357, 38.080838]], [[-119.8142821, 38.0806163], [-119.8142673, 38.08063], [-119.81427, 38.0806585], [-119.8142767, 38.0806649], [-119.8143116, 38.0806649], [-119.8143263, 38.0806511], [-119.8143303, 38.08063], [-119.8143075, 38.080611], [-119.8142821, 38.0806163]], [[-119.8143384, 38.079852], [-119.8143813, 38.0798436], [-119.8144323, 38.0798098], [-119.8144189, 38.0797317], [-119.8144215, 38.0796937], [-119.8144296, 38.0796747], [-119.8145288, 38.0795649], [-119.8146442, 38.0795628], [-119.8146656, 38.0795564], [-119.814679, 38.0795205], [-119.814671, 38.0794614], [-119.8146495, 38.0794487], [-119.8146227, 38.0794509], [-119.8145878, 38.0794741], [-119.8145369, 38.0794783], [-119.8144966, 38.0794509], [-119.8144457, 38.0794361], [-119.8144215, 38.0794445], [-119.814392, 38.0794677], [-119.8143545, 38.0795163], [-119.8143411, 38.0796071], [-119.8142955, 38.0796937], [-119.8142982, 38.0797317], [-119.8143223, 38.0797844], [-119.8143169, 38.0798224], [-119.8143223, 38.0798415], [-119.8143384, 38.079852]], [[-119.8143236, 38.0800906], [-119.8144108, 38.0800937], [-119.8144457, 38.0800758], [-119.8144457, 38.0800557], [-119.8144242, 38.0800462], [-119.8143907, 38.0800135], [-119.8143786, 38.0799903], [-119.8143438, 38.0799977], [-119.8143183, 38.0800589], [-119.8143236, 38.0800906]], [[-119.8145422, 38.0813426], [-119.8145717, 38.0812708], [-119.8146951, 38.081161], [-119.8147166, 38.0811272], [-119.8147327, 38.0810491], [-119.8148614, 38.0809224], [-119.8148426, 38.0808802], [-119.8148051, 38.0808295], [-119.8147246, 38.0807578], [-119.8146978, 38.0807535], [-119.8146763, 38.0807599], [-119.8146254, 38.0807979], [-119.8145932, 38.0808718], [-119.8145422, 38.0809351], [-119.8145422, 38.080952], [-119.8145771, 38.0810195], [-119.8145691, 38.0811209], [-119.8145556, 38.0811336], [-119.8145342, 38.0811272], [-119.8145181, 38.0811103], [-119.814494, 38.0811167], [-119.8144671, 38.0811673], [-119.8144671, 38.0812011], [-119.8144966, 38.0812222], [-119.814443, 38.0812813], [-119.8143813, 38.0813827], [-119.8143625, 38.0813996], [-119.8143545, 38.0814186], [-119.8143652, 38.0814545], [-119.8143813, 38.0814629], [-119.8144296, 38.0814629], [-119.814494, 38.0814418], [-119.8145101, 38.0814291], [-119.8145396, 38.0813806], [-119.8145422, 38.0813426]], [[-119.8144349, 38.0801856], [-119.8143987, 38.0801951], [-119.8143652, 38.0802405], [-119.8143652, 38.0802711], [-119.8143853, 38.0802922], [-119.8144189, 38.0802838], [-119.8144403, 38.0802046], [-119.8144349, 38.0801856]], [[-119.8145342, 38.0804495], [-119.81451, 38.0804052], [-119.8145637, 38.080269], [-119.8145624, 38.0802394], [-119.8145463, 38.0802004], [-119.8145221, 38.0801993], [-119.8144966, 38.0802542], [-119.814494, 38.0803334], [-119.8144175, 38.0804791], [-119.8144162, 38.0805076], [-119.8144309, 38.0805192], [-119.814494, 38.0805139], [-119.8145355, 38.080497], [-119.8145342, 38.0804495]], [[-119.8145624, 38.0798636], [-119.8145784, 38.0798151], [-119.8145959, 38.0798024], [-119.8146227, 38.0797929], [-119.8146978, 38.0797887], [-119.8147085, 38.0797728], [-119.8146898, 38.0796831], [-119.8146898, 38.0796546], [-119.8147327, 38.0796008], [-119.8147246, 38.0795828], [-119.8147126, 38.0795786], [-119.8146442, 38.0796345], [-119.8146106, 38.0797169], [-119.8145878, 38.0797391], [-119.8144899, 38.0797823], [-119.8144604, 38.0798056], [-119.8144417, 38.0798414], [-119.8144604, 38.0798868], [-119.814498, 38.0798911], [-119.8145489, 38.0798784], [-119.8145624, 38.0798636]], [[-119.8147729, 38.0802975], [-119.8147716, 38.0802679], [-119.8147474, 38.0802447], [-119.8147206, 38.0802331], [-119.8147072, 38.0802289], [-119.8146737, 38.0802363], [-119.8146576, 38.0802785], [-119.8146562, 38.0803439], [-119.8146683, 38.0803819], [-119.8146924, 38.0804009], [-119.8147219, 38.0803872], [-119.81473, 38.0803292], [-119.8147729, 38.0802975]], [[-119.814781, 38.0801771], [-119.8147836, 38.0802152], [-119.814797, 38.0802299], [-119.8148668, 38.0801856], [-119.8148775, 38.0801687], [-119.8148829, 38.0800927], [-119.8149285, 38.0799892], [-119.8148936, 38.0799407], [-119.8148748, 38.0799301], [-119.8148024, 38.0799196], [-119.8148051, 38.0798773], [-119.8148346, 38.0798288], [-119.8148346, 38.0798077], [-119.8148292, 38.0797887], [-119.8147997, 38.0797591], [-119.8147729, 38.0797591], [-119.8147407, 38.0797866], [-119.8147112, 38.0799196], [-119.8147085, 38.0799702], [-119.8147166, 38.0800294], [-119.81473, 38.0800441], [-119.814781, 38.0800716], [-119.814789, 38.0800885], [-119.814781, 38.0801771]], [[-119.8148105, 38.0803925], [-119.8147273, 38.0804643], [-119.8147085, 38.0805023], [-119.8147219, 38.0805171], [-119.8147461, 38.0805171], [-119.8147729, 38.0805128], [-119.8147917, 38.0804981], [-119.8148131, 38.0804938], [-119.8148373, 38.0805044], [-119.8148426, 38.0805424], [-119.8148212, 38.0805783], [-119.8148158, 38.0806057], [-119.8148266, 38.0806226], [-119.8148748, 38.0806184], [-119.8149365, 38.0805698], [-119.8149312, 38.0804917], [-119.8149204, 38.0804579], [-119.8148909, 38.0804326], [-119.8148936, 38.0803777], [-119.8148721, 38.0803714], [-119.8148266, 38.0803819], [-119.8148105, 38.0803925]], [[-119.8147461, 38.0788829], [-119.8147541, 38.0788977], [-119.8147756, 38.0788977], [-119.814907, 38.0788618], [-119.8149473, 38.0788428], [-119.8149902, 38.0788006], [-119.8150679, 38.0787436], [-119.8150545, 38.0787267], [-119.8149285, 38.0787415], [-119.8148587, 38.0787626], [-119.8147997, 38.0787985], [-119.8147568, 38.078847], [-119.8147461, 38.0788829]], [[-119.8147622, 38.079567], [-119.814793, 38.0795796], [-119.8147662, 38.0796356], [-119.8147729, 38.0796546], [-119.8147957, 38.0796462], [-119.8148534, 38.0795754], [-119.8148748, 38.0795649], [-119.8149258, 38.0794414], [-119.8149419, 38.0794287], [-119.8149861, 38.0794192], [-119.8150076, 38.0793981], [-119.815076, 38.079282], [-119.8151431, 38.079207], [-119.8151431, 38.0791975], [-119.8151001, 38.0792144], [-119.8150586, 38.0792471], [-119.8149955, 38.079321], [-119.814785, 38.0795068], [-119.8147622, 38.0795469], [-119.8147622, 38.079567]], [[-119.8150089, 38.0790391], [-119.8150063, 38.0790201], [-119.8149875, 38.0790075], [-119.8149365, 38.0790117], [-119.8148936, 38.0790286], [-119.8148346, 38.0790856], [-119.8148105, 38.0791299], [-119.8148185, 38.0791468], [-119.8148373, 38.079151], [-119.814899, 38.0791342], [-119.8149875, 38.0790729], [-119.8150089, 38.0790391]], [[-119.8148695, 38.0793105], [-119.8148386, 38.0793379], [-119.814844, 38.0793643], [-119.8148789, 38.0793622], [-119.8149057, 38.0793495], [-119.8149405, 38.0793083], [-119.8149151, 38.0792598], [-119.8148909, 38.0792577], [-119.8148708, 38.0792798], [-119.8148695, 38.0793105]], [[-119.8150197, 38.0812771], [-119.8149365, 38.0813869], [-119.8149258, 38.0814207], [-119.8149419, 38.0814312], [-119.815025, 38.0813954], [-119.8151028, 38.0813362], [-119.8151377, 38.0812961], [-119.8151431, 38.081275], [-119.8151404, 38.0812539], [-119.8151243, 38.0812391], [-119.8151001, 38.0812328], [-119.815076, 38.0812391], [-119.8150197, 38.0812771]], [[-119.8151028, 38.0799914], [-119.815194, 38.0798436], [-119.8151913, 38.0798034], [-119.8151565, 38.0797802], [-119.8151296, 38.0797486], [-119.815127, 38.0796915], [-119.8151404, 38.0796535], [-119.8151645, 38.0796219], [-119.8152047, 38.079605], [-119.8152503, 38.0796071], [-119.8153093, 38.0796514], [-119.8153764, 38.079643], [-119.8153979, 38.0796113], [-119.8154569, 38.0795564], [-119.8154622, 38.0795374], [-119.8154596, 38.0794973], [-119.8154354, 38.0794382], [-119.8154354, 38.079358], [-119.8154515, 38.0792988], [-119.8154461, 38.0792376], [-119.81543, 38.0792228], [-119.815363, 38.0792397], [-119.8153093, 38.0792355], [-119.8152879, 38.0792249], [-119.8152879, 38.0792038], [-119.8153093, 38.0791532], [-119.8153093, 38.0791109], [-119.8152959, 38.0790919], [-119.8152611, 38.0791173], [-119.8152208, 38.0792292], [-119.8151431, 38.079301], [-119.8150331, 38.0795058], [-119.8150331, 38.0795438], [-119.8150465, 38.0795775], [-119.8150331, 38.0797654], [-119.8150653, 38.0798288], [-119.8150572, 38.0799238], [-119.8150599, 38.0799998], [-119.8150706, 38.0800167], [-119.8151028, 38.0799914]], [[-119.815072, 38.0789864], [-119.815076, 38.0790043], [-119.8151068, 38.0790159], [-119.8151739, 38.079017], [-119.8151954, 38.0789959], [-119.81519, 38.0789758], [-119.8151457, 38.0789209], [-119.8151216, 38.0789135], [-119.8150907, 38.0789462], [-119.815072, 38.0789864]], [[-119.8151149, 38.0791215], [-119.8151042, 38.0791278], [-119.8150881, 38.079151], [-119.8150894, 38.0791912], [-119.8151095, 38.079188], [-119.8151672, 38.0791426], [-119.8151538, 38.0791225], [-119.8151149, 38.0791215]], [[-119.8153764, 38.081731], [-119.8153496, 38.0817289], [-119.815304, 38.0817374], [-119.8152638, 38.0817585], [-119.8152235, 38.081807], [-119.8152208, 38.0818472], [-119.8152584, 38.0818641], [-119.8153228, 38.0818619], [-119.8154408, 38.0818451], [-119.8154783, 38.0818261], [-119.815481, 38.081807], [-119.8154435, 38.0817606], [-119.8153764, 38.081731]], [[-119.8154944, 38.07879], [-119.8154676, 38.0787921], [-119.8154166, 38.0787879], [-119.8153764, 38.0787626], [-119.815312, 38.0787436], [-119.8152852, 38.0787478], [-119.8152611, 38.0787626], [-119.8152611, 38.0787795], [-119.8153067, 38.0788365], [-119.8154381, 38.078866], [-119.815473, 38.0788914], [-119.8154944, 38.0789209], [-119.8155615, 38.0789082], [-119.815658, 38.0788196], [-119.815717, 38.0787816], [-119.8157331, 38.0787478], [-119.8157224, 38.0787309], [-119.8156983, 38.078733], [-119.8156044, 38.078752], [-119.8154944, 38.07879]], [[-119.8154166, 38.0821322], [-119.815414, 38.0820921], [-119.8153737, 38.0820266], [-119.8153496, 38.0820161], [-119.815312, 38.0820372], [-119.8152825, 38.082109], [-119.8152906, 38.082147], [-119.8154059, 38.0821491], [-119.8154166, 38.0821322]], [[-119.8156004, 38.0774514], [-119.8155735, 38.0774651], [-119.815532, 38.0775348], [-119.8155159, 38.0775475], [-119.8154743, 38.0775612], [-119.81543, 38.077614], [-119.8154059, 38.0776668], [-119.8154113, 38.0776858], [-119.8154233, 38.0776889], [-119.8154877, 38.0776847], [-119.8156004, 38.0776583], [-119.8156326, 38.0776435], [-119.8156419, 38.0776267], [-119.8156272, 38.0775929], [-119.8156527, 38.0775369], [-119.8156513, 38.0774894], [-119.8156379, 38.0774641], [-119.8156218, 38.0774535], [-119.8156004, 38.0774514]], [[-119.8154622, 38.0819295], [-119.8154394, 38.0819612], [-119.8154394, 38.0820161], [-119.8154488, 38.0820203], [-119.8154917, 38.0820097], [-119.8155065, 38.081996], [-119.8154864, 38.0819327], [-119.8154622, 38.0819295]]]]}, "properties": {"id": "many_island_lake", "name": "Many Island Lake", "osm": ["relation/14125319"], "found_by": "name", "area_km2": 0.2197}}]}