{"type": "FeatureCollection", "features": [{"type": "Feature", "geometry": {"type": "MultiPolygon", "coordinates": [[[[-119.1357341, 37.9795603], [-119.1357942, 37.9797966], [-119.1360333, 37.9799901], [-119.1360293, 37.9801972], [-119.1361749, 37.9803161], [-119.1363945, 37.9804514], [-119.1365402, 37.9806582], [-119.1367881, 37.9807288], [-119.1370875, 37.9811284], [-119.1370983, 37.9813212], [-119.1372454, 37.9813351], [-119.1377626, 37.9820832], [-119.138186, 37.9830882], [-119.1383943, 37.9839154], [-119.1383255, 37.9841323], [-119.1383855, 37.9845137], [-119.1382985, 37.9849613], [-119.1384206, 37.9858513], [-119.1385794, 37.9862327], [-119.1386878, 37.9865139], [-119.1387368, 37.986886], [-119.1389082, 37.9869977], [-119.1391792, 37.9882093], [-119.1392765, 37.9888041], [-119.1392584, 37.9894403], [-119.1392277, 37.9897269], [-119.139209, 37.9900301], [-119.1390976, 37.9903105], [-119.1391767, 37.9904608], [-119.1391494, 37.9905425], [-119.1392555, 37.9906433], [-119.1392893, 37.9908006], [-119.1394265, 37.990942], [-119.1394942, 37.9910765], [-119.1395345, 37.9912659], [-119.1395877, 37.991478], [-119.1396122, 37.9916744], [-119.1396964, 37.9918657], [-119.1397218, 37.9920771], [-119.1396762, 37.9922237], [-119.1396468, 37.9923094], [-119.1396061, 37.9923774], [-119.1395287, 37.9923579], [-119.1394147, 37.9924238], [-119.1393361, 37.9924633], [-119.1393674, 37.9924997], [-119.1392668, 37.9925293], [-119.1392199, 37.9925765], [-119.1392373, 37.9926021], [-119.1392718, 37.9926221], [-119.1393025, 37.992592], [-119.1393634, 37.9926139], [-119.1393711, 37.9925668], [-119.1393774, 37.992516], [-119.1394163, 37.9925091], [-119.1394222, 37.9924609], [-119.1394412, 37.9924407], [-119.1394865, 37.9924394], [-119.1395375, 37.9924494], [-119.139542, 37.9925021], [-119.1394838, 37.9925527], [-119.1394342, 37.9925952], [-119.139503, 37.9926023], [-119.1395487, 37.992609], [-119.1395755, 37.9925844], [-119.1396233, 37.9925741], [-119.1396463, 37.9925411], [-119.1396921, 37.9925149], [-119.13973, 37.9924804], [-119.1397531, 37.9924194], [-119.1398132, 37.9924267], [-119.139885, 37.9923543], [-119.1401131, 37.9923727], [-119.1404663, 37.9924575], [-119.1407228, 37.992544], [-119.1410499, 37.9926469], [-119.1411904, 37.9927435], [-119.1413661, 37.9927966], [-119.1415493, 37.992865], [-119.1416882, 37.9929681], [-119.1418347, 37.9930226], [-119.1419004, 37.9931399], [-119.1420128, 37.9931919], [-119.1421871, 37.9932736], [-119.1422863, 37.993375], [-119.1424231, 37.9934503], [-119.1425642, 37.9935825], [-119.1426643, 37.9937476], [-119.1427945, 37.9939221], [-119.1428936, 37.9941614], [-119.1429883, 37.9942859], [-119.1430735, 37.9943649], [-119.1431011, 37.9945065], [-119.1431648, 37.9947312], [-119.1432265, 37.9949856], [-119.1432697, 37.9951741], [-119.1433039, 37.9953958], [-119.1433195, 37.9954798], [-119.1433416, 37.9956215], [-119.1433708, 37.9956828], [-119.1433959, 37.9958714], [-119.1433667, 37.9959638], [-119.1434232, 37.9960864], [-119.1434699, 37.9961204], [-119.1435113, 37.9962004], [-119.1435863, 37.9962582], [-119.143625, 37.9963849], [-119.1437085, 37.9965077], [-119.1437648, 37.99664], [-119.1438076, 37.9966548], [-119.143885, 37.9968191], [-119.1440693, 37.997192], [-119.1441195, 37.9971897], [-119.1441403, 37.9973053], [-119.1441929, 37.997318], [-119.1442177, 37.9974205], [-119.1443555, 37.9975871], [-119.1445012, 37.9977244], [-119.1446459, 37.9979604], [-119.1446951, 37.998157], [-119.144778, 37.9983431], [-119.1449436, 37.9985408], [-119.1450667, 37.998849], [-119.1451005, 37.9990727], [-119.1451136, 37.9992531], [-119.1451119, 37.9994668], [-119.145139, 37.9995684], [-119.1450978, 37.9996074], [-119.1451711, 37.9996318], [-119.1451778, 37.9996629], [-119.1452543, 37.9996881], [-119.1452449, 37.999737], [-119.1452901, 37.9997212], [-119.1453147, 37.9998289], [-119.1453574, 37.999819], [-119.145521, 38.0000358], [-119.145517, 38.0001162], [-119.145632, 38.0001348], [-119.1457059, 38.0002599], [-119.1457308, 38.000342], [-119.1457875, 38.0004259], [-119.1457823, 38.0005133], [-119.1457478, 38.0006056], [-119.1457099, 38.0006595], [-119.1456631, 38.0007175], [-119.1456485, 38.0007695], [-119.1457015, 38.0007693], [-119.1457781, 38.000739], [-119.145867, 38.0007718], [-119.1459698, 38.0007976], [-119.146112, 38.000835], [-119.1462747, 38.0009682], [-119.1463916, 38.0010626], [-119.1464311, 38.0011402], [-119.1464558, 38.0013579], [-119.1464735, 38.0014596], [-119.1464338, 38.0016004], [-119.1464891, 38.0016488], [-119.1464935, 38.0018119], [-119.1466589, 38.0020116], [-119.1466921, 38.0021079], [-119.1467031, 38.0022255], [-119.1467987, 38.0023276], [-119.1467838, 38.0023811], [-119.1469561, 38.0023685], [-119.1471143, 38.0025061], [-119.1470836, 38.002538], [-119.146972, 38.0025406], [-119.1470183, 38.0025824], [-119.1471319, 38.0025639], [-119.1472055, 38.0026573], [-119.1471802, 38.0027156], [-119.1471054, 38.0027439], [-119.1471384, 38.0027872], [-119.1470858, 38.0028516], [-119.1472187, 38.0029159], [-119.1473839, 38.0032664], [-119.1472925, 38.0034073], [-119.1472211, 38.0034901], [-119.1472706, 38.0035481], [-119.1473923, 38.003489], [-119.1474036, 38.0035494], [-119.1473471, 38.0036011], [-119.1474505, 38.003711], [-119.1474624, 38.0038658], [-119.147322, 38.003992], [-119.1472964, 38.0041529], [-119.1472241, 38.0042236], [-119.1471989, 38.0043177], [-119.1473032, 38.0043975], [-119.1473132, 38.004502], [-119.1473977, 38.0045698], [-119.1473952, 38.0046468], [-119.1474759, 38.0047283], [-119.1474889, 38.0048922], [-119.1474493, 38.0050051], [-119.1474668, 38.0051104], [-119.1474346, 38.0052235], [-119.1475129, 38.0052846], [-119.147433, 38.0055537], [-119.1474399, 38.0056702], [-119.14726, 38.005873], [-119.1471371, 38.0064056], [-119.1471371, 38.0066391], [-119.1473177, 38.0067558], [-119.1474379, 38.0067007], [-119.1477883, 38.0069822], [-119.147961, 38.0069821], [-119.1481467, 38.0072539], [-119.1480891, 38.0074533], [-119.1483523, 38.0076349], [-119.1483971, 38.0078058], [-119.1485956, 38.0080321], [-119.1486726, 38.0082987], [-119.1487992, 38.0084481], [-119.1487625, 38.0086233], [-119.1488549, 38.0086617], [-119.1488162, 38.0087815], [-119.1488681, 38.0088529], [-119.1488178, 38.0090113], [-119.1488262, 38.0091727], [-119.1487551, 38.0093301], [-119.1486825, 38.0098053], [-119.1486017, 38.0101601], [-119.1484943, 38.0103102], [-119.1484787, 38.0106108], [-119.1483437, 38.0108598], [-119.1483234, 38.0110313], [-119.1480995, 38.0113826], [-119.1477932, 38.0117059], [-119.1476947, 38.0119517], [-119.1475784, 38.0120374], [-119.1472597, 38.0124088], [-119.1468367, 38.0127802], [-119.1466914, 38.012882], [-119.1462154, 38.0133794], [-119.1458399, 38.0135518], [-119.1455208, 38.0138261], [-119.1451955, 38.0140956], [-119.144783, 38.014535], [-119.1447022, 38.0145339], [-119.1443352, 38.0148337], [-119.1441908, 38.0148558], [-119.1440639, 38.0149439], [-119.1437883, 38.0150242], [-119.1437204, 38.0150894], [-119.1433321, 38.0151655], [-119.1432699, 38.0151227], [-119.1428301, 38.0151716], [-119.1427731, 38.015273], [-119.1425141, 38.0151487], [-119.1418569, 38.0150155], [-119.1416752, 38.0148054], [-119.1413809, 38.0146865], [-119.1410092, 38.0144572], [-119.1408237, 38.0142903], [-119.1407454, 38.0141847], [-119.1407387, 38.0140596], [-119.1405853, 38.0138542], [-119.1402519, 38.0135366], [-119.1399567, 38.0133597], [-119.1393262, 38.0132106], [-119.1387388, 38.0131561], [-119.1380657, 38.013138], [-119.137681, 38.0132321], [-119.1371432, 38.0132107], [-119.1364346, 38.0133999], [-119.1357399, 38.0134865], [-119.1350946, 38.0132778], [-119.1345589, 38.0130223], [-119.1341256, 38.0128945], [-119.1338024, 38.0128585], [-119.1332284, 38.01286], [-119.1328604, 38.0129312], [-119.1324145, 38.0131101], [-119.1318854, 38.0133921], [-119.1314941, 38.0135074], [-119.1309558, 38.0135276], [-119.1306275, 38.0135956], [-119.1300724, 38.013876], [-119.1294859, 38.0142215], [-119.1285952, 38.0146489], [-119.1275668, 38.0150664], [-119.1272157, 38.0152418], [-119.1268037, 38.0155279], [-119.1266352, 38.0155778], [-119.1265365, 38.0156673], [-119.1258207, 38.0158356], [-119.1255989, 38.0158922], [-119.1252453, 38.0160668], [-119.1251709, 38.0161836], [-119.125135, 38.0162889], [-119.1250279, 38.0164425], [-119.1248132, 38.0165758], [-119.1245905, 38.0166227], [-119.124201, 38.0166657], [-119.1238727, 38.0166905], [-119.123617, 38.0166684], [-119.1232754, 38.0165395], [-119.1231034, 38.0164217], [-119.1229736, 38.0163808], [-119.1226604, 38.016343], [-119.1220439, 38.016243], [-119.121407, 38.0163379], [-119.1205536, 38.0166187], [-119.1199221, 38.0165875], [-119.1195313, 38.0166748], [-119.1194586, 38.0167782], [-119.1194747, 38.016842], [-119.1195854, 38.0168877], [-119.1196041, 38.0168168], [-119.1195353, 38.0167493], [-119.1197648, 38.0166764], [-119.1197694, 38.0169573], [-119.1199403, 38.0170028], [-119.1198627, 38.0168942], [-119.1199127, 38.0167803], [-119.1201176, 38.0167038], [-119.1205275, 38.0167266], [-119.1207967, 38.0166687], [-119.1208762, 38.0168869], [-119.1207776, 38.0171134], [-119.120672, 38.0172289], [-119.1201954, 38.0174536], [-119.1198018, 38.0174753], [-119.1197552, 38.0176924], [-119.1195264, 38.0178248], [-119.1191141, 38.017921], [-119.1189324, 38.017859], [-119.1187027, 38.0179192], [-119.1183095, 38.0177938], [-119.1179184, 38.0180495], [-119.1178237, 38.0178617], [-119.1175641, 38.0177298], [-119.1173274, 38.0175145], [-119.117478, 38.017304], [-119.1176765, 38.0170473], [-119.1175338, 38.0168819], [-119.1171947, 38.016917], [-119.1170519, 38.0171924], [-119.1168526, 38.0174981], [-119.1162105, 38.0174877], [-119.1165172, 38.0177369], [-119.1160063, 38.0177127], [-119.1158117, 38.0174078], [-119.1159646, 38.0171124], [-119.1156967, 38.0171684], [-119.1156177, 38.0173261], [-119.1152673, 38.0174241], [-119.1151836, 38.0176364], [-119.1148797, 38.0177041], [-119.1145818, 38.0178822], [-119.1138834, 38.0179739], [-119.1134123, 38.0179145], [-119.1130386, 38.0179213], [-119.1126141, 38.0177903], [-119.1121763, 38.0178353], [-119.1116223, 38.0175697], [-119.1107846, 38.0173792], [-119.1105319, 38.0172224], [-119.1102212, 38.0172342], [-119.1089659, 38.0167274], [-119.1084373, 38.0163604], [-119.1077199, 38.016099], [-119.1070502, 38.0153977], [-119.1064905, 38.0153109], [-119.1061084, 38.015146], [-119.105107, 38.0150068], [-119.1034616, 38.0143694], [-119.1029457, 38.0141303], [-119.1023754, 38.0141661], [-119.1019049, 38.0140396], [-119.1015853, 38.0138083], [-119.100636, 38.0136365], [-119.0992049, 38.013835], [-119.0986566, 38.014174], [-119.0981706, 38.0142198], [-119.0977742, 38.0143742], [-119.0972376, 38.0143893], [-119.0968649, 38.0144988], [-119.0965837, 38.0144787], [-119.0961861, 38.0146319], [-119.0953317, 38.0148378], [-119.0945686, 38.0152311], [-119.0934703, 38.0156724], [-119.093257, 38.0159878], [-119.0919119, 38.0164457], [-119.0904873, 38.0173044], [-119.0897007, 38.0177492], [-119.088876, 38.0183453], [-119.0878542, 38.0189122], [-119.0872469, 38.0194503], [-119.0865891, 38.0197192], [-119.0855924, 38.0202816], [-119.0853145, 38.0208929], [-119.0844333, 38.0213266], [-119.083507, 38.0218505], [-119.0828976, 38.0221653], [-119.0828854, 38.0225857], [-119.0818792, 38.0232449], [-119.0815495, 38.0231744], [-119.0816477, 38.0235555], [-119.0822237, 38.0232427], [-119.0823838, 38.0236672], [-119.0816968, 38.0241877], [-119.0817396, 38.0245566], [-119.0806153, 38.0250291], [-119.0798384, 38.0257705], [-119.0791663, 38.0261327], [-119.0790312, 38.0265808], [-119.078697, 38.0270664], [-119.0780467, 38.0277257], [-119.0778444, 38.0282176], [-119.0769838, 38.0289494], [-119.0758508, 38.0307676], [-119.074998, 38.0320817], [-119.0744323, 38.0322115], [-119.0741189, 38.03303], [-119.0731839, 38.0337189], [-119.072816, 38.0344308], [-119.0719605, 38.0355651], [-119.0718242, 38.0364824], [-119.0713849, 38.0374782], [-119.0715003, 38.0386755], [-119.0713626, 38.0391805], [-119.0709586, 38.0392122], [-119.070976, 38.0395544], [-119.0714679, 38.0394288], [-119.0713848, 38.0399132], [-119.0710507, 38.0397906], [-119.0710299, 38.0396333], [-119.0707026, 38.0399002], [-119.0709847, 38.0401719], [-119.0709839, 38.0403695], [-119.0706848, 38.0403867], [-119.0710655, 38.0407936], [-119.0710242, 38.0411219], [-119.0708939, 38.0412332], [-119.0709567, 38.0414905], [-119.0706895, 38.0415423], [-119.0707266, 38.0412755], [-119.0705684, 38.0410316], [-119.070733, 38.0407705], [-119.0703948, 38.040904], [-119.0705259, 38.0417477], [-119.0702356, 38.0415517], [-119.0694985, 38.0418107], [-119.0694871, 38.0423659], [-119.0685572, 38.042399], [-119.0688743, 38.0427929], [-119.0681595, 38.0431707], [-119.068675, 38.0436591], [-119.0674894, 38.0438692], [-119.0673202, 38.0441785], [-119.068238, 38.0444693], [-119.0672018, 38.0446078], [-119.0679542, 38.0450106], [-119.0672068, 38.045178], [-119.0677838, 38.0454931], [-119.0670698, 38.0455417], [-119.0676289, 38.0462535], [-119.0674359, 38.0466288], [-119.0669491, 38.046936], [-119.0671509, 38.0475845], [-119.0666009, 38.0496252], [-119.0663251, 38.0520501], [-119.066466, 38.0525256], [-119.0661306, 38.0530246], [-119.066331, 38.0533808], [-119.0658249, 38.0551529], [-119.0651028, 38.0553939], [-119.0627148, 38.057011], [-119.0590769, 38.0585854], [-119.0573776, 38.0589213], [-119.055793, 38.0594822], [-119.0553118, 38.0594701], [-119.0518995, 38.0600016], [-119.0501435, 38.0604496], [-119.0484999, 38.0606274], [-119.0448704, 38.0614576], [-119.0412222, 38.0622092], [-119.0406407, 38.0621906], [-119.0401448, 38.0624689], [-119.0379648, 38.0626663], [-119.0368883, 38.0634645], [-119.0357475, 38.0637026], [-119.0349438, 38.0632482], [-119.0348366, 38.0635211], [-119.0347572, 38.0641952], [-119.0341208, 38.0645158], [-119.0337145, 38.064474], [-119.0338097, 38.0650341], [-119.0331897, 38.065057], [-119.0327662, 38.0660993], [-119.031962, 38.0663447], [-119.0314123, 38.0670693], [-119.0301062, 38.0681757], [-119.0291142, 38.0692001], [-119.0284765, 38.0693368], [-119.0279193, 38.0690427], [-119.0278471, 38.0693571], [-119.0276668, 38.0703341], [-119.0277084, 38.0706768], [-119.0280328, 38.070602], [-119.0282279, 38.0701181], [-119.0283583, 38.0696431], [-119.0289333, 38.0694573], [-119.0284888, 38.0701066], [-119.0280897, 38.07087], [-119.0278303, 38.0720283], [-119.0261888, 38.0729041], [-119.0239099, 38.0735465], [-119.0205128, 38.0740595], [-119.0160475, 38.0746171], [-119.0125975, 38.0748299], [-119.0103188, 38.0749343], [-119.0069689, 38.0749931], [-119.0035355, 38.0749757], [-119.0007306, 38.0749081], [-118.9994392, 38.0747963], [-118.9980817, 38.074711], [-118.9954009, 38.0744766], [-118.9909141, 38.0739929], [-118.9862482, 38.073317], [-118.9820131, 38.0725193], [-118.9780388, 38.0716875], [-118.9719354, 38.0699902], [-118.9658752, 38.067958], [-118.9631066, 38.0669691], [-118.9557697, 38.0640672], [-118.9483711, 38.0607421], [-118.9462657, 38.0596362], [-118.9436537, 38.0582163], [-118.9399366, 38.0560525], [-118.9375431, 38.0545814], [-118.9357417, 38.0534984], [-118.9337978, 38.0521313], [-118.9319085, 38.0507859], [-118.930633, 38.0498443], [-118.9306024, 38.0495315], [-118.9292975, 38.0484611], [-118.9276953, 38.047242], [-118.9253243, 38.0453523], [-118.9232329, 38.043741], [-118.9200274, 38.0410223], [-118.9189551, 38.0398659], [-118.9181789, 38.0387482], [-118.9181511, 38.0377929], [-118.9173793, 38.0363447], [-118.915658, 38.0344157], [-118.9157426, 38.0337634], [-118.9142313, 38.032273], [-118.914229, 38.0315792], [-118.9132166, 38.0306041], [-118.9127633, 38.0298492], [-118.9114186, 38.0268698], [-118.9104928, 38.0251068], [-118.9101868, 38.0242169], [-118.9095382, 38.0236225], [-118.9099286, 38.0232972], [-118.9093323, 38.0219614], [-118.908799, 38.0194256], [-118.9091783, 38.0193705], [-118.9088697, 38.0184231], [-118.9090298, 38.0181559], [-118.9089388, 38.0176603], [-118.9088538, 38.0167938], [-118.9092349, 38.0160719], [-118.909599, 38.0147372], [-118.9100675, 38.0138821], [-118.9104002, 38.0132075], [-118.9108134, 38.0124916], [-118.9110859, 38.0116356], [-118.9113111, 38.010636], [-118.9117937, 38.0096265], [-118.9123308, 38.0087193], [-118.9127704, 38.0076161], [-118.9133013, 38.0065419], [-118.9136584, 38.0047677], [-118.9139358, 38.004358], [-118.9146417, 38.004056], [-118.915192, 38.003283], [-118.9158739, 38.0026267], [-118.9159418, 38.0020215], [-118.9167033, 38.0011157], [-118.917232, 38.0006206], [-118.9178141, 38.0003377], [-118.9181496, 37.9999965], [-118.9182201, 37.9996248], [-118.9186819, 37.9991588], [-118.9191135, 37.9987102], [-118.9196934, 37.9978617], [-118.9206391, 37.9968603], [-118.9211359, 37.9964264], [-118.9214914, 37.9958049], [-118.9218175, 37.9951206], [-118.9221536, 37.9949511], [-118.9223273, 37.9944479], [-118.9226132, 37.9940358], [-118.922965, 37.9935559], [-118.9232401, 37.9930654], [-118.9235775, 37.9928384], [-118.9238671, 37.9922513], [-118.9241313, 37.991861], [-118.9244151, 37.9915064], [-118.924477, 37.9913243], [-118.9245406, 37.9910936], [-118.9249249, 37.9906535], [-118.9254095, 37.9900191], [-118.9259105, 37.989521], [-118.9261519, 37.9891706], [-118.9263756, 37.9890561], [-118.9267476, 37.9886097], [-118.9270354, 37.9883687], [-118.9272479, 37.9882464], [-118.9274454, 37.9878365], [-118.9277869, 37.9874131], [-118.9280953, 37.9872397], [-118.9284911, 37.9873438], [-118.928937, 37.9873713], [-118.9292247, 37.9872916], [-118.929462, 37.9870376], [-118.9297667, 37.9868943], [-118.9300155, 37.9868158], [-118.9304138, 37.9867624], [-118.9306594, 37.9867637], [-118.9307967, 37.9868343], [-118.9308294, 37.9867513], [-118.9309392, 37.986672], [-118.9309487, 37.9865735], [-118.9310254, 37.9864843], [-118.9311892, 37.9864544], [-118.9312356, 37.9865339], [-118.9313597, 37.9865993], [-118.9315065, 37.9865918], [-118.9316319, 37.9865548], [-118.9317201, 37.9863842], [-118.9313629, 37.9863205], [-118.9311928, 37.9864033], [-118.9309593, 37.9863966], [-118.9308282, 37.9865514], [-118.9308275, 37.9863606], [-118.9308582, 37.986248], [-118.9309568, 37.9861532], [-118.9311808, 37.9859636], [-118.9313221, 37.9859696], [-118.9313886, 37.9860302], [-118.9315495, 37.9860303], [-118.9317157, 37.9861355], [-118.9317602, 37.9859538], [-118.9316766, 37.9858647], [-118.9316162, 37.9856865], [-118.9316982, 37.9856244], [-118.931768, 37.9854361], [-118.9316938, 37.9850901], [-118.931812, 37.9850331], [-118.9318352, 37.9846206], [-118.9319561, 37.9845567], [-118.93199, 37.9843867], [-118.9318088, 37.984228], [-118.9315449, 37.9842038], [-118.9314941, 37.9839138], [-118.9315286, 37.9835607], [-118.9316455, 37.9833317], [-118.9316824, 37.9830312], [-118.9318309, 37.9825438], [-118.9319892, 37.9824267], [-118.932019, 37.9820223], [-118.9321021, 37.9816769], [-118.9323858, 37.9811331], [-118.9326345, 37.9806134], [-118.9330165, 37.9799634], [-118.9332126, 37.9795839], [-118.9334514, 37.979177], [-118.9332835, 37.9791328], [-118.9331878, 37.9789057], [-118.9334379, 37.978971], [-118.9339654, 37.9786788], [-118.9344976, 37.9782333], [-118.9347564, 37.9779898], [-118.9347566, 37.9778098], [-118.9348963, 37.9775643], [-118.9351267, 37.9773818], [-118.9357556, 37.9771767], [-118.9356904, 37.9769726], [-118.9361735, 37.9768334], [-118.9364195, 37.9766475], [-118.9366287, 37.976566], [-118.9369085, 37.9764281], [-118.9371162, 37.9763898], [-118.9373908, 37.9764306], [-118.937548, 37.9764082], [-118.9379051, 37.9762562], [-118.9380623, 37.9761202], [-118.9384382, 37.9759547], [-118.9387232, 37.9758886], [-118.9387384, 37.9759625], [-118.9389607, 37.9758328], [-118.9392401, 37.9757753], [-118.9398576, 37.9754709], [-118.9400963, 37.9754652], [-118.9401803, 37.9754173], [-118.9407244, 37.9750242], [-118.941375, 37.9747636], [-118.9419629, 37.9744916], [-118.9422761, 37.9741376], [-118.9423423, 37.9738292], [-118.94248, 37.9735908], [-118.9427869, 37.9734245], [-118.943107, 37.9734895], [-118.9429045, 37.9736069], [-118.9427661, 37.9736902], [-118.9427188, 37.9738169], [-118.9426288, 37.9738427], [-118.9427437, 37.9738575], [-118.9431174, 37.9735675], [-118.943598, 37.9735678], [-118.9437433, 37.9735732], [-118.9439579, 37.9734188], [-118.9446405, 37.9731647], [-118.9448747, 37.9731737], [-118.9451244, 37.9730151], [-118.9467483, 37.9721515], [-118.9480788, 37.9715023], [-118.9484245, 37.9713982], [-118.9489806, 37.9713681], [-118.9494328, 37.9712097], [-118.9501343, 37.9710064], [-118.9504919, 37.9708228], [-118.9507801, 37.9708046], [-118.9509245, 37.9707261], [-118.9512987, 37.9707248], [-118.9516833, 37.9707595], [-118.9520119, 37.9707922], [-118.952029, 37.9709163], [-118.9518924, 37.9710678], [-118.9519232, 37.9711689], [-118.952197, 37.9711662], [-118.9524744, 37.9708757], [-118.9526342, 37.9707654], [-118.9526714, 37.970695], [-118.9528897, 37.9706385], [-118.9529742, 37.9705338], [-118.9530898, 37.9705053], [-118.9531825, 37.9704104], [-118.9533731, 37.9703594], [-118.953762, 37.9701409], [-118.9544022, 37.9699181], [-118.9552959, 37.9693104], [-118.9555148, 37.9692643], [-118.9557641, 37.9690906], [-118.9564776, 37.9685244], [-118.9568423, 37.9682246], [-118.9575004, 37.9677186], [-118.9584378, 37.9669969], [-118.9587443, 37.96671], [-118.9590746, 37.9665063], [-118.9595377, 37.9660971], [-118.9605503, 37.9652399], [-118.960831, 37.9651364], [-118.9611949, 37.9648342], [-118.9615169, 37.9645422], [-118.9618549, 37.9642838], [-118.9623106, 37.9639107], [-118.9625606, 37.9638375], [-118.9628151, 37.9636531], [-118.9629721, 37.9635703], [-118.9634782, 37.9631061], [-118.9641039, 37.9627318], [-118.9642306, 37.9626092], [-118.9644807, 37.9624686], [-118.9646881, 37.9624079], [-118.9648598, 37.9624647], [-118.9649576, 37.9623007], [-118.9654049, 37.9619053], [-118.9668643, 37.9608412], [-118.9677089, 37.9603039], [-118.9689979, 37.9596058], [-118.9697934, 37.9591495], [-118.9702748, 37.9589436], [-118.9706935, 37.9587211], [-118.9709548, 37.9586293], [-118.971216, 37.9584627], [-118.9720158, 37.9581083], [-118.9728951, 37.9577445], [-118.973615, 37.9575225], [-118.9744604, 37.957271], [-118.9749347, 37.957235], [-118.9756032, 37.9571849], [-118.9757515, 37.9571243], [-118.9761922, 37.956921], [-118.9765743, 37.9566463], [-118.9776577, 37.9554493], [-118.9787254, 37.9545269], [-118.9791753, 37.9542865], [-118.9796358, 37.9541218], [-118.9797654, 37.954195], [-118.979846, 37.954132], [-118.9799773, 37.9541257], [-118.9802132, 37.9539744], [-118.9802718, 37.9538223], [-118.98152, 37.9530309], [-118.9830775, 37.9522263], [-118.9849867, 37.951415], [-118.985565, 37.9512894], [-118.9860826, 37.9511565], [-118.9864055, 37.9511897], [-118.9865819, 37.9510374], [-118.9872653, 37.95088], [-118.9881705, 37.950391], [-118.9893023, 37.9495927], [-118.9911819, 37.948522], [-118.9929467, 37.9476832], [-118.9946235, 37.9471389], [-118.9954936, 37.9469348], [-118.996337, 37.9468948], [-118.9971302, 37.9470007], [-118.9975901, 37.947256], [-118.9976184, 37.9474518], [-118.9978165, 37.947458], [-118.9981461, 37.9472644], [-118.9983531, 37.9472103], [-118.9986855, 37.9470615], [-118.9991635, 37.9468859], [-119.0003969, 37.9463411], [-119.0027038, 37.9452938], [-119.0060212, 37.9439562], [-119.0081427, 37.943208], [-119.0099391, 37.9426644], [-119.0112792, 37.9423337], [-119.0125419, 37.9421186], [-119.0132584, 37.9420219], [-119.0139375, 37.942001], [-119.014481, 37.9420139], [-119.0149533, 37.9420634], [-119.0150842, 37.9421423], [-119.0153941, 37.9422202], [-119.0154589, 37.9423298], [-119.0155726, 37.9422628], [-119.0158641, 37.9422172], [-119.0161914, 37.942213], [-119.0165827, 37.9421646], [-119.0168266, 37.9421814], [-119.0171276, 37.9421099], [-119.0173508, 37.9421183], [-119.0174451, 37.942194], [-119.0175573, 37.9420949], [-119.0175708, 37.9418612], [-119.0178379, 37.9415199], [-119.018212, 37.9414727], [-119.0187095, 37.9411763], [-119.0191817, 37.9410947], [-119.0199661, 37.9410204], [-119.0209874, 37.941088], [-119.0224672, 37.9411837], [-119.0228058, 37.9413114], [-119.0230149, 37.9413404], [-119.0232957, 37.9411737], [-119.0236209, 37.9411979], [-119.0237437, 37.9413009], [-119.0239773, 37.9412904], [-119.0240314, 37.9412185], [-119.0242807, 37.9411652], [-119.0245914, 37.9411415], [-119.0246061, 37.9412459], [-119.0246992, 37.9413026], [-119.0248388, 37.9412341], [-119.0250512, 37.941308], [-119.0253114, 37.9413805], [-119.0254832, 37.9414013], [-119.0255975, 37.9414502], [-119.0258548, 37.9414729], [-119.0260424, 37.9415484], [-119.0261596, 37.9416636], [-119.0263464, 37.9417715], [-119.0264646, 37.9418669], [-119.0265149, 37.9419985], [-119.0265104, 37.9420999], [-119.0264726, 37.9422632], [-119.0265332, 37.9423319], [-119.0265182, 37.9424034], [-119.0265781, 37.9424862], [-119.0265617, 37.9425585], [-119.0265191, 37.942638], [-119.0265781, 37.9426626], [-119.0266248, 37.9427103], [-119.0266249, 37.942758], [-119.0265729, 37.9427772], [-119.02656, 37.9428082], [-119.0265085, 37.9428655], [-119.026429, 37.9428873], [-119.026439, 37.9429184], [-119.0265367, 37.9429091], [-119.0266114, 37.9428457], [-119.0266799, 37.9428044], [-119.0267583, 37.9428084], [-119.0268552, 37.9428606], [-119.0269615, 37.9429169], [-119.0269908, 37.9429666], [-119.0269688, 37.9430312], [-119.0269455, 37.9431057], [-119.0269487, 37.943147], [-119.0270149, 37.9431504], [-119.0270574, 37.9431277], [-119.0271014, 37.9430961], [-119.027183, 37.9431412], [-119.02732, 37.9432536], [-119.0273764, 37.9433738], [-119.027377, 37.9434648], [-119.0272649, 37.9434852], [-119.0272207, 37.9435137], [-119.0273007, 37.9435439], [-119.0273232, 37.9435974], [-119.0272672, 37.9436184], [-119.0272608, 37.9436455], [-119.0272139, 37.9436838], [-119.027193, 37.9437265], [-119.027221, 37.9437533], [-119.0273286, 37.9437433], [-119.0274062, 37.9437458], [-119.0274605, 37.9437235], [-119.0274907, 37.9437402], [-119.0274961, 37.9437563], [-119.027438, 37.9438008], [-119.0274258, 37.9438597], [-119.0274952, 37.9439202], [-119.0274591, 37.9440165], [-119.027546, 37.9439557], [-119.0276604, 37.9439293], [-119.0277805, 37.9439513], [-119.027841, 37.9438283], [-119.0277706, 37.9438213], [-119.0277687, 37.9437168], [-119.0278638, 37.9436128], [-119.0276933, 37.9435695], [-119.0276941, 37.9434813], [-119.027766, 37.9434534], [-119.0277593, 37.9433746], [-119.0279454, 37.9432], [-119.0281402, 37.9431214], [-119.0283341, 37.9430792], [-119.0284304, 37.9431504], [-119.0285864, 37.9432267], [-119.0287512, 37.9431743], [-119.0288013, 37.9431259], [-119.0286969, 37.9431006], [-119.0286231, 37.94301], [-119.0284833, 37.943043], [-119.0284422, 37.9429303], [-119.028508, 37.9428255], [-119.0284701, 37.9427173], [-119.0285103, 37.9426702], [-119.0285403, 37.9425893], [-119.0286068, 37.9425367], [-119.0287061, 37.9425004], [-119.0287307, 37.942405], [-119.0287727, 37.9423361], [-119.028928, 37.9422186], [-119.0290508, 37.9421711], [-119.0291138, 37.9421581], [-119.0292166, 37.9421556], [-119.0292369, 37.9421589], [-119.029253, 37.9421437], [-119.0293002, 37.9421001], [-119.0293837, 37.9420608], [-119.0294661, 37.9420509], [-119.0295083, 37.942069], [-119.0295183, 37.9420469], [-119.0295396, 37.9420312], [-119.029588, 37.9420396], [-119.0296283, 37.9420448], [-119.0296634, 37.942071], [-119.029702, 37.9421378], [-119.029732, 37.942153], [-119.0297554, 37.9421834], [-119.0297734, 37.942162], [-119.0298004, 37.9421551], [-119.0297988, 37.9421107], [-119.0298223, 37.9420752], [-119.0298018, 37.9420403], [-119.0297353, 37.9420256], [-119.0297056, 37.9419673], [-119.0297415, 37.9419039], [-119.0297974, 37.9418611], [-119.0298683, 37.9418553], [-119.0299763, 37.9417598], [-119.029989, 37.9416897], [-119.0300327, 37.9416923], [-119.0300813, 37.9416683], [-119.0301945, 37.9415908], [-119.0302024, 37.9415383], [-119.0302416, 37.9414905], [-119.03043, 37.9413726], [-119.0305102, 37.9413484], [-119.0306172, 37.9413347], [-119.0317984, 37.9413232], [-119.0322984, 37.9414393], [-119.0327636, 37.9414244], [-119.0332011, 37.9416025], [-119.0336303, 37.9420899], [-119.0337554, 37.9421142], [-119.0341127, 37.9420111], [-119.0342266, 37.9421552], [-119.0345908, 37.9422125], [-119.0345218, 37.9423071], [-119.0347203, 37.9422929], [-119.0352568, 37.9423174], [-119.0360507, 37.9424215], [-119.0366982, 37.9425204], [-119.0373811, 37.942699], [-119.037985, 37.9429837], [-119.0389003, 37.9435806], [-119.0393473, 37.9439269], [-119.0397075, 37.9442798], [-119.0397843, 37.9445301], [-119.0398426, 37.9447707], [-119.0401185, 37.9452145], [-119.0408666, 37.9458862], [-119.0412046, 37.9461898], [-119.0413041, 37.9465308], [-119.0414616, 37.9469732], [-119.0415008, 37.9473651], [-119.0413938, 37.9474524], [-119.0414191, 37.9475523], [-119.0413536, 37.947672], [-119.0419645, 37.9484388], [-119.0433978, 37.9495082], [-119.0454578, 37.9512611], [-119.04605, 37.9518499], [-119.0462732, 37.952256], [-119.046378, 37.9525266], [-119.0464626, 37.9530232], [-119.0467064, 37.9534079], [-119.0475571, 37.9541388], [-119.0496356, 37.9554357], [-119.050399, 37.9556745], [-119.0508763, 37.9558644], [-119.0512584, 37.9560327], [-119.0515789, 37.9562795], [-119.0516677, 37.9561852], [-119.0514794, 37.9560813], [-119.051348, 37.9559872], [-119.0512124, 37.9559379], [-119.0509945, 37.9558323], [-119.0507172, 37.9557278], [-119.0505185, 37.9556226], [-119.0507211, 37.9555703], [-119.0508386, 37.9555046], [-119.0509504, 37.9555061], [-119.0511289, 37.9554248], [-119.051489, 37.955367], [-119.0515843, 37.9553909], [-119.0516246, 37.9554352], [-119.0518651, 37.9554387], [-119.0520676, 37.9555659], [-119.0522101, 37.9555705], [-119.0523009, 37.9556338], [-119.0523802, 37.9555343], [-119.0523916, 37.9554297], [-119.0524792, 37.955412], [-119.0526424, 37.9556176], [-119.0525823, 37.9557109], [-119.0525105, 37.9559715], [-119.0526033, 37.9559769], [-119.0526886, 37.9559058], [-119.0528332, 37.9557587], [-119.052844, 37.9558806], [-119.0527943, 37.9559994], [-119.052656, 37.9560813], [-119.0529269, 37.9562142], [-119.0531381, 37.9561635], [-119.0531623, 37.9562894], [-119.052984, 37.9563649], [-119.0528637, 37.9563066], [-119.0527139, 37.9563048], [-119.0525794, 37.9561711], [-119.0524271, 37.9561819], [-119.0523458, 37.9562725], [-119.0524652, 37.9563695], [-119.0526163, 37.9564026], [-119.052977, 37.9564815], [-119.0527137, 37.95655], [-119.0525285, 37.9566231], [-119.0523746, 37.956642], [-119.052191, 37.9565996], [-119.0521945, 37.9566884], [-119.052294, 37.9567043], [-119.0523141, 37.9567352], [-119.0521922, 37.956728], [-119.0519376, 37.956658], [-119.0516735, 37.9564722], [-119.0518957, 37.9567069], [-119.0521746, 37.9567746], [-119.0524294, 37.9567499], [-119.0529133, 37.9565936], [-119.0537156, 37.9564555], [-119.0544855, 37.9564528], [-119.0551457, 37.9564468], [-119.0566028, 37.9562767], [-119.0581182, 37.9563156], [-119.0593753, 37.9561959], [-119.0606778, 37.9560046], [-119.0619593, 37.9557933], [-119.0636975, 37.9552248], [-119.0643578, 37.9550857], [-119.0648528, 37.9547934], [-119.0650787, 37.9544488], [-119.0662631, 37.9533524], [-119.067851, 37.9513085], [-119.068881, 37.9505572], [-119.0696449, 37.9501173], [-119.0708122, 37.9497045], [-119.0726661, 37.9493254], [-119.0735621, 37.9492817], [-119.0746059, 37.9492307], [-119.0762964, 37.9493252], [-119.0773738, 37.9494457], [-119.0790596, 37.9498643], [-119.0813096, 37.9504149], [-119.0833079, 37.951337], [-119.0846548, 37.952077], [-119.0858418, 37.9529697], [-119.0865135, 37.9537782], [-119.0872616, 37.9549482], [-119.0871511, 37.955374], [-119.0869418, 37.9556686], [-119.0871396, 37.9559664], [-119.0869701, 37.9562372], [-119.0871628, 37.9571249], [-119.0874811, 37.9576336], [-119.0875486, 37.9583103], [-119.0873798, 37.9584059], [-119.0877936, 37.9586994], [-119.0882498, 37.9594674], [-119.0885019, 37.9600196], [-119.0885224, 37.9604152], [-119.0887745, 37.9606239], [-119.0887508, 37.9608847], [-119.0888193, 37.9609284], [-119.0892541, 37.9611375], [-119.0896501, 37.9617653], [-119.0896544, 37.9623293], [-119.0898475, 37.9625435], [-119.0899965, 37.9629578], [-119.0897831, 37.963255], [-119.0901638, 37.9632071], [-119.0906359, 37.9635204], [-119.0911733, 37.9642482], [-119.0915414, 37.9650078], [-119.0921907, 37.9656891], [-119.0921754, 37.9663508], [-119.0923532, 37.9669908], [-119.092385, 37.9677954], [-119.0923568, 37.9680238], [-119.092817, 37.9683511], [-119.0931685, 37.9682408], [-119.0934269, 37.9680248], [-119.0938926, 37.9682081], [-119.0938938, 37.9685084], [-119.0937675, 37.968689], [-119.094482, 37.9691315], [-119.0947057, 37.9690957], [-119.0949572, 37.9693234], [-119.0949054, 37.9696338], [-119.0952723, 37.9699428], [-119.0952753, 37.9701605], [-119.0955168, 37.9703771], [-119.0960066, 37.9702894], [-119.0964241, 37.9703774], [-119.0966098, 37.9704963], [-119.0965801, 37.9707233], [-119.0966752, 37.9707182], [-119.0967252, 37.9708487], [-119.096939, 37.97094], [-119.0969638, 37.9711554], [-119.0968594, 37.9713316], [-119.0966558, 37.9715354], [-119.0967674, 37.9715827], [-119.0969476, 37.971285], [-119.0970507, 37.9712184], [-119.0970298, 37.9709444], [-119.0970731, 37.9707827], [-119.0973854, 37.9709064], [-119.0975314, 37.9708363], [-119.0982172, 37.9709701], [-119.0987448, 37.9712444], [-119.09901, 37.9715072], [-119.0991668, 37.9717631], [-119.0996527, 37.9721402], [-119.1000337, 37.9726827], [-119.1005563, 37.9732171], [-119.1009951, 37.9739584], [-119.1012656, 37.9742708], [-119.1014943, 37.9743598], [-119.1018886, 37.9749718], [-119.102241, 37.9754638], [-119.1025872, 37.9767452], [-119.1029347, 37.9769389], [-119.1029244, 37.9770953], [-119.1027957, 37.9772444], [-119.103269, 37.9778148], [-119.1034239, 37.9778267], [-119.1036972, 37.9785084], [-119.1035567, 37.9789331], [-119.1037782, 37.9791113], [-119.1046809, 37.9794156], [-119.1053154, 37.9796979], [-119.1056576, 37.9799698], [-119.1061431, 37.980199], [-119.1068208, 37.9804499], [-119.1081865, 37.9806757], [-119.1085067, 37.9806797], [-119.1086891, 37.9807169], [-119.1088853, 37.9806879], [-119.1091457, 37.9807203], [-119.1093715, 37.9807003], [-119.1097022, 37.9807354], [-119.1097906, 37.9806658], [-119.1104989, 37.9806107], [-119.11113, 37.9805505], [-119.1113011, 37.9805658], [-119.1116023, 37.9805085], [-119.1122092, 37.9804987], [-119.1128197, 37.9805295], [-119.1131274, 37.9805123], [-119.1132144, 37.9805416], [-119.113697, 37.9804795], [-119.1140173, 37.9804978], [-119.1143267, 37.9803942], [-119.1144707, 37.9804044], [-119.1145482, 37.98035], [-119.1147066, 37.9803605], [-119.1147968, 37.980299], [-119.1151519, 37.980255], [-119.1154443, 37.9802424], [-119.1155187, 37.9802855], [-119.1155339, 37.9803867], [-119.1156353, 37.9803562], [-119.1155923, 37.980275], [-119.1156733, 37.9802651], [-119.1157698, 37.9803227], [-119.1158462, 37.980195], [-119.1160206, 37.9800672], [-119.1166204, 37.9799543], [-119.1166988, 37.9797221], [-119.1169057, 37.9795868], [-119.1172017, 37.9795053], [-119.1171925, 37.9793543], [-119.1173419, 37.9792581], [-119.1177054, 37.9791438], [-119.1179991, 37.979157], [-119.1182528, 37.9790822], [-119.1183971, 37.9791469], [-119.1186096, 37.9790682], [-119.1187145, 37.9790331], [-119.1188263, 37.9790422], [-119.1189415, 37.9789941], [-119.1192431, 37.9789847], [-119.1193282, 37.9790669], [-119.1194758, 37.9789659], [-119.1194971, 37.9789168], [-119.1198263, 37.9788716], [-119.1200159, 37.9789449], [-119.1201749, 37.9789091], [-119.1202387, 37.9788153], [-119.120365, 37.9788925], [-119.1204201, 37.978753], [-119.120664, 37.9788324], [-119.121185, 37.9787052], [-119.121456, 37.9788747], [-119.12151, 37.9787932], [-119.1216696, 37.9788645], [-119.1219087, 37.9786187], [-119.1220195, 37.9786365], [-119.1220924, 37.9784881], [-119.1223721, 37.9784112], [-119.1225785, 37.9783176], [-119.1227429, 37.9781273], [-119.1230789, 37.9780459], [-119.1233309, 37.9781715], [-119.1234258, 37.9780234], [-119.1233665, 37.9778404], [-119.1234646, 37.9777075], [-119.1236484, 37.9776079], [-119.1237105, 37.9774933], [-119.1239614, 37.9773847], [-119.1242544, 37.9773643], [-119.1244657, 37.9772366], [-119.1245476, 37.977117], [-119.1247759, 37.9771786], [-119.1248522, 37.9771181], [-119.125121, 37.9770963], [-119.125311, 37.9774331], [-119.1254962, 37.977565], [-119.1256044, 37.9777713], [-119.125658, 37.9775826], [-119.1258931, 37.97748], [-119.1261104, 37.9775198], [-119.126219, 37.9774045], [-119.1263416, 37.9774779], [-119.1264414, 37.9774147], [-119.1267994, 37.9774211], [-119.12708, 37.9775637], [-119.1272395, 37.9775825], [-119.1274015, 37.9776733], [-119.1276072, 37.9775972], [-119.1280775, 37.9778116], [-119.1284054, 37.9780102], [-119.128952, 37.9779953], [-119.1294, 37.97809], [-119.1297832, 37.9781596], [-119.1299227, 37.9778973], [-119.1300505, 37.9777447], [-119.1307335, 37.9775959], [-119.1309121, 37.9774609], [-119.131229, 37.9774724], [-119.1314865, 37.9775667], [-119.1316181, 37.9775079], [-119.1318302, 37.9775402], [-119.132027, 37.9775054], [-119.1324446, 37.9775907], [-119.1326943, 37.9777091], [-119.1330308, 37.9779419], [-119.1332339, 37.9781784], [-119.1332567, 37.9782869], [-119.1334178, 37.9784231], [-119.1337848, 37.9784492], [-119.1340786, 37.9787022], [-119.1346242, 37.9787773], [-119.1350995, 37.9788959], [-119.135419, 37.9791269], [-119.1355397, 37.9792383], [-119.1357341, 37.9795603]], [[-119.0300141, 38.0137275], [-119.0301675, 38.0139028], [-119.0300481, 38.0140618], [-119.0301239, 38.0142332], [-119.0296539, 38.0145441], [-119.0294285, 38.0148076], [-119.0294258, 38.015213], [-119.0296502, 38.0154459], [-119.0297741, 38.0156122], [-119.0301205, 38.0158527], [-119.030358, 38.0157067], [-119.0307021, 38.0158365], [-119.0311853, 38.0155972], [-119.0319526, 38.015524], [-119.0331301, 38.0157198], [-119.0340301, 38.0159572], [-119.0345337, 38.0158984], [-119.0343992, 38.0156577], [-119.0342945, 38.0154612], [-119.0343655, 38.0153292], [-119.0348033, 38.0152505], [-119.035269, 38.0153084], [-119.0352551, 38.0151598], [-119.035409, 38.015094], [-119.0351963, 38.015023], [-119.0346823, 38.0144846], [-119.0346452, 38.0139407], [-119.0348734, 38.0134828], [-119.0353148, 38.013182], [-119.0354454, 38.0131825], [-119.0357558, 38.013061], [-119.0360583, 38.0130791], [-119.0364416, 38.0130162], [-119.0373159, 38.0127229], [-119.0379423, 38.0127494], [-119.0381853, 38.012695], [-119.0384666, 38.0127179], [-119.0385832, 38.012793], [-119.0387362, 38.0128258], [-119.0387855, 38.0128688], [-119.0388171, 38.0128453], [-119.0392421, 38.0129227], [-119.0393311, 38.0129165], [-119.0390703, 38.0128335], [-119.0387884, 38.012829], [-119.0387754, 38.0127964], [-119.0388829, 38.0127534], [-119.039105, 38.0127014], [-119.0392722, 38.012754], [-119.0395125, 38.0128643], [-119.0393561, 38.0129594], [-119.039124, 38.0130566], [-119.038961, 38.013044], [-119.0388212, 38.0130007], [-119.0387171, 38.0128732], [-119.0387305, 38.0129589], [-119.0388088, 38.0130447], [-119.0390215, 38.0131427], [-119.0391857, 38.0131261], [-119.0393596, 38.0130483], [-119.0395843, 38.0128749], [-119.039752, 38.0128215], [-119.0401132, 38.0125463], [-119.0412516, 38.0117549], [-119.0424127, 38.0111697], [-119.0426212, 38.0109291], [-119.0434031, 38.0105324], [-119.0443638, 38.0098451], [-119.0449641, 38.0095523], [-119.0454295, 38.0088534], [-119.0458245, 38.0086392], [-119.0462983, 38.0082522], [-119.0467361, 38.0080426], [-119.0470854, 38.0078081], [-119.047394, 38.0073124], [-119.0478169, 38.0068791], [-119.0478629, 38.0067048], [-119.0480868, 38.0066124], [-119.0484653, 38.0061335], [-119.0482022, 38.0055288], [-119.0481967, 38.0045563], [-119.0483467, 38.0043025], [-119.0485933, 38.0041247], [-119.0488285, 38.0037897], [-119.0493098, 38.0033861], [-119.049296, 38.002874], [-119.0494861, 38.0024379], [-119.0497911, 38.0022674], [-119.0503154, 38.0021336], [-119.0503769, 38.0020055], [-119.0505858, 38.0018506], [-119.0508319, 38.001355], [-119.0510773, 38.0011585], [-119.0511481, 38.000899], [-119.0510687, 38.0003183], [-119.0512211, 37.9997233], [-119.0515472, 37.9991717], [-119.0518884, 37.998918], [-119.0516818, 37.9984509], [-119.0511493, 37.9981328], [-119.0511566, 37.99783], [-119.0508706, 37.9976448], [-119.0510548, 37.9974127], [-119.0506641, 37.9972121], [-119.0506811, 37.9968593], [-119.0513489, 37.9968741], [-119.0514306, 37.9967716], [-119.0516539, 37.9969233], [-119.0519747, 37.9969949], [-119.0519527, 37.9970983], [-119.0521752, 37.9972341], [-119.0519539, 37.9973992], [-119.0516018, 37.9972535], [-119.0516564, 37.9974892], [-119.0518393, 37.9975902], [-119.0519364, 37.9977757], [-119.0522233, 37.9977339], [-119.0521467, 37.9975735], [-119.0522319, 37.9973411], [-119.0527569, 37.9971172], [-119.0529227, 37.9969269], [-119.052834, 37.9965824], [-119.0529827, 37.9961269], [-119.0526387, 37.9959752], [-119.0525471, 37.9955781], [-119.0526515, 37.9954007], [-119.0525428, 37.9951471], [-119.0521076, 37.9948428], [-119.0519758, 37.9945257], [-119.0519796, 37.9942615], [-119.05218, 37.9941717], [-119.0523053, 37.9940227], [-119.0519554, 37.9936309], [-119.0516483, 37.9931884], [-119.0516685, 37.9929953], [-119.0517638, 37.9928614], [-119.0516514, 37.9926302], [-119.0517914, 37.9924637], [-119.0516745, 37.99219], [-119.05202, 37.9920526], [-119.0516888, 37.9917798], [-119.0513684, 37.9914139], [-119.0512249, 37.9909825], [-119.0513819, 37.9905934], [-119.051248, 37.9905082], [-119.0513879, 37.9903885], [-119.0510236, 37.9904169], [-119.0508093, 37.989856], [-119.0506108, 37.9897476], [-119.0504822, 37.9895376], [-119.050332, 37.9895433], [-119.0504366, 37.9894108], [-119.0503227, 37.9892304], [-119.0501423, 37.9891445], [-119.0499877, 37.9887083], [-119.0495028, 37.9885156], [-119.0495017, 37.9883938], [-119.0493348, 37.9883203], [-119.04923, 37.9881229], [-119.0490863, 37.9880876], [-119.0490467, 37.98796], [-119.0488177, 37.9877863], [-119.0488694, 37.9876656], [-119.0486647, 37.9874277], [-119.0487769, 37.9870424], [-119.0486906, 37.9863907], [-119.048603, 37.9862107], [-119.0487473, 37.9861932], [-119.0485896, 37.9860428], [-119.0487155, 37.9858589], [-119.0485653, 37.9857175], [-119.0488079, 37.9855743], [-119.0488623, 37.985394], [-119.0490358, 37.9853467], [-119.048947, 37.9852078], [-119.049145, 37.9851185], [-119.0492022, 37.9849783], [-119.0490762, 37.9846678], [-119.0488083, 37.98472], [-119.0487329, 37.9846078], [-119.0486033, 37.9845748], [-119.0486304, 37.984321], [-119.0485186, 37.9843029], [-119.0484627, 37.9843959], [-119.0482006, 37.9843469], [-119.0481365, 37.9841577], [-119.0480752, 37.9842212], [-119.0479526, 37.9840553], [-119.0477366, 37.9840613], [-119.0476453, 37.9839292], [-119.0474992, 37.9838139], [-119.0471149, 37.9836029], [-119.0465717, 37.9835469], [-119.0462771, 37.9837379], [-119.0460295, 37.9836984], [-119.0457301, 37.9838466], [-119.0452084, 37.9839273], [-119.0448807, 37.9838688], [-119.0444619, 37.983978], [-119.0442485, 37.9839163], [-119.0440101, 37.9837821], [-119.0437215, 37.9835722], [-119.0435562, 37.9833289], [-119.0434985, 37.9831861], [-119.0435867, 37.9831273], [-119.0435091, 37.9830201], [-119.0435082, 37.982914], [-119.0434086, 37.9828622], [-119.0432808, 37.9828826], [-119.0432347, 37.9828662], [-119.0432953, 37.983119], [-119.0432765, 37.9831666], [-119.0433534, 37.9832692], [-119.0433072, 37.9833472], [-119.0431223, 37.9834292], [-119.042403, 37.9835356], [-119.0418026, 37.9835343], [-119.0414335, 37.9834913], [-119.0413876, 37.9834379], [-119.0410515, 37.983398], [-119.040964, 37.9833836], [-119.0406567, 37.9832596], [-119.0405402, 37.983207], [-119.0405078, 37.9831564], [-119.040413, 37.98312], [-119.0404208, 37.9829426], [-119.0404814, 37.9827749], [-119.0405497, 37.9826], [-119.0405867, 37.9825533], [-119.0404059, 37.9825821], [-119.0404082, 37.982546], [-119.0404407, 37.9825013], [-119.0403515, 37.9825153], [-119.0404344, 37.9823831], [-119.0404935, 37.9822592], [-119.0404303, 37.9822692], [-119.0404827, 37.9821661], [-119.0404476, 37.9821408], [-119.0404613, 37.9820809], [-119.0403796, 37.9819996], [-119.0402298, 37.9818813], [-119.0401129, 37.9817645], [-119.0400143, 37.981747], [-119.0399749, 37.9817], [-119.0400315, 37.9816023], [-119.0399723, 37.9815608], [-119.0399839, 37.9814795], [-119.0400864, 37.9814419], [-119.0400661, 37.9814043], [-119.0401342, 37.9813834], [-119.0400126, 37.9813144], [-119.0398971, 37.9813225], [-119.0398076, 37.981249], [-119.0395493, 37.9812511], [-119.0393487, 37.9813049], [-119.0390561, 37.9812028], [-119.0385991, 37.9811267], [-119.0384255, 37.9811736], [-119.0383167, 37.9813326], [-119.0380274, 37.9813361], [-119.0378545, 37.98151], [-119.0373182, 37.9815404], [-119.0367497, 37.9815539], [-119.0366679, 37.9818143], [-119.0362858, 37.9821339], [-119.0353618, 37.9823056], [-119.035034, 37.9824844], [-119.0346717, 37.9824647], [-119.0343148, 37.982373], [-119.0336924, 37.9828522], [-119.0325765, 37.9828888], [-119.0322572, 37.9827415], [-119.0318978, 37.9831706], [-119.0316426, 37.9834071], [-119.0315438, 37.9836843], [-119.0310194, 37.983732], [-119.0306996, 37.9839602], [-119.0301495, 37.9840067], [-119.0288677, 37.9846019], [-119.0284139, 37.9849619], [-119.0274164, 37.9854155], [-119.0273555, 37.9856647], [-119.0271658, 37.9857475], [-119.0273258, 37.9859124], [-119.0272819, 37.9862663], [-119.0270391, 37.986512], [-119.0270216, 37.9868793], [-119.0266152, 37.9873576], [-119.0265551, 37.9878035], [-119.0267069, 37.9881671], [-119.0267441, 37.9886032], [-119.0270013, 37.9890218], [-119.0270345, 37.9895821], [-119.026733, 37.9898184], [-119.0270117, 37.9904944], [-119.0269283, 37.9907133], [-119.027336, 37.9912896], [-119.0271303, 37.9924521], [-119.0270194, 37.993071], [-119.0265346, 37.9934682], [-119.0263081, 37.9940114], [-119.0251371, 37.9943959], [-119.0240029, 37.9943813], [-119.0238335, 37.9939604], [-119.0240271, 37.9936998], [-119.0239012, 37.993325], [-119.0236872, 37.993357], [-119.0236438, 37.9937428], [-119.0235982, 37.9939795], [-119.023138, 37.9938723], [-119.0223734, 37.9941102], [-119.0213152, 37.9944659], [-119.0206681, 37.994407], [-119.0197866, 37.9946313], [-119.019657, 37.9954113], [-119.0193562, 37.995497], [-119.0200212, 37.995878], [-119.0202034, 37.9966604], [-119.0206808, 37.9972714], [-119.020662, 37.9979066], [-119.0208779, 37.9984187], [-119.0208679, 37.99881], [-119.0209272, 37.9993523], [-119.0213513, 37.9996579], [-119.0227146, 38.0036841], [-119.0225543, 38.0041935], [-119.0229848, 38.00506], [-119.0226657, 38.0053137], [-119.0233386, 38.0059557], [-119.0231007, 38.0070331], [-119.0224902, 38.0074426], [-119.0220848, 38.0084509], [-119.0215504, 38.0085592], [-119.0213557, 38.0090603], [-119.0214008, 38.0092913], [-119.0213088, 38.0096021], [-119.0211455, 38.0104084], [-119.0208689, 38.0109326], [-119.0206841, 38.0111777], [-119.0205706, 38.0118255], [-119.0206624, 38.012299], [-119.0210318, 38.0124362], [-119.0214817, 38.0124246], [-119.0220283, 38.012572], [-119.0226865, 38.0128171], [-119.0233585, 38.0132338], [-119.0238306, 38.013096], [-119.0243705, 38.0130412], [-119.0254891, 38.0130825], [-119.0259496, 38.0131682], [-119.0261844, 38.012976], [-119.026348, 38.013188], [-119.0267798, 38.0128616], [-119.0275062, 38.0128168], [-119.0282477, 38.0128965], [-119.0289783, 38.0131033], [-119.0296872, 38.013428], [-119.0300141, 38.0137275]], [[-119.0303324, 38.0647589], [-119.0303118, 38.0648728], [-119.0304234, 38.0649151], [-119.0305639, 38.0651103], [-119.0305557, 38.0648044], [-119.0306879, 38.0647491], [-119.0305763, 38.0646287], [-119.0304234, 38.0645831], [-119.0302498, 38.0644952], [-119.0302002, 38.0647133], [-119.0303324, 38.0647589]], [[-119.0349293, 38.0309496], [-119.0351328, 38.0309524], [-119.0349582, 38.0307393], [-119.034589, 38.0306766], [-119.0345507, 38.0305612], [-119.0343811, 38.0305461], [-119.0343277, 38.0306559], [-119.0344024, 38.0306855], [-119.0343464, 38.0308097], [-119.0344904, 38.0308352], [-119.034459, 38.0309188], [-119.0346224, 38.0309226], [-119.0347198, 38.0310269], [-119.0345144, 38.0311597], [-119.0346798, 38.0312237], [-119.0346745, 38.0313222], [-119.0347225, 38.0314436], [-119.0345411, 38.031434], [-119.0343329, 38.0313739], [-119.0345013, 38.0315777], [-119.0345923, 38.0317268], [-119.0347756, 38.0315001], [-119.0348175, 38.0313742], [-119.0350893, 38.0313444], [-119.0350685, 38.0312745], [-119.035126, 38.0311991], [-119.0351103, 38.0311143], [-119.0350404, 38.0310553], [-119.0348558, 38.0311097], [-119.0349352, 38.0310129], [-119.0349293, 38.0309496]], [[-119.034942, 38.0305662], [-119.0349977, 38.0306539], [-119.0351488, 38.0306727], [-119.0351845, 38.03056], [-119.0350613, 38.0304723], [-119.034942, 38.0305662]], [[-119.0349857, 38.031534], [-119.035113, 38.0315591], [-119.0351766, 38.0316624], [-119.0352959, 38.0315716], [-119.0352561, 38.0314651], [-119.0352283, 38.0312929], [-119.0351488, 38.031249], [-119.035117, 38.031415], [-119.0350175, 38.0314557], [-119.0349857, 38.031534]], [[-119.0354152, 38.0310955], [-119.0354271, 38.0312584], [-119.0353754, 38.0313712], [-119.0354708, 38.0314463], [-119.0354629, 38.0316029], [-119.0357213, 38.0314808], [-119.0356895, 38.0313774], [-119.0355623, 38.031343], [-119.0356458, 38.0312929], [-119.0356856, 38.0311363], [-119.0357889, 38.0311112], [-119.0358884, 38.0310548], [-119.035785, 38.0309609], [-119.0357889, 38.0308669], [-119.035606, 38.0307698], [-119.0355901, 38.0306414], [-119.0354788, 38.0306414], [-119.035439, 38.0305756], [-119.0353038, 38.0305318], [-119.0353675, 38.0306665], [-119.0353038, 38.0307072], [-119.0352681, 38.0309076], [-119.035276, 38.0310548], [-119.0354152, 38.0310955]], [[-119.0417386, 38.0294266], [-119.0417086, 38.0290948], [-119.0416507, 38.0291983], [-119.0416227, 38.0290317], [-119.0416675, 38.028972], [-119.041497, 38.0289651], [-119.0410247, 38.0291268], [-119.0404046, 38.0295208], [-119.0399242, 38.0296415], [-119.0398378, 38.0295535], [-119.0398474, 38.0296796], [-119.0391082, 38.0297245], [-119.0390096, 38.0296891], [-119.0384769, 38.0298436], [-119.0384097, 38.029823], [-119.0384187, 38.0298901], [-119.0382716, 38.0298984], [-119.0382165, 38.0298844], [-119.0382256, 38.0300004], [-119.0380924, 38.0300785], [-119.0381614, 38.0302219], [-119.0381522, 38.0303762], [-119.038411, 38.0304235], [-119.038911, 38.0302519], [-119.0391706, 38.0302463], [-119.0393806, 38.0303278], [-119.0393087, 38.0303632], [-119.0393073, 38.0304876], [-119.0390141, 38.0306283], [-119.0387704, 38.0307986], [-119.0387299, 38.0309312], [-119.0387353, 38.0310855], [-119.0387806, 38.0311952], [-119.0390328, 38.0311724], [-119.0392967, 38.0310289], [-119.0395526, 38.0310259], [-119.0397196, 38.0311909], [-119.039967, 38.031146], [-119.0399481, 38.0309553], [-119.0398121, 38.0307068], [-119.0399926, 38.0306144], [-119.0400989, 38.0303548], [-119.0402007, 38.0303484], [-119.0401841, 38.0301709], [-119.0404729, 38.0300567], [-119.0409702, 38.0300057], [-119.0411851, 38.0299022], [-119.0413459, 38.029805], [-119.0415514, 38.0297836], [-119.0417386, 38.0294266]], [[-119.0407331, 38.028448], [-119.0412479, 38.0284127], [-119.0415719, 38.0283335], [-119.0417218, 38.0282382], [-119.0417262, 38.0279393], [-119.0415446, 38.0278468], [-119.041201, 38.0278438], [-119.0409502, 38.0279309], [-119.040441, 38.0279804], [-119.0400815, 38.0281286], [-119.0402932, 38.0283955], [-119.0407331, 38.028448]], [[-119.0412572, 38.0304384], [-119.0413353, 38.0306465], [-119.0414937, 38.0307333], [-119.0416522, 38.0307043], [-119.0417142, 38.0305759], [-119.0416499, 38.0303751], [-119.0414914, 38.0301816], [-119.0412549, 38.0301183], [-119.0411814, 38.030225], [-119.0411906, 38.0304222], [-119.0412572, 38.0304384]], [[-119.0411833, 38.02328], [-119.0412084, 38.0233251], [-119.0412351, 38.0232946], [-119.0412837, 38.023301], [-119.0412799, 38.0232236], [-119.0412231, 38.0232219], [-119.0412204, 38.0232597], [-119.0411833, 38.02328]], [[-119.0494175, 38.0248065], [-119.0493775, 38.0247752], [-119.0494567, 38.0247731], [-119.0496709, 38.0245891], [-119.050014, 38.0243665], [-119.0500243, 38.0243017], [-119.0500959, 38.0243066], [-119.0501252, 38.0243606], [-119.0500491, 38.0245546], [-119.049889, 38.024678], [-119.0497683, 38.0248306], [-119.0496449, 38.0249487], [-119.0496184, 38.0250763], [-119.0495817, 38.0251897], [-119.0495362, 38.0252206], [-119.0495685, 38.025229], [-119.0495621, 38.0252637], [-119.0495309, 38.0252871], [-119.0495703, 38.0252974], [-119.0495885, 38.0253656], [-119.0495351, 38.0254222], [-119.04952, 38.0255156], [-119.0496138, 38.0256682], [-119.0496867, 38.0257543], [-119.0497642, 38.0257477], [-119.0498219, 38.0258959], [-119.0498659, 38.0259084], [-119.0500055, 38.0259645], [-119.0501675, 38.0259717], [-119.0503392, 38.0260069], [-119.0504832, 38.0260316], [-119.0506078, 38.0259738], [-119.0506898, 38.0260305], [-119.0507876, 38.0260437], [-119.0509584, 38.0260773], [-119.0511413, 38.0260252], [-119.0513443, 38.0259576], [-119.0514409, 38.0258952], [-119.0514393, 38.0260491], [-119.0515228, 38.0262274], [-119.0516573, 38.0263971], [-119.0517662, 38.0264201], [-119.0517386, 38.0264692], [-119.0517916, 38.026538], [-119.0519951, 38.0265938], [-119.0520681, 38.0266579], [-119.0524498, 38.0268063], [-119.0524833, 38.0269429], [-119.0524857, 38.0272752], [-119.052513, 38.0275584], [-119.0525455, 38.0276662], [-119.0526939, 38.0277482], [-119.0529356, 38.0277312], [-119.0530752, 38.027683], [-119.0532334, 38.0276544], [-119.0533994, 38.0276783], [-119.0535018, 38.0276488], [-119.0535839, 38.0275424], [-119.0536666, 38.0275387], [-119.0537517, 38.0274784], [-119.0537688, 38.0274378], [-119.0538111, 38.0273157], [-119.0539061, 38.0272128], [-119.0539688, 38.0271613], [-119.0545123, 38.0268783], [-119.0548243, 38.0265898], [-119.0550066, 38.0263013], [-119.0551666, 38.0258619], [-119.0554273, 38.0252977], [-119.0555169, 38.0250208], [-119.0555858, 38.0249442], [-119.0554833, 38.0248984], [-119.0554881, 38.0248308], [-119.0553806, 38.024659], [-119.0553996, 38.0245426], [-119.0553373, 38.0245206], [-119.0552528, 38.0243132], [-119.0552849, 38.0241596], [-119.0554904, 38.0238216], [-119.0557169, 38.0233451], [-119.0555831, 38.0229987], [-119.0554087, 38.0229354], [-119.0552129, 38.0228898], [-119.0550376, 38.0227148], [-119.0548091, 38.0225553], [-119.0548073, 38.022457], [-119.0548821, 38.0223395], [-119.055073, 38.0220394], [-119.055177, 38.0217123], [-119.0551234, 38.0215084], [-119.0549704, 38.0212847], [-119.0546694, 38.0210743], [-119.0543171, 38.0209596], [-119.0542386, 38.0209817], [-119.0540059, 38.0207949], [-119.0539532, 38.0206054], [-119.0539843, 38.0202695], [-119.0539641, 38.0198862], [-119.0538132, 38.0192446], [-119.0538906, 38.0187311], [-119.0538725, 38.018304], [-119.0536833, 38.0179322], [-119.0532312, 38.0176113], [-119.0527998, 38.0174059], [-119.0525297, 38.0173159], [-119.0524163, 38.0172618], [-119.0523051, 38.0170725], [-119.0523518, 38.0166206], [-119.0524613, 38.0165193], [-119.0524823, 38.0163076], [-119.0523788, 38.0163113], [-119.0523166, 38.0162052], [-119.0523852, 38.0160527], [-119.0524538, 38.0160664], [-119.0524892, 38.0160164], [-119.0524521, 38.0159275], [-119.0524913, 38.0158673], [-119.052617, 38.0159131], [-119.0526486, 38.0157869], [-119.0527575, 38.0157621], [-119.052919, 38.0156803], [-119.0529706, 38.0155269], [-119.0530209, 38.0156585], [-119.0531013, 38.0156748], [-119.0532035, 38.0155297], [-119.0533333, 38.0153824], [-119.0532441, 38.0152549], [-119.0529816, 38.0152243], [-119.052932, 38.0153725], [-119.0529328, 38.0155072], [-119.0528843, 38.0154115], [-119.0526414, 38.0152928], [-119.0526114, 38.0152151], [-119.0524874, 38.0151435], [-119.0526266, 38.0151723], [-119.0529238, 38.0151659], [-119.0530543, 38.0150785], [-119.0530411, 38.0149687], [-119.0530887, 38.014912], [-119.052552, 38.0149033], [-119.0523503, 38.0150532], [-119.052481, 38.0150773], [-119.0524132, 38.0151203], [-119.0522087, 38.0151518], [-119.0522214, 38.0151975], [-119.0524179, 38.0152865], [-119.0523864, 38.0153295], [-119.0521689, 38.015262], [-119.0520823, 38.0153533], [-119.0518862, 38.0153314], [-119.0517731, 38.0153576], [-119.0516603, 38.0153909], [-119.0514718, 38.0153774], [-119.0512971, 38.0153052], [-119.0509659, 38.0151828], [-119.0509535, 38.0151189], [-119.0507632, 38.0150058], [-119.0506096, 38.0147999], [-119.0505021, 38.0146083], [-119.0502415, 38.0145063], [-119.0500648, 38.0144925], [-119.0500317, 38.0143641], [-119.0499261, 38.0143188], [-119.0496357, 38.0142885], [-119.0493895, 38.0143641], [-119.0493375, 38.0144279], [-119.0490953, 38.0144649], [-119.0490421, 38.0145363], [-119.0488793, 38.014535], [-119.0488559, 38.0146601], [-119.0488771, 38.0148175], [-119.0488126, 38.0149938], [-119.0488166, 38.0153139], [-119.0487873, 38.0154998], [-119.048707, 38.0156688], [-119.048716, 38.0158222], [-119.048618, 38.0158006], [-119.0486073, 38.0160103], [-119.0484352, 38.0163008], [-119.04833, 38.0163894], [-119.048288, 38.016602], [-119.0482, 38.0168042], [-119.0482576, 38.0168299], [-119.0481675, 38.0169887], [-119.0479634, 38.0172698], [-119.0478481, 38.0175025], [-119.0479367, 38.0176016], [-119.0478343, 38.0177247], [-119.0478559, 38.0178347], [-119.0480501, 38.0179024], [-119.0480814, 38.0179715], [-119.0479794, 38.0180085], [-119.0480782, 38.0181706], [-119.0483293, 38.0183092], [-119.048912, 38.0184038], [-119.0490995, 38.0184732], [-119.0491013, 38.0186216], [-119.0490323, 38.0187623], [-119.0490118, 38.0189128], [-119.0488314, 38.0192354], [-119.0486441, 38.0194254], [-119.048364, 38.0195893], [-119.048131, 38.0196904], [-119.0479187, 38.0197467], [-119.047647, 38.0197702], [-119.0471994, 38.019791], [-119.0467043, 38.0199165], [-119.0465719, 38.0198984], [-119.0464487, 38.0198024], [-119.0464178, 38.0195874], [-119.0464941, 38.0194737], [-119.0464635, 38.0194144], [-119.0465339, 38.01934], [-119.0464641, 38.0192767], [-119.0465385, 38.019259], [-119.046539, 38.019138], [-119.0466085, 38.0191222], [-119.0464753, 38.0189754], [-119.0463256, 38.0188708], [-119.0462944, 38.0189256], [-119.0462189, 38.0188953], [-119.0462802, 38.0188247], [-119.0461584, 38.0188026], [-119.0461649, 38.0188583], [-119.0460398, 38.0188738], [-119.045954, 38.0187543], [-119.0458814, 38.0188888], [-119.0457294, 38.0188155], [-119.0456065, 38.0188867], [-119.0455308, 38.0188238], [-119.0454506, 38.018857], [-119.0454774, 38.0188837], [-119.0454618, 38.0189371], [-119.0454153, 38.0188087], [-119.0453245, 38.0188384], [-119.0453534, 38.0189237], [-119.0452599, 38.0189128], [-119.045266, 38.0188376], [-119.0452005, 38.0187969], [-119.0451798, 38.0188207], [-119.0452254, 38.0188569], [-119.0451838, 38.0189424], [-119.0452224, 38.0189707], [-119.0451612, 38.0190403], [-119.0448119, 38.0190447], [-119.044725, 38.0189951], [-119.0443502, 38.0190547], [-119.0442108, 38.0191428], [-119.043983, 38.0191342], [-119.0437862, 38.0191941], [-119.0437312, 38.0192595], [-119.0434933, 38.0193379], [-119.043355, 38.0194013], [-119.0433935, 38.0194631], [-119.0438351, 38.0193404], [-119.0441569, 38.0193096], [-119.0441979, 38.0193569], [-119.043735, 38.0194646], [-119.0433321, 38.0196414], [-119.0431133, 38.0198206], [-119.0429317, 38.0200195], [-119.0428094, 38.0202339], [-119.0426877, 38.0204832], [-119.0426593, 38.020617], [-119.0426198, 38.0206588], [-119.0426267, 38.0207518], [-119.0425481, 38.0208417], [-119.0424982, 38.020997], [-119.0424109, 38.021028], [-119.0423099, 38.020979], [-119.0422088, 38.0210092], [-119.0421232, 38.0209518], [-119.0421319, 38.0208315], [-119.0423876, 38.0204007], [-119.0425474, 38.0200831], [-119.0425501, 38.0200164], [-119.0423523, 38.0200912], [-119.0421206, 38.0203105], [-119.0418203, 38.020741], [-119.0416379, 38.0208936], [-119.0415202, 38.0210785], [-119.0415822, 38.0212195], [-119.0415216, 38.0212666], [-119.0414953, 38.0213833], [-119.0415446, 38.021456], [-119.04167, 38.0214862], [-119.0415898, 38.0215436], [-119.0417101, 38.0216562], [-119.0417686, 38.0217358], [-119.0417516, 38.0217978], [-119.0416809, 38.0218034], [-119.041742, 38.0218307], [-119.0417733, 38.0219575], [-119.041794, 38.0220655], [-119.0417276, 38.0221425], [-119.0416142, 38.0221777], [-119.0416294, 38.0222367], [-119.0417498, 38.0222147], [-119.0418444, 38.0222467], [-119.041769, 38.0222865], [-119.041702, 38.0223741], [-119.0418519, 38.0223488], [-119.0418713, 38.0223869], [-119.0417931, 38.022418], [-119.0419052, 38.0224356], [-119.0420172, 38.0224941], [-119.0419269, 38.0225245], [-119.0419039, 38.0225619], [-119.0420451, 38.0225875], [-119.0421487, 38.0225642], [-119.042196, 38.0226261], [-119.0422751, 38.0226508], [-119.0421991, 38.0227198], [-119.0422501, 38.0227419], [-119.0423477, 38.0227363], [-119.0423857, 38.0228143], [-119.0424418, 38.0228189], [-119.0424779, 38.0228755], [-119.0424545, 38.0229572], [-119.0424856, 38.0229854], [-119.0424517, 38.0230005], [-119.0424411, 38.0230376], [-119.0424879, 38.0230496], [-119.0425393, 38.0230227], [-119.0425331, 38.0229693], [-119.042593, 38.0229402], [-119.0427768, 38.0229861], [-119.0428346, 38.0230827], [-119.0428755, 38.0230829], [-119.0429914, 38.0230517], [-119.0432, 38.0232778], [-119.043291, 38.0234406], [-119.0431964, 38.0235442], [-119.0430876, 38.0236172], [-119.0429089, 38.0235926], [-119.0428307, 38.0235886], [-119.0427664, 38.0236246], [-119.0426403, 38.0235543], [-119.0425655, 38.0235566], [-119.0424589, 38.0235877], [-119.04242, 38.0235584], [-119.0423415, 38.0235853], [-119.042316, 38.0235522], [-119.0423458, 38.0235251], [-119.0422209, 38.0235117], [-119.04214, 38.023482], [-119.0420599, 38.0234985], [-119.0420935, 38.0234538], [-119.042059, 38.0234415], [-119.0419923, 38.0234822], [-119.0420294, 38.0235398], [-119.0421238, 38.0235522], [-119.0421327, 38.0236374], [-119.0420471, 38.0235734], [-119.0419245, 38.0235531], [-119.0418469, 38.0235337], [-119.0418127, 38.0234857], [-119.0417574, 38.0234789], [-119.0417236, 38.0234312], [-119.0416642, 38.0234235], [-119.0416367, 38.0233609], [-119.0415803, 38.0233371], [-119.041499, 38.0233808], [-119.0414953, 38.0233489], [-119.0415228, 38.0233033], [-119.0414254, 38.023264], [-119.0413726, 38.0233316], [-119.0413219, 38.0233491], [-119.0413201, 38.0234098], [-119.0413701, 38.0234239], [-119.0414189, 38.0235226], [-119.041494, 38.0235002], [-119.0414998, 38.0235718], [-119.0415299, 38.0236283], [-119.0415934, 38.0236093], [-119.0416304, 38.0236142], [-119.0416307, 38.0236403], [-119.0416686, 38.0236287], [-119.0416558, 38.0236622], [-119.0415878, 38.0237078], [-119.0416577, 38.0237846], [-119.0417125, 38.0237976], [-119.0417443, 38.0237694], [-119.0417786, 38.023793], [-119.0417519, 38.0238148], [-119.0417669, 38.0238543], [-119.0417045, 38.0238727], [-119.0417135, 38.0238935], [-119.0418139, 38.023892], [-119.0417734, 38.023954], [-119.0417929, 38.0239718], [-119.0418491, 38.023956], [-119.0418777, 38.024002], [-119.0418826, 38.023957], [-119.0419264, 38.0239549], [-119.0420035, 38.0240204], [-119.0422618, 38.0241307], [-119.0423178, 38.0240946], [-119.0423517, 38.0241077], [-119.0423447, 38.0241621], [-119.0424828, 38.0241734], [-119.0425633, 38.0241544], [-119.0425914, 38.0241957], [-119.0428085, 38.0241528], [-119.0429068, 38.024171], [-119.0430158, 38.0241528], [-119.0431108, 38.0240855], [-119.0431599, 38.0240594], [-119.0431434, 38.0239941], [-119.0431539, 38.0239089], [-119.043102, 38.0238577], [-119.0430365, 38.023866], [-119.0430264, 38.023796], [-119.0430793, 38.0237583], [-119.0431699, 38.0237199], [-119.0432696, 38.0237139], [-119.0433557, 38.0237219], [-119.0434103, 38.0236781], [-119.0436536, 38.0236781], [-119.0439693, 38.0237129], [-119.0441872, 38.0238247], [-119.0442434, 38.0238251], [-119.0442319, 38.0238589], [-119.0443809, 38.0239469], [-119.0444506, 38.0240251], [-119.0445924, 38.0241333], [-119.0447114, 38.0241896], [-119.0447677, 38.0241976], [-119.0448487, 38.024278], [-119.0449517, 38.0243434], [-119.0449451, 38.0243698], [-119.0449586, 38.0243865], [-119.044991, 38.02437], [-119.0450704, 38.024423], [-119.0451125, 38.0244918], [-119.0450809, 38.0245209], [-119.0451504, 38.0245379], [-119.0451496, 38.0245757], [-119.045234, 38.0245927], [-119.0452139, 38.0246432], [-119.0452456, 38.0246797], [-119.0452755, 38.0246976], [-119.045304, 38.0246926], [-119.0453228, 38.0247516], [-119.0453802, 38.0247717], [-119.0454032, 38.0248473], [-119.0454379, 38.024894], [-119.0454493, 38.0249774], [-119.0455955, 38.0250899], [-119.0456245, 38.025072], [-119.0456156, 38.0251208], [-119.0456392, 38.0251483], [-119.0456921, 38.0251738], [-119.0457109, 38.0252038], [-119.0457338, 38.0252027], [-119.0457387, 38.0251739], [-119.0457924, 38.0251853], [-119.0458615, 38.0253109], [-119.0459383, 38.0253008], [-119.0459831, 38.0253807], [-119.0461019, 38.0253617], [-119.0462154, 38.0253612], [-119.0461723, 38.0253223], [-119.0462177, 38.0253119], [-119.0462262, 38.0252766], [-119.0462433, 38.0253292], [-119.0462564, 38.0254019], [-119.0463286, 38.0254344], [-119.0464098, 38.0254064], [-119.0464379, 38.0254453], [-119.046534, 38.0254479], [-119.0466398, 38.0254039], [-119.0467584, 38.0254028], [-119.0469352, 38.0252619], [-119.0470166, 38.0252651], [-119.0471148, 38.0251731], [-119.0471226, 38.0250959], [-119.0472043, 38.0250465], [-119.0471398, 38.0249946], [-119.0472715, 38.0249604], [-119.0472803, 38.0248922], [-119.0473801, 38.0248893], [-119.0473989, 38.0249357], [-119.0475378, 38.025131], [-119.0477682, 38.0252906], [-119.0480514, 38.0253847], [-119.0482819, 38.0253694], [-119.0486571, 38.025254], [-119.0486852, 38.0252167], [-119.0488774, 38.0251636], [-119.0491419, 38.0249928], [-119.0491879, 38.0250475], [-119.0492012, 38.0249827], [-119.0492613, 38.0249948], [-119.0492763, 38.0249286], [-119.049354, 38.0248943], [-119.049334, 38.0248535], [-119.0494175, 38.0248065]], [[-119.0426509, 38.0198281], [-119.0426679, 38.0198528], [-119.0426706, 38.0198567], [-119.0426591, 38.0198904], [-119.0425949, 38.0199085], [-119.0425883, 38.0199591], [-119.0425916, 38.0200174], [-119.0427019, 38.0199021], [-119.0428467, 38.0197905], [-119.0428154, 38.01974], [-119.0427513, 38.0197348], [-119.0427266, 38.0197944], [-119.0426509, 38.0198281]], [[-119.0432111, 38.0239612], [-119.0431848, 38.0240539], [-119.0432465, 38.0240431], [-119.0432693, 38.0239774], [-119.0432111, 38.0239612]], [[-119.0447001, 37.9829329], [-119.0448235, 37.9829287], [-119.0448951, 37.9829033], [-119.0448933, 37.9828285], [-119.0448987, 37.9827566], [-119.0449291, 37.9827383], [-119.0449366, 37.9826932], [-119.0449438, 37.9826298], [-119.0450158, 37.9825948], [-119.0450482, 37.9825229], [-119.0451118, 37.9824472], [-119.0450974, 37.9823924], [-119.045113, 37.9823725], [-119.0451154, 37.9822959], [-119.0451646, 37.9822798], [-119.0451454, 37.9822249], [-119.0452199, 37.9822353], [-119.0452427, 37.9821644], [-119.0452042, 37.9820972], [-119.0451754, 37.9821521], [-119.0451166, 37.9821398], [-119.0450494, 37.9820811], [-119.0450458, 37.9821738], [-119.0450014, 37.9822107], [-119.0449354, 37.9821208], [-119.0448574, 37.9820934], [-119.0448658, 37.9820366], [-119.044849, 37.9819742], [-119.0447817, 37.9819884], [-119.0447325, 37.9819685], [-119.0446773, 37.9819761], [-119.0445813, 37.9819553], [-119.0445201, 37.9819969], [-119.0444648, 37.9819884], [-119.0444444, 37.982012], [-119.0444281, 37.9819922], [-119.0443887, 37.9819993], [-119.0443887, 37.9820387], [-119.0443529, 37.9820698], [-119.0443082, 37.9820402], [-119.0442545, 37.9820655], [-119.0442062, 37.9820444], [-119.0441543, 37.982067], [-119.0441669, 37.9821304], [-119.0441311, 37.9821234], [-119.0441257, 37.9821614], [-119.0440577, 37.9821657], [-119.0440434, 37.9822023], [-119.0440398, 37.9822715], [-119.0441007, 37.9823363], [-119.0441669, 37.9823702], [-119.0442474, 37.9824068], [-119.0443601, 37.9824139], [-119.0443816, 37.9824731], [-119.044412, 37.9824901], [-119.0444138, 37.9825324], [-119.0444478, 37.9825366], [-119.0444675, 37.9826438], [-119.0445372, 37.9826903], [-119.0445587, 37.9827834], [-119.0445981, 37.9828539], [-119.0446178, 37.9829512], [-119.0447001, 37.9829329]], [[-119.0462663, 38.0286426], [-119.0464931, 38.028562], [-119.046352, 38.0280007], [-119.0463204, 38.0278561], [-119.0459866, 38.027937], [-119.0459203, 38.0281618], [-119.0457616, 38.0284331], [-119.0458337, 38.0286183], [-119.0457428, 38.028747], [-119.0456325, 38.0288417], [-119.0457857, 38.0291563], [-119.0457009, 38.0292687], [-119.0459888, 38.0293374], [-119.0459674, 38.0291676], [-119.0460449, 38.0290694], [-119.0462727, 38.0289239], [-119.0462026, 38.0288189], [-119.0462663, 38.0286426]], [[-119.0480004, 38.0305884], [-119.0479928, 38.0302947], [-119.0478014, 38.0300853], [-119.0470546, 38.0299307], [-119.0468013, 38.0301903], [-119.04652, 38.0303641], [-119.0460707, 38.0305498], [-119.0459085, 38.0309441], [-119.0457409, 38.031199], [-119.0457218, 38.0315508], [-119.0459648, 38.0319062], [-119.0464125, 38.0321065], [-119.0470997, 38.0322132], [-119.047638, 38.0322979], [-119.0475041, 38.0320865], [-119.0474775, 38.0318667], [-119.0477557, 38.0316087], [-119.0480554, 38.0311015], [-119.0481593, 38.0306886], [-119.0480004, 38.0305884]], [[-119.0460839, 38.0352218], [-119.0460535, 38.0352766], [-119.0460904, 38.0353296], [-119.0461664, 38.0353501], [-119.0461903, 38.035292], [-119.046136, 38.0352372], [-119.0460839, 38.0352218]], [[-119.0461026, 38.0385438], [-119.0461549, 38.0385365], [-119.0461571, 38.0384594], [-119.0462261, 38.0383891], [-119.0461173, 38.0384144], [-119.0461026, 38.0385438]], [[-119.0472418, 38.0372961], [-119.0473135, 38.0375815], [-119.0472952, 38.0371498], [-119.0473749, 38.0369878], [-119.0475318, 38.0369333], [-119.0474442, 38.0367351], [-119.0472308, 38.0365518], [-119.0470929, 38.0364175], [-119.0470243, 38.036354], [-119.0470894, 38.0366073], [-119.0471214, 38.0368601], [-119.0472418, 38.0372961]], [[-119.0493531, 38.0359079], [-119.0495316, 38.0359274], [-119.0497172, 38.0359081], [-119.0498459, 38.0358786], [-119.049964, 38.03583], [-119.0500061, 38.0357785], [-119.0499854, 38.0356293], [-119.0499217, 38.0355099], [-119.0498865, 38.0353865], [-119.0496407, 38.0354083], [-119.0495123, 38.0354353], [-119.04942, 38.0354233], [-119.049315, 38.0355247], [-119.0492514, 38.0355731], [-119.0491487, 38.0356132], [-119.0490011, 38.0356063], [-119.0488586, 38.0356657], [-119.0487042, 38.0358469], [-119.0487252, 38.035913], [-119.0488043, 38.0359506], [-119.0489219, 38.0359768], [-119.0490129, 38.0359701], [-119.0491454, 38.0359306], [-119.0493531, 38.0359079]], [[-119.0498993, 38.0285872], [-119.0500891, 38.0286126], [-119.0502292, 38.0285243], [-119.0501545, 38.0283919], [-119.0497781, 38.0281219], [-119.0493724, 38.0279434], [-119.0490643, 38.0280538], [-119.0489234, 38.028348], [-119.0490982, 38.0285482], [-119.0498993, 38.0285872]], [[-119.0491538, 38.0372102], [-119.0489886, 38.0371674], [-119.0490538, 38.037241], [-119.0491603, 38.0372855], [-119.0492515, 38.0372752], [-119.0491538, 38.0372102]], [[-119.0530001, 38.0160659], [-119.0530075, 38.0162108], [-119.0530983, 38.0161065], [-119.0531277, 38.0160156], [-119.0530124, 38.0159267], [-119.0529535, 38.0160117], [-119.0530001, 38.0160659]], [[-119.0532921, 38.0164061], [-119.0534565, 38.0163693], [-119.0535055, 38.016466], [-119.0536724, 38.0164061], [-119.0537779, 38.0163133], [-119.0538637, 38.0162302], [-119.0536625, 38.0162263], [-119.0534785, 38.0162572], [-119.0533362, 38.0162147], [-119.0532185, 38.016234], [-119.0532504, 38.0161316], [-119.0531719, 38.0161297], [-119.0530467, 38.016263], [-119.0531841, 38.0163075], [-119.0532921, 38.0164061]], [[-119.0534859, 38.01537], [-119.0534785, 38.0154261], [-119.0535595, 38.0154995], [-119.053535, 38.0156174], [-119.0535865, 38.0156503], [-119.0535521, 38.0157121], [-119.0534197, 38.0157044], [-119.0533313, 38.0156503], [-119.0532602, 38.0157257], [-119.0532528, 38.0158648], [-119.0531939, 38.0159286], [-119.0531866, 38.0160311], [-119.0532921, 38.0160311], [-119.0533117, 38.0159518], [-119.0535374, 38.0158977], [-119.0535472, 38.0159905], [-119.0533976, 38.0159847], [-119.0534687, 38.0160369], [-119.0533706, 38.0161103], [-119.0534638, 38.016178], [-119.0536527, 38.0161857], [-119.0537214, 38.0160717], [-119.0537214, 38.0159634], [-119.0537754, 38.0158397], [-119.0536429, 38.0157218], [-119.053692, 38.0156484], [-119.0538343, 38.0157334], [-119.0539202, 38.01566], [-119.0537631, 38.0155614], [-119.0536037, 38.0154667], [-119.0535718, 38.01537], [-119.0534859, 38.01537]], [[-119.0535767, 38.0150724], [-119.0534834, 38.0150743], [-119.053373, 38.0151787], [-119.0535718, 38.0152347], [-119.0536307, 38.0151245], [-119.0535767, 38.0150724]], [[-119.0537991, 37.9955271], [-119.0537, 37.9955931], [-119.0536442, 37.9956761], [-119.0536535, 37.9957615], [-119.053731, 37.9958006], [-119.0538239, 37.9958934], [-119.0538456, 37.9959935], [-119.0537124, 37.9960985], [-119.0537836, 37.9961864], [-119.0538952, 37.996201], [-119.0541027, 37.9962743], [-119.0542267, 37.9963011], [-119.0544528, 37.9964232], [-119.0546418, 37.9963353], [-119.054806, 37.9962962], [-119.054899, 37.9961619], [-119.0550167, 37.9961009], [-119.0551716, 37.9961156], [-119.0552986, 37.9960496], [-119.0554319, 37.9960057], [-119.0554009, 37.9958861], [-119.0551654, 37.9958421], [-119.0550384, 37.9957444], [-119.0548246, 37.9957127], [-119.0547348, 37.9957347], [-119.054617, 37.9956663], [-119.0545365, 37.9957176], [-119.0544621, 37.995681], [-119.0542762, 37.9957127], [-119.0540965, 37.9956639], [-119.0539757, 37.9956736], [-119.0539323, 37.9955711], [-119.0538642, 37.9955979], [-119.0537991, 37.9955271]], [[-119.0734551, 38.0242887], [-119.0732582, 38.0244156], [-119.0731079, 38.0245425], [-119.0729898, 38.0246383], [-119.0728526, 38.0247361], [-119.0728789, 38.0247944], [-119.0729481, 38.0248243], [-119.0730402, 38.0247918], [-119.0730863, 38.0248074], [-119.0730353, 38.0248787], [-119.0729168, 38.0248722], [-119.0728098, 38.0249345], [-119.072716, 38.0248709], [-119.0726419, 38.0249422], [-119.0725169, 38.024928], [-119.0725152, 38.0248515], [-119.0724494, 38.0248774], [-119.0724444, 38.0249513], [-119.0723506, 38.0249967], [-119.0724247, 38.0251199], [-119.0723737, 38.0251782], [-119.0725037, 38.0251989], [-119.0725218, 38.0251263], [-119.0726732, 38.0251004], [-119.0725942, 38.0251938], [-119.0725926, 38.0253869], [-119.0725333, 38.0255516], [-119.0724148, 38.0255477], [-119.072344, 38.0254751], [-119.0723161, 38.0255282], [-119.0723342, 38.0255918], [-119.0722552, 38.0255905], [-119.072242, 38.0254971], [-119.0721564, 38.0254012], [-119.0722272, 38.0252936], [-119.072191, 38.0252586], [-119.0720231, 38.0252702], [-119.0718915, 38.0253415], [-119.0720231, 38.0253804], [-119.0719507, 38.0254479], [-119.0718947, 38.025549], [-119.0717779, 38.0255153], [-119.0717252, 38.0255736], [-119.0716545, 38.0255697], [-119.0716646, 38.0256657], [-119.0715132, 38.0256683], [-119.0713272, 38.0256721], [-119.0712218, 38.0256838], [-119.0711725, 38.0257525], [-119.0711313, 38.0257901], [-119.0712021, 38.0259224], [-119.0711412, 38.0259263], [-119.0710968, 38.025829], [-119.0710309, 38.0258277], [-119.0710128, 38.0257512], [-119.0709421, 38.0257564], [-119.0709009, 38.025842], [-119.0709552, 38.0259055], [-119.0709355, 38.0259755], [-119.0708417, 38.0259613], [-119.0707758, 38.0260377], [-119.0706705, 38.0260377], [-119.0706376, 38.0259859], [-119.0705109, 38.0260014], [-119.0704368, 38.025925], [-119.0703957, 38.0259431], [-119.0703775, 38.026065], [-119.0702475, 38.0262089], [-119.0700829, 38.0263165], [-119.0699826, 38.0264915], [-119.0699003, 38.0266432], [-119.0697867, 38.0266445], [-119.0697028, 38.0265771], [-119.0697159, 38.026686], [-119.0696419, 38.0268506], [-119.0695119, 38.0270425], [-119.0693983, 38.0270321], [-119.0693588, 38.027093], [-119.0693539, 38.0272175], [-119.069288, 38.0272201], [-119.069102, 38.0273743], [-119.0690115, 38.0274042], [-119.0690049, 38.0272227], [-119.0689046, 38.0271604], [-119.0688404, 38.0272616], [-119.0687531, 38.0272434], [-119.0687235, 38.0271215], [-119.0686083, 38.0270852], [-119.0684783, 38.0272875], [-119.0684223, 38.0275468], [-119.0683499, 38.0275986], [-119.0683071, 38.0275403], [-119.0682331, 38.0277257], [-119.0681705, 38.0278735], [-119.0680849, 38.0279733], [-119.0680998, 38.0278138], [-119.0680109, 38.0276673], [-119.0679566, 38.027561], [-119.0678578, 38.0274301], [-119.0678562, 38.0273199], [-119.0677558, 38.0273938], [-119.0676307, 38.0273692], [-119.0675764, 38.0275299], [-119.0675254, 38.0275986], [-119.067453, 38.0275364], [-119.0673707, 38.027596], [-119.0673012, 38.0274152], [-119.0672679, 38.027256], [-119.0671258, 38.0273382], [-119.0670325, 38.027277], [-119.0671169, 38.0271389], [-119.0671258, 38.026936], [-119.0669437, 38.0268975], [-119.0669504, 38.0271056], [-119.0668127, 38.0272281], [-119.0665818, 38.0274309], [-119.0664819, 38.027319], [-119.0663575, 38.0273942], [-119.0662354, 38.0276216], [-119.0662132, 38.0275166], [-119.0663775, 38.0272683], [-119.0664486, 38.0270567], [-119.0663376, 38.0269709], [-119.0662465, 38.0271756], [-119.0661177, 38.0270514], [-119.06606, 38.0269832], [-119.0658779, 38.0270829], [-119.0657958, 38.0271931], [-119.0657225, 38.0271651], [-119.065727, 38.0269342], [-119.0654827, 38.026859], [-119.0652318, 38.0269307], [-119.064901, 38.0269552], [-119.0645524, 38.0270724], [-119.0643503, 38.0271056], [-119.0639484, 38.0270497], [-119.0637975, 38.0269692], [-119.0636354, 38.026901], [-119.063531, 38.0267995], [-119.0635621, 38.0267296], [-119.0636798, 38.0267995], [-119.0636998, 38.0266894], [-119.0635332, 38.0266124], [-119.0630603, 38.0266054], [-119.0625363, 38.0265879], [-119.0618635, 38.0265494], [-119.061566, 38.026469], [-119.0612152, 38.0264882], [-119.0608888, 38.0263833], [-119.0605979, 38.0264165], [-119.0603759, 38.0267471], [-119.0602116, 38.0271126], [-119.0600384, 38.0275953], [-119.0598785, 38.0278402], [-119.0596942, 38.0283194], [-119.0596765, 38.0285101], [-119.0598363, 38.028685], [-119.059843, 38.0290138], [-119.0597298, 38.0292884], [-119.0594966, 38.0295595], [-119.059279, 38.0297518], [-119.0591702, 38.0299897], [-119.0589571, 38.0302485], [-119.0587328, 38.0304112], [-119.0586662, 38.0306473], [-119.0587328, 38.0307522], [-119.0586551, 38.0308939], [-119.058553, 38.0309674], [-119.0585685, 38.0311055], [-119.0585441, 38.0312035], [-119.0583931, 38.0312594], [-119.0583332, 38.0314063], [-119.0581333, 38.0315935], [-119.0580059, 38.0319475], [-119.0579637, 38.0321084], [-119.0577816, 38.0323462], [-119.0576262, 38.0325351], [-119.0576062, 38.032717], [-119.057433, 38.033002], [-119.0573353, 38.0333413], [-119.0573242, 38.0336107], [-119.0572221, 38.0338433], [-119.0571555, 38.0339377], [-119.0571621, 38.0341738], [-119.0573864, 38.0342542], [-119.0575596, 38.0342857], [-119.0575618, 38.0342367], [-119.0574197, 38.0341895], [-119.057393, 38.0341126], [-119.057473, 38.0340566], [-119.0574264, 38.0339185], [-119.0574419, 38.0337593], [-119.0574419, 38.0336351], [-119.0575218, 38.033511], [-119.0574752, 38.0333536], [-119.0575307, 38.0330388], [-119.057675, 38.0327659], [-119.057735, 38.0326243], [-119.0577439, 38.0327904], [-119.0578638, 38.0327012], [-119.0580103, 38.0328219], [-119.0578904, 38.0329513], [-119.0577683, 38.0329933], [-119.0577861, 38.0330947], [-119.0578949, 38.033051], [-119.0578993, 38.0333396], [-119.0579459, 38.0334865], [-119.0578438, 38.0334602], [-119.0578549, 38.0337593], [-119.0577705, 38.0338537], [-119.0579637, 38.0340041], [-119.0581235, 38.0340968], [-119.0583545, 38.0343504], [-119.05833, 38.0344711], [-119.0584655, 38.034548], [-119.0586076, 38.0345708], [-119.0588851, 38.0347579], [-119.058632, 38.034653], [-119.0584566, 38.0346355], [-119.0583456, 38.0345743], [-119.0581768, 38.0345918], [-119.0583345, 38.0346145], [-119.0584588, 38.0346792], [-119.0586098, 38.0347019], [-119.0589073, 38.0348314], [-119.059025, 38.0349135], [-119.0592581, 38.0349992], [-119.0593914, 38.035043], [-119.059549, 38.0351287], [-119.0594846, 38.0350395], [-119.0593003, 38.0349852], [-119.0592937, 38.0349328], [-119.0594158, 38.0349765], [-119.0595668, 38.0350167], [-119.05968, 38.0350202], [-119.0598088, 38.0350587], [-119.059831, 38.0350045], [-119.0597044, 38.034966], [-119.0594913, 38.034973], [-119.059438, 38.0349153], [-119.0595201, 38.0348698], [-119.0596645, 38.0348191], [-119.0598021, 38.0348541], [-119.0598798, 38.0348471], [-119.0599775, 38.0349398], [-119.0601463, 38.0350814], [-119.0600064, 38.0350639], [-119.0598954, 38.0350255], [-119.0598643, 38.0350744], [-119.0600508, 38.0351199], [-119.0602373, 38.0351619], [-119.0604038, 38.0352353], [-119.0604727, 38.0353105], [-119.060748, 38.0353665], [-119.060839, 38.0354172], [-119.0609567, 38.035419], [-119.0612631, 38.0355466], [-119.0614696, 38.0356061], [-119.0615074, 38.0356795], [-119.0615917, 38.0354907], [-119.0617405, 38.0354644], [-119.0618382, 38.0355326], [-119.0618404, 38.0354557], [-119.0619847, 38.035419], [-119.0619981, 38.0352983], [-119.0622112, 38.0352266], [-119.0623955, 38.0351916], [-119.0627019, 38.0351864], [-119.0630083, 38.0352353], [-119.063166, 38.0352965], [-119.0634502, 38.035314], [-119.0638077, 38.0353962], [-119.0641822, 38.0354662], [-119.0643443, 38.0354364], [-119.064614, 38.0354512], [-119.0648666, 38.0354259], [-119.0651605, 38.0354801], [-119.0656428, 38.0354548], [-119.0659735, 38.0353608], [-119.0662812, 38.035292], [-119.0663914, 38.0352052], [-119.0667681, 38.0351039], [-119.0670161, 38.0350677], [-119.0673743, 38.0347458], [-119.0678015, 38.0342766], [-119.0680495, 38.033922], [-119.0683388, 38.0338063], [-119.0685501, 38.0334337], [-119.0687109, 38.0330646], [-119.0687476, 38.0327029], [-119.068867, 38.0323954], [-119.0690921, 38.0322832], [-119.0692069, 38.0320517], [-119.069432, 38.0318202], [-119.0695652, 38.0313969], [-119.0696432, 38.0312594], [-119.0697259, 38.0311762], [-119.0696203, 38.0309664], [-119.069657, 38.0307276], [-119.0696478, 38.0303875], [-119.0699142, 38.0299013], [-119.0704195, 38.0291994], [-119.0707826, 38.0287038], [-119.0712879, 38.0282407], [-119.071839, 38.0279476], [-119.0723259, 38.0275822], [-119.072629, 38.0273615], [-119.0725831, 38.0271589], [-119.0727668, 38.0269563], [-119.0727576, 38.0268116], [-119.0728724, 38.0267212], [-119.0729046, 38.0263666], [-119.0730745, 38.0259541], [-119.0730332, 38.025813], [-119.0731204, 38.0256213], [-119.0732215, 38.0255091], [-119.0731801, 38.0253174], [-119.0733547, 38.025122], [-119.0734833, 38.0249954], [-119.0736946, 38.0248253], [-119.0738645, 38.024724], [-119.0739793, 38.024554], [-119.0738278, 38.0245793], [-119.0737083, 38.0247349], [-119.0735981, 38.0247602], [-119.0736578, 38.0246118], [-119.073726, 38.0246565], [-119.0737992, 38.0245452], [-119.0735839, 38.024441], [-119.0734551, 38.0242887]], [[-119.0576787, 38.0343277], [-119.0578419, 38.034447], [-119.0579874, 38.0345197], [-119.0581191, 38.0345073], [-119.0580425, 38.0344578], [-119.0581309, 38.0344361], [-119.0580484, 38.034402], [-119.0580071, 38.0344268], [-119.0578773, 38.0344222], [-119.0577927, 38.0343649], [-119.0576492, 38.0342859], [-119.057606, 38.0343169], [-119.0576787, 38.0343277]], [[-119.0602021, 37.9985519], [-119.0601191, 37.9985417], [-119.0600589, 37.9985656], [-119.0600371, 37.9985379], [-119.059905, 37.9985091], [-119.0596902, 37.9983706], [-119.059548, 37.998243], [-119.0595057, 37.9981839], [-119.0595265, 37.9981374], [-119.0594886, 37.9980558], [-119.0594605, 37.9979929], [-119.0594752, 37.9979359], [-119.0594454, 37.9978875], [-119.0594001, 37.9978541], [-119.059444, 37.9977751], [-119.0594036, 37.9976931], [-119.0592987, 37.997593], [-119.0592942, 37.9974819], [-119.0593395, 37.9973791], [-119.0592811, 37.9973198], [-119.0593122, 37.997259], [-119.0591832, 37.9971917], [-119.0591775, 37.9971326], [-119.0592079, 37.9970867], [-119.0592024, 37.9969818], [-119.0591012, 37.9969539], [-119.059117, 37.9968746], [-119.0590622, 37.9967919], [-119.0589307, 37.9967822], [-119.0588086, 37.9968288], [-119.0587909, 37.9969674], [-119.0586808, 37.9969854], [-119.058628, 37.997068], [-119.0585436, 37.9972345], [-119.0586263, 37.9972764], [-119.0587119, 37.9972989], [-119.0588392, 37.9972837], [-119.0590148, 37.9973213], [-119.0591215, 37.997468], [-119.0591275, 37.997648], [-119.0590767, 37.9978024], [-119.0590925, 37.9978876], [-119.0590216, 37.9979744], [-119.0589804, 37.998067], [-119.0589107, 37.9982783], [-119.058953, 37.9984034], [-119.0589095, 37.9985326], [-119.0587864, 37.9986497], [-119.0586023, 37.9987219], [-119.0584612, 37.9987871], [-119.0583821, 37.9988763], [-119.0583503, 37.9989272], [-119.0584004, 37.9989515], [-119.058465, 37.9988614], [-119.0585888, 37.9987868], [-119.0587836, 37.9987379], [-119.0588653, 37.9987254], [-119.0589233, 37.9987478], [-119.0590131, 37.998782], [-119.0590901, 37.998714], [-119.0591914, 37.9986816], [-119.0592301, 37.9986865], [-119.0592914, 37.9986869], [-119.0593408, 37.9987113], [-119.0594597, 37.9986842], [-119.0596276, 37.9986629], [-119.0597826, 37.9986567], [-119.0599195, 37.9986675], [-119.059983, 37.9986527], [-119.0600004, 37.9986264], [-119.0600583, 37.9986454], [-119.0601088, 37.9986379], [-119.0601185, 37.998602], [-119.0601965, 37.9986096], [-119.0602518, 37.998584], [-119.0602021, 37.9985519]], [[-119.063921, 38.0259846], [-119.0638067, 38.0261046], [-119.0636689, 38.0260954], [-119.0635898, 38.0262016], [-119.0636807, 38.0262824], [-119.0638155, 38.0263147], [-119.0638624, 38.026167], [-119.064006, 38.0262247], [-119.0640705, 38.0260884], [-119.063921, 38.0259846]], [[-119.0686869, 38.0270328], [-119.0687866, 38.0270743], [-119.0687895, 38.0268896], [-119.0689273, 38.0269173], [-119.069068, 38.026982], [-119.0691236, 38.0269058], [-119.0690885, 38.0268296], [-119.0690797, 38.0266911], [-119.068895, 38.0267188], [-119.0687514, 38.026668], [-119.0686459, 38.026825], [-119.068599, 38.0270305], [-119.0686869, 38.0270328]], [[-119.0706438, 38.0256244], [-119.0707414, 38.0255124], [-119.0707442, 38.0252576], [-119.0707999, 38.0250665], [-119.0708696, 38.0249786], [-119.0710565, 38.0249106], [-119.0710844, 38.0249677], [-119.0710593, 38.025027], [-119.070917, 38.0251148], [-119.071062, 38.0250863], [-119.0711819, 38.0250006], [-119.0711401, 38.0248732], [-119.0709226, 38.0248447], [-119.0707553, 38.0249655], [-119.070496, 38.0249808], [-119.0703399, 38.0250973], [-119.070351, 38.0252312], [-119.0704347, 38.0253586], [-119.0705434, 38.0252884], [-119.0704904, 38.0252137], [-119.0704988, 38.0250797], [-119.0707079, 38.0250445], [-119.0707163, 38.0251763], [-119.070694, 38.0252664], [-119.0706354, 38.0254575], [-119.0705657, 38.0257013], [-119.0705378, 38.0258309], [-119.0705741, 38.0259209], [-119.0706549, 38.0257277], [-119.0706438, 38.0256244]], [[-119.0709673, 38.0256382], [-119.0710406, 38.0256775], [-119.0710904, 38.0257606], [-119.071149, 38.0256382], [-119.0712106, 38.0255782], [-119.0712194, 38.0254697], [-119.0711578, 38.0254235], [-119.0710962, 38.0253611], [-119.071023, 38.0252826], [-119.0709028, 38.0253981], [-119.070935, 38.0254397], [-119.070938, 38.0255205], [-119.0710025, 38.0255713], [-119.0709673, 38.0256382]], [[-119.0717763, 38.0251695], [-119.0717704, 38.0252388], [-119.0718261, 38.0252896], [-119.0718759, 38.0252272], [-119.0718349, 38.0251603], [-119.0717763, 38.0251695]], [[-119.0732447, 38.0241998], [-119.0732682, 38.0242736], [-119.0733707, 38.0242436], [-119.0734851, 38.0241882], [-119.073532, 38.0241882], [-119.0736404, 38.0240428], [-119.0735085, 38.0240312], [-119.073359, 38.0240635], [-119.0732447, 38.0241998]], [[-119.0738251, 38.0243706], [-119.0739013, 38.0243983], [-119.0739159, 38.0242667], [-119.0738104, 38.0243175], [-119.0737723, 38.0242436], [-119.0736932, 38.0243014], [-119.0735994, 38.0243683], [-119.0736697, 38.0244445], [-119.0737254, 38.0244376], [-119.0738251, 38.0243706]], [[-119.1179735, 37.9793459], [-119.118068, 37.9793721], [-119.1181625, 37.9793335], [-119.118138, 37.9792245], [-119.1182098, 37.9791942], [-119.1182133, 37.9791528], [-119.118159, 37.9791418], [-119.1180645, 37.9791804], [-119.1179035, 37.9791887], [-119.117823, 37.9792507], [-119.1178265, 37.979339], [-119.1179228, 37.9793087], [-119.1179735, 37.9793459]], [[-119.1240062, 37.9794486], [-119.1237966, 37.9794791], [-119.1237083, 37.9793878], [-119.1238186, 37.9793486], [-119.1238242, 37.9792747], [-119.1236146, 37.9791617], [-119.1233774, 37.9792226], [-119.1236091, 37.9794617], [-119.123576, 37.9796356], [-119.1237414, 37.9797703], [-119.1240503, 37.979879], [-119.1241992, 37.9797399], [-119.1239841, 37.9796486], [-119.124144, 37.9795704], [-119.1241385, 37.9793313], [-119.1240062, 37.9794486]], [[-119.1324499, 37.9798623], [-119.1327118, 37.9796949], [-119.1328321, 37.9794606], [-119.1330799, 37.9792262], [-119.1331507, 37.9788803], [-119.1328321, 37.9789361], [-119.1326976, 37.9791593], [-119.1325207, 37.9791481], [-119.1322871, 37.9793992], [-119.1322517, 37.9796614], [-119.1324499, 37.9798623]], [[-119.1446376, 38.012973], [-119.1446376, 38.0130817], [-119.1447479, 38.0131613], [-119.1448276, 38.0130986], [-119.1448766, 38.013031], [-119.1448184, 38.0129489], [-119.1447112, 38.0129393], [-119.1446376, 38.012973]]]]}, "properties": {"id": "mono_lake", "name": "Mono Lake", "osm": ["relation/60081"], "found_by": "name", "area_km2": 184.1916}}]}