{"type": "FeatureCollection", "features": [{"type": "Feature", "geometry": {"type": "MultiPolygon", "coordinates": [[[[-122.0492609, 43.5836234], [-122.0496099, 43.5840796], [-122.0504826, 43.5851511], [-122.0507348, 43.5856329], [-122.050885, 43.5862157], [-122.0508474, 43.5865149], [-122.0505631, 43.5868258], [-122.0502949, 43.5873853], [-122.0500535, 43.5880109], [-122.0497745, 43.5884733], [-122.0493615, 43.5891299], [-122.0489645, 43.5894602], [-122.0481491, 43.589942], [-122.0477629, 43.5900274], [-122.0475483, 43.5902295], [-122.0465773, 43.5909405], [-122.0457727, 43.5911115], [-122.0442975, 43.5912358], [-122.043474, 43.5912941], [-122.042892, 43.5912979], [-122.0427176, 43.5912086], [-122.0417628, 43.5911678], [-122.0410574, 43.5912358], [-122.0406336, 43.5913465], [-122.0400566, 43.591545], [-122.039435, 43.5916967], [-122.0387601, 43.5918614], [-122.0374497, 43.5919022], [-122.0362784, 43.5920759], [-122.0347907, 43.5919638], [-122.0329794, 43.5914687], [-122.031591, 43.5915334], [-122.0300696, 43.5920111], [-122.0269944, 43.5915396], [-122.0236171, 43.5905416], [-122.0223999, 43.5896622], [-122.0219278, 43.5894835], [-122.0212597, 43.5893692], [-122.0205116, 43.5893047], [-122.0198572, 43.5891649], [-122.0192856, 43.588934], [-122.0192456, 43.5889162], [-122.016024, 43.5876285], [-122.0149219, 43.5871017], [-122.0142514, 43.5867558], [-122.0138544, 43.5864217], [-122.0131087, 43.5859282], [-122.0121431, 43.5855163], [-122.0115799, 43.585458], [-122.0103943, 43.5853687], [-122.0089674, 43.5852754], [-122.0076692, 43.585221], [-122.0068699, 43.5850461], [-122.006076, 43.5850772], [-122.0034364, 43.5846449], [-122.0018308, 43.5844942], [-122.0009811, 43.5842217], [-122.0000162, 43.5838225], [-121.999203, 43.5830943], [-121.9978279, 43.5825926], [-121.9957523, 43.5822635], [-121.9952319, 43.5822239], [-121.9947707, 43.582243], [-121.9940349, 43.5821511], [-121.993777, 43.5820606], [-121.9933837, 43.5819541], [-121.9929, 43.5816958], [-121.990847, 43.580434], [-121.9897322, 43.5800676], [-121.9888157, 43.579546], [-121.9882342, 43.5795099], [-121.9871173, 43.5795334], [-121.9858865, 43.5793266], [-121.9854683, 43.5789864], [-121.9851394, 43.5788787], [-121.9849464, 43.5787979], [-121.98358, 43.5781159], [-121.9832163, 43.5779906], [-121.9824674, 43.5777113], [-121.9818001, 43.5772806], [-121.9815646, 43.577061], [-121.9810051, 43.576437], [-121.9792993, 43.5756753], [-121.9787516, 43.5755763], [-121.9780011, 43.5754849], [-121.9771028, 43.5751678], [-121.9767676, 43.5750117], [-121.9764561, 43.5747581], [-121.9757026, 43.5744372], [-121.9752491, 43.574043], [-121.9745196, 43.5732191], [-121.9739487, 43.5728851], [-121.9735593, 43.5725039], [-121.9732404, 43.5719848], [-121.972937, 43.5708405], [-121.9720847, 43.569635], [-121.9709411, 43.5683225], [-121.9690769, 43.5671774], [-121.9687045, 43.5669183], [-121.9684154, 43.566635], [-121.9677939, 43.5658807], [-121.9666987, 43.5645267], [-121.96639, 43.5641451], [-121.9659716, 43.5638574], [-121.9656175, 43.5636631], [-121.9653922, 43.5634648], [-121.9651264, 43.5631289], [-121.964719, 43.5627593], [-121.9646868, 43.5627049], [-121.9647861, 43.562631], [-121.9648156, 43.5625591], [-121.964837, 43.5623823], [-121.9648477, 43.5623346], [-121.9648477, 43.5623259], [-121.9648115, 43.5623201], [-121.9647793, 43.5623414], [-121.9647713, 43.5623745], [-121.9647659, 43.5624746], [-121.9647405, 43.5625358], [-121.9646949, 43.5626048], [-121.9646157, 43.5626466], [-121.9645876, 43.5626174], [-121.9645299, 43.5626446], [-121.9643877, 43.562495], [-121.9643234, 43.5624892], [-121.9642914, 43.5624485], [-121.964263, 43.5624124], [-121.9645058, 43.5622841], [-121.9645058, 43.562218], [-121.9644521, 43.5621908], [-121.9643717, 43.5622307], [-121.9643153, 43.5622258], [-121.9642657, 43.5622034], [-121.9642738, 43.5620829], [-121.964314, 43.5619041], [-121.9644038, 43.5617788], [-121.9648585, 43.5615426], [-121.9652581, 43.5613502], [-121.9654995, 43.5612822], [-121.9657812, 43.5611267], [-121.9657946, 43.5610295], [-121.9657275, 43.5608934], [-121.9656122, 43.5607963], [-121.9651455, 43.5605436], [-121.9646198, 43.560322], [-121.9640994, 43.560254], [-121.9634047, 43.5602248], [-121.9631287, 43.560239], [-121.9627234, 43.5602598], [-121.9621924, 43.5602326], [-121.9616496, 43.5601746], [-121.9608635, 43.5598249], [-121.9601252, 43.5590352], [-121.9598937, 43.55845], [-121.9599615, 43.5576878], [-121.9591981, 43.5567826], [-121.9592768, 43.556211], [-121.9604502, 43.5553149], [-121.9609207, 43.5548565], [-121.9610826, 43.5534946], [-121.9612003, 43.5529433], [-121.961506, 43.5527485], [-121.9614849, 43.5522901], [-121.961642, 43.5516285], [-121.9617379, 43.551255], [-121.9620805, 43.551106], [-121.9619487, 43.5508692], [-121.9624125, 43.5506858], [-121.9624152, 43.5501377], [-121.9631347, 43.549998], [-121.9634716, 43.5499324], [-121.9648128, 43.5499364], [-121.9667572, 43.5499423], [-121.9686345, 43.5495179], [-121.9721325, 43.5494011], [-121.9736053, 43.5494678], [-121.9747395, 43.5496313], [-121.9775719, 43.5503156], [-121.9806618, 43.5513109], [-121.9840092, 43.5531148], [-121.9857336, 43.5542038], [-121.9882408, 43.5551225], [-121.9885368, 43.5555468], [-121.9887114, 43.5559447], [-121.9885236, 43.5564832], [-121.9884458, 43.5567378], [-121.9885182, 43.5569633], [-121.9888347, 43.5573209], [-121.9894141, 43.5576514], [-121.9915277, 43.5584775], [-121.9970554, 43.5598325], [-121.9983373, 43.5607856], [-121.9987721, 43.5611387], [-122.0017871, 43.5631791], [-122.0037505, 43.5648447], [-122.0045176, 43.5655094], [-122.005896, 43.5658654], [-122.0070976, 43.5658032], [-122.0089859, 43.5653057], [-122.010135, 43.5648124], [-122.0108742, 43.5648703], [-122.0117325, 43.5658032], [-122.0125908, 43.5672958], [-122.0123979, 43.5685509], [-122.0123497, 43.5687841], [-122.0124516, 43.5689629], [-122.0124114, 43.569062], [-122.0122531, 43.5690581], [-122.0117998, 43.5689785], [-122.0115289, 43.5690465], [-122.0111963, 43.5691417], [-122.0108128, 43.5692486], [-122.0106733, 43.569373], [-122.0105955, 43.5695498], [-122.0106947, 43.5696781], [-122.0110434, 43.5699404], [-122.0118293, 43.570195], [-122.0130685, 43.5703816], [-122.0142272, 43.5707936], [-122.0152169, 43.5714601], [-122.0156622, 43.5722316], [-122.0159492, 43.5725406], [-122.0163944, 43.5727407], [-122.0170972, 43.5731916], [-122.0184273, 43.5741363], [-122.01994, 43.5755354], [-122.0205653, 43.575572], [-122.0210236, 43.5753177], [-122.021088, 43.5748203], [-122.0207852, 43.5736638], [-122.0206589, 43.5727683], [-122.0213455, 43.5721464], [-122.021697, 43.5719834], [-122.0223433, 43.5721503], [-122.0238346, 43.5732657], [-122.0262379, 43.5749447], [-122.0282143, 43.5758845], [-122.0307568, 43.5762907], [-122.0315596, 43.5762582], [-122.0330345, 43.5763655], [-122.0354663, 43.5768645], [-122.036932, 43.5774428], [-122.0380642, 43.5779111], [-122.0385259, 43.5784139], [-122.0386019, 43.5784967], [-122.0386426, 43.5787299], [-122.0386826, 43.5789593], [-122.0389475, 43.5804764], [-122.0391744, 43.5808147], [-122.0394732, 43.5812603], [-122.0394332, 43.5817213], [-122.0398917, 43.5827427], [-122.0397538, 43.5831576], [-122.0398155, 43.5832528], [-122.0400193, 43.5833889], [-122.0403922, 43.5834374], [-122.0407543, 43.5834471], [-122.0410681, 43.5835113], [-122.041221, 43.5836123], [-122.0413658, 43.5838649], [-122.0415348, 43.5840067], [-122.0421231, 43.5843309], [-122.0422643, 43.5843778], [-122.0427922, 43.5845203], [-122.0431777, 43.5846294], [-122.0432165, 43.5847022], [-122.0431951, 43.5848888], [-122.0432487, 43.5850384], [-122.0434078, 43.5851126], [-122.0435572, 43.5851685], [-122.0437422, 43.5851841], [-122.0440829, 43.5851316], [-122.0445845, 43.5851064], [-122.045086, 43.58512], [-122.0454749, 43.5852288], [-122.045652, 43.5852501], [-122.0457378, 43.5852152], [-122.045778, 43.5851141], [-122.0461535, 43.584813], [-122.04625, 43.5847658], [-122.0462608, 43.5847605], [-122.0464191, 43.5848363], [-122.0464996, 43.5848965], [-122.0465559, 43.5849218], [-122.0466524, 43.584914], [-122.0468026, 43.5847022], [-122.0469287, 43.584372], [-122.0470265, 43.5842439], [-122.0474416, 43.583875], [-122.0477414, 43.583587], [-122.048146, 43.5833657], [-122.0483959, 43.5832956], [-122.0485357, 43.5832637], [-122.0487285, 43.5832684], [-122.0489038, 43.5833074], [-122.0492609, 43.5836234]]]]}, "properties": {"id": "odell_lake", "name": "Odell Lake", "osm": ["way/128005865"], "found_by": "name", "area_km2": 13.9819}}]}