{"type": "FeatureCollection", "features": [{"type": "Feature", "geometry": {"type": "MultiPolygon", "coordinates": [[[[-122.1499336, 46.2529759], [-122.1498478, 46.253421], [-122.1501267, 46.25397], [-122.1505022, 46.2543038], [-122.1505022, 46.2547897], [-122.1501642, 46.2549028], [-122.1498424, 46.2551309], [-122.1499255, 46.2552033], [-122.1503547, 46.2551105], [-122.1507141, 46.2549492], [-122.1509709, 46.2550421], [-122.1516824, 46.255671], [-122.152492, 46.2560662], [-122.1530223, 46.2564729], [-122.1534028, 46.2571992], [-122.1538282, 46.2574343], [-122.1540372, 46.2576473], [-122.1542359, 46.2578497], [-122.1553516, 46.2581984], [-122.1559739, 46.2586509], [-122.1561134, 46.2588141], [-122.1568322, 46.2590292], [-122.1573687, 46.2594669], [-122.1588278, 46.2596449], [-122.1597505, 46.259771], [-122.1601367, 46.2599638], [-122.1607375, 46.2600751], [-122.1608448, 46.2602457], [-122.1610594, 46.26042], [-122.1611881, 46.2603496], [-122.1612471, 46.259975], [-122.1614349, 46.2597339], [-122.1618426, 46.2594446], [-122.1619821, 46.2591256], [-122.162296, 46.2590707], [-122.1633017, 46.2594372], [-122.1633768, 46.2596152], [-122.1633339, 46.260127], [-122.1632052, 46.2604608], [-122.163291, 46.2606611], [-122.1634948, 46.2606908], [-122.1637952, 46.2605647], [-122.16416, 46.2605721], [-122.1645892, 46.2608466], [-122.1649432, 46.2612397], [-122.1650934, 46.2616625], [-122.1656835, 46.2618479], [-122.1660814, 46.2620706], [-122.166137, 46.2623011], [-122.1655762, 46.2626342], [-122.1655149, 46.2630898], [-122.1656711, 46.2632507], [-122.1657775, 46.2636362], [-122.1650694, 46.2640701], [-122.1648978, 46.2644596], [-122.1642969, 46.2647822], [-122.1642647, 46.2652235], [-122.163782, 46.265739], [-122.1638678, 46.2660505], [-122.1634225, 46.2666884], [-122.1635566, 46.267901], [-122.1636049, 46.2688244], [-122.1632938, 46.2694362], [-122.163444, 46.2695327], [-122.1633367, 46.2701223], [-122.1635352, 46.2702001], [-122.1634152, 46.2706293], [-122.1636049, 46.2707527], [-122.1632562, 46.2721877], [-122.1630041, 46.272514], [-122.1629934, 46.2731889], [-122.1631811, 46.2734113], [-122.1630309, 46.2736264], [-122.1631382, 46.2738118], [-122.1626554, 46.2743013], [-122.1625589, 46.2751726], [-122.1627466, 46.2756509], [-122.1625507, 46.2759913], [-122.1624557, 46.2762519], [-122.1624487, 46.276286], [-122.1624569, 46.2763204], [-122.1624838, 46.276353], [-122.1625217, 46.2763793], [-122.1625893, 46.2764095], [-122.1627292, 46.2764564], [-122.1625731, 46.2764612], [-122.162484, 46.2764695], [-122.1624003, 46.2765], [-122.1623562, 46.2765405], [-122.16232, 46.2766309], [-122.1622155, 46.2769783], [-122.1613787, 46.2779275], [-122.1609066, 46.2792808], [-122.1606652, 46.2799704], [-122.1607779, 46.28033], [-122.1602468, 46.2811457], [-122.1598286, 46.2814925], [-122.1593014, 46.2819298], [-122.1587716, 46.2823691], [-122.1583746, 46.28294], [-122.1593778, 46.2834461], [-122.1594314, 46.28365], [-122.1601019, 46.284055], [-122.1605245, 46.2843694], [-122.1606062, 46.2846482], [-122.1604371, 46.28483], [-122.159934, 46.2851285], [-122.159764, 46.2853006], [-122.1598754, 46.2855038], [-122.1602092, 46.285764], [-122.1603475, 46.286008], [-122.1605901, 46.2860606], [-122.1604964, 46.2864765], [-122.1604721, 46.2866686], [-122.1602402, 46.2866419], [-122.1600536, 46.2868428], [-122.1601502, 46.2872839], [-122.1602509, 46.2873574], [-122.1602134, 46.2875205], [-122.1603433, 46.2877362], [-122.1601287, 46.2880884], [-122.1598337, 46.2880846], [-122.1595708, 46.2883441], [-122.1595995, 46.2887224], [-122.1594957, 46.2893598], [-122.1591095, 46.2895637], [-122.158998, 46.289488], [-122.1590614, 46.2890942], [-122.1588198, 46.2890744], [-122.1585355, 46.2894303], [-122.1582566, 46.2893969], [-122.1583531, 46.2891226], [-122.1585021, 46.2889338], [-122.1586287, 46.2887953], [-122.1585971, 46.2886276], [-122.1584177, 46.2885765], [-122.1581539, 46.2886421], [-122.1580688, 46.2887779], [-122.1581439, 46.2889187], [-122.1579293, 46.2890448], [-122.1579776, 46.289256], [-122.1577738, 46.2893635], [-122.1577469, 46.2896082], [-122.1575055, 46.2899492], [-122.1567867, 46.289586], [-122.1563586, 46.2892115], [-122.1566344, 46.2889265], [-122.1566872, 46.2886567], [-122.15655, 46.2884963], [-122.1563601, 46.288438], [-122.156149, 46.2880953], [-122.1562546, 46.2878036], [-122.1559445, 46.287562], [-122.1556495, 46.2877362], [-122.1554456, 46.2878215], [-122.1553598, 46.2877955], [-122.1551291, 46.2879364], [-122.1548934, 46.2878984], [-122.1547773, 46.2882411], [-122.1546839, 46.2882997], [-122.1544693, 46.288244], [-122.1542923, 46.2882663], [-122.1542919, 46.2884599], [-122.1543405, 46.2885814], [-122.154598, 46.2886073], [-122.1545873, 46.2888965], [-122.1541594, 46.2890363], [-122.1538953, 46.2889854], [-122.153729, 46.2888705], [-122.1531979, 46.2889743], [-122.1530046, 46.2883578], [-122.1531925, 46.2879215], [-122.1531925, 46.2877399], [-122.1529624, 46.2875557], [-122.1531827, 46.2870811], [-122.1532301, 46.2866055], [-122.1536968, 46.2863757], [-122.1540914, 46.2861411], [-122.1540294, 46.2860198], [-122.1543142, 46.2857078], [-122.154185, 46.2855638], [-122.1540669, 46.285638], [-122.1538524, 46.2855156], [-122.1533423, 46.2856015], [-122.1527634, 46.2854749], [-122.1524791, 46.2854749], [-122.1520553, 46.2854971], [-122.1520231, 46.2851968], [-122.1518622, 46.285182], [-122.1515081, 46.2850708], [-122.1516476, 46.2849929], [-122.1515779, 46.2848706], [-122.1511219, 46.2845407], [-122.150505, 46.2837065], [-122.1505479, 46.2833692], [-122.14999, 46.2829243], [-122.1496413, 46.2823941], [-122.1493463, 46.2817676], [-122.1491049, 46.2814784], [-122.1491102, 46.2811225], [-122.1487025, 46.2802549], [-122.1487555, 46.2792228], [-122.1492481, 46.276989], [-122.1487417, 46.2761356], [-122.1486783, 46.2755814], [-122.1480347, 46.2743123], [-122.1480052, 46.2739147], [-122.1481124, 46.2737627], [-122.1484719, 46.2737923], [-122.1487937, 46.2738888], [-122.1489316, 46.2737945], [-122.149111, 46.2734298], [-122.1488999, 46.2729849], [-122.1483968, 46.2730174], [-122.1481446, 46.2731768], [-122.1480159, 46.2734178], [-122.1471415, 46.2730767], [-122.1467016, 46.272958], [-122.1459613, 46.2725761], [-122.1458433, 46.2725984], [-122.1455965, 46.2729877], [-122.1454284, 46.2735027], [-122.1446271, 46.2745659], [-122.1436975, 46.2762173], [-122.1432737, 46.2765769], [-122.1430913, 46.2770886], [-122.1427534, 46.2774001], [-122.1426193, 46.2777671], [-122.1417395, 46.2785902], [-122.1411012, 46.2787126], [-122.1405862, 46.2793206], [-122.1403452, 46.2794928], [-122.1396581, 46.2804292], [-122.139803, 46.2807147], [-122.1396565, 46.2809709], [-122.1397937, 46.2812042], [-122.1393294, 46.2816637], [-122.1390129, 46.2817876], [-122.1380527, 46.2824294], [-122.1375016, 46.2833098], [-122.1364488, 46.2844566], [-122.1364277, 46.2850181], [-122.1360056, 46.2857546], [-122.1353936, 46.2862869], [-122.1345811, 46.2878036], [-122.1342856, 46.2881099], [-122.1343701, 46.288839], [-122.1340791, 46.289156], [-122.1338324, 46.2893376], [-122.1333335, 46.2894859], [-122.1330974, 46.2892523], [-122.1328507, 46.2892449], [-122.1327134, 46.2893786], [-122.1323464, 46.2891597], [-122.1319431, 46.2890796], [-122.1314988, 46.2891745], [-122.1311609, 46.2893079], [-122.1308985, 46.2895171], [-122.1303604, 46.2894442], [-122.1302597, 46.2897787], [-122.1299594, 46.2900275], [-122.1297447, 46.2902828], [-122.1297232, 46.2904015], [-122.129569, 46.2904359], [-122.1290836, 46.2903556], [-122.1288649, 46.2901457], [-122.128881, 46.2899529], [-122.1287362, 46.2899455], [-122.128586, 46.2900085], [-122.128307, 46.2902866], [-122.1281944, 46.2900938], [-122.128012, 46.2900975], [-122.1278296, 46.2903385], [-122.1274594, 46.2903236], [-122.1269015, 46.290635], [-122.1263401, 46.2907858], [-122.125952, 46.2908018], [-122.1253834, 46.2907314], [-122.1250309, 46.2907834], [-122.123142, 46.2920632], [-122.1230096, 46.2923329], [-122.1224088, 46.2924626], [-122.1216712, 46.2930555], [-122.119783, 46.2940081], [-122.119107, 46.2943157], [-122.1179698, 46.2948087], [-122.1173816, 46.294949], [-122.116972, 46.2949162], [-122.1166716, 46.2949829], [-122.1163712, 46.294868], [-122.1157976, 46.2948852], [-122.1155665, 46.2953091], [-122.1154914, 46.2962505], [-122.1155343, 46.2964952], [-122.1154506, 46.2967571], [-122.1151535, 46.29704], [-122.1149872, 46.2974143], [-122.1144829, 46.2975292], [-122.1139952, 46.298046], [-122.1136192, 46.2982446], [-122.1134529, 46.2983446], [-122.112997, 46.2983706], [-122.1128127, 46.2981131], [-122.1124659, 46.2980778], [-122.1118736, 46.2981058], [-122.1120318, 46.2973185], [-122.1116203, 46.2970997], [-122.1115148, 46.2963561], [-122.1119263, 46.2952115], [-122.1119084, 46.2935019], [-122.1125779, 46.2914491], [-122.1153095, 46.2899315], [-122.1164446, 46.2882471], [-122.117044, 46.2869796], [-122.1178868, 46.2859471], [-122.1181557, 46.2849825], [-122.1181841, 46.2838285], [-122.1182358, 46.2833604], [-122.1181582, 46.2829085], [-122.1182952, 46.2821243], [-122.1180704, 46.281608], [-122.1176345, 46.281257], [-122.117481, 46.2809238], [-122.1174474, 46.2807005], [-122.1173078, 46.2804486], [-122.1168684, 46.2800555], [-122.1167274, 46.2793956], [-122.1168962, 46.2786736], [-122.117334, 46.2781821], [-122.1175872, 46.2771176], [-122.1187856, 46.2749263], [-122.1188725, 46.2744628], [-122.1177854, 46.2733793], [-122.117432, 46.2730615], [-122.1174788, 46.2728584], [-122.1176236, 46.2726936], [-122.1178459, 46.2724233], [-122.1179303, 46.2722774], [-122.1188806, 46.272044], [-122.119888, 46.2716642], [-122.1206115, 46.2716389], [-122.1211365, 46.2714447], [-122.1218142, 46.271354], [-122.1222233, 46.270799], [-122.1223332, 46.2703875], [-122.1225377, 46.269841], [-122.1220065, 46.2686592], [-122.1218051, 46.2675872], [-122.1215089, 46.2669963], [-122.1214387, 46.2667368], [-122.1211803, 46.2665296], [-122.1207531, 46.26562], [-122.1205404, 46.2650168], [-122.1208215, 46.26456], [-122.1207054, 46.2643777], [-122.120811, 46.2641369], [-122.1211785, 46.2638903], [-122.1214489, 46.2635239], [-122.121539, 46.2633344], [-122.1217265, 46.2632347], [-122.1219248, 46.2632871], [-122.1225098, 46.2632251], [-122.1231361, 46.2633245], [-122.1238103, 46.2631375], [-122.1243258, 46.2631924], [-122.1247116, 46.2632796], [-122.1251623, 46.2632622], [-122.1262454, 46.2635635], [-122.1270154, 46.2640348], [-122.1271737, 46.2645527], [-122.1272618, 46.2652496], [-122.1269838, 46.2661576], [-122.1266112, 46.2665281], [-122.1268677, 46.2667776], [-122.1273742, 46.2668506], [-122.1277119, 46.2667776], [-122.1280179, 46.2661065], [-122.1285032, 46.2656178], [-122.1292313, 46.2651947], [-122.1300122, 46.2649685], [-122.1305186, 46.264312], [-122.1318693, 46.263619], [-122.1323522, 46.2631555], [-122.1330796, 46.2614732], [-122.133439, 46.2608308], [-122.1335892, 46.2605623], [-122.1344873, 46.2599444], [-122.1364382, 46.2597234], [-122.1374301, 46.2593002], [-122.1380911, 46.2591997], [-122.1393421, 46.2579268], [-122.1396671, 46.2579068], [-122.1407856, 46.257148], [-122.1412507, 46.2569802], [-122.1421784, 46.2567103], [-122.1432653, 46.2565717], [-122.1436555, 46.2562258], [-122.1440992, 46.2558326], [-122.1446475, 46.2552584], [-122.1448691, 46.2545944], [-122.1452173, 46.254485], [-122.1451224, 46.2541202], [-122.1451329, 46.2538575], [-122.145038, 46.2536605], [-122.1451224, 46.2533322], [-122.1449797, 46.2527763], [-122.1451406, 46.2524721], [-122.1446363, 46.25186], [-122.1450065, 46.251478], [-122.1448885, 46.2511552], [-122.1445881, 46.2509364], [-122.1443789, 46.2502316], [-122.1445076, 46.250009], [-122.1447973, 46.2498309], [-122.1446203, 46.2493079], [-122.144411, 46.2488776], [-122.1444969, 46.2481876], [-122.1446578, 46.2480206], [-122.1449661, 46.247738], [-122.1455026, 46.2475006], [-122.1463609, 46.247226], [-122.147069, 46.2469812], [-122.1475625, 46.2466251], [-122.1479595, 46.2466251], [-122.1481097, 46.2468328], [-122.1484101, 46.2470628], [-122.1487991, 46.2473232], [-122.1488607, 46.2477677], [-122.148732, 46.2482351], [-122.148968, 46.2485912], [-122.1487963, 46.2494667], [-122.1492577, 46.249986], [-122.1494615, 46.2505944], [-122.1498907, 46.2512176], [-122.1497405, 46.251685], [-122.1496761, 46.2522711], [-122.1499336, 46.2529759]], [[-122.1413613, 46.2589513], [-122.1411359, 46.2589587], [-122.1410608, 46.2590885], [-122.1411413, 46.259159], [-122.1413183, 46.2591405], [-122.1414793, 46.2589921], [-122.1413613, 46.2589513]], [[-122.1494562, 46.2558913], [-122.149365, 46.2557578], [-122.1491772, 46.2557875], [-122.1490699, 46.2558468], [-122.1488768, 46.2560323], [-122.1488983, 46.2562103], [-122.1490377, 46.2562474], [-122.1492309, 46.2561955], [-122.1494562, 46.2558913]], [[-122.1576905, 46.2611062], [-122.1574545, 46.2610876], [-122.1573069, 46.261121], [-122.1572345, 46.2612118], [-122.1573043, 46.2613974], [-122.1574867, 46.2614696], [-122.1577442, 46.2613435], [-122.1576905, 46.2611062]], [[-122.1611399, 46.262356], [-122.1613437, 46.2621224], [-122.1613008, 46.2620705], [-122.1611828, 46.2620779], [-122.1609789, 46.2620519], [-122.1607697, 46.262115], [-122.1604961, 46.2623597], [-122.1605873, 46.2624228], [-122.1607751, 46.2623894], [-122.1608985, 46.2624228], [-122.1611399, 46.262356]]]]}, "properties": {"id": "spirit_lake", "name": "Spirit Lake", "osm": ["relation/7934191"], "found_by": "name", "area_km2": 10.391}}]}