{"type": "FeatureCollection", "features": [{"type": "Feature", "geometry": {"type": "MultiPolygon", "coordinates": [[[[-119.1878226, 37.712783], [-119.1878709, 37.7128212], [-119.1879648, 37.7128488], [-119.1879943, 37.7128827], [-119.1880533, 37.7128912], [-119.188115, 37.7129697], [-119.1881579, 37.7129825], [-119.188166, 37.7130016], [-119.1882169, 37.7130037], [-119.1882625, 37.7130483], [-119.1883403, 37.7130546], [-119.1883779, 37.7131034], [-119.1884235, 37.7131225], [-119.1885227, 37.7131162], [-119.1885415, 37.7131055], [-119.1885388, 37.7130674], [-119.1885227, 37.7130334], [-119.1884637, 37.7130143], [-119.188461, 37.7129782], [-119.188697, 37.7128488], [-119.1887346, 37.7127851], [-119.1886944, 37.7127448], [-119.1886649, 37.7126748], [-119.1886675, 37.7126345], [-119.1887453, 37.7125963], [-119.1888338, 37.7125242], [-119.1889009, 37.7124987], [-119.1889545, 37.7124838], [-119.189027, 37.7124881], [-119.189086, 37.7124584], [-119.1891611, 37.712469], [-119.1892174, 37.7125072], [-119.189322, 37.7126218], [-119.1893998, 37.7126748], [-119.189668, 37.7129846], [-119.1897351, 37.7130949], [-119.1898021, 37.7131268], [-119.1899094, 37.7133029], [-119.1899604, 37.7133453], [-119.1902232, 37.7134472], [-119.1904002, 37.7135533], [-119.1904485, 37.7135554], [-119.1904834, 37.7135278], [-119.1906175, 37.7135426], [-119.1906604, 37.7135639], [-119.1908562, 37.7135745], [-119.1909367, 37.7135978], [-119.1910332, 37.7136742], [-119.1910815, 37.7136891], [-119.1911593, 37.7137569], [-119.1913524, 37.7138503], [-119.1914061, 37.7138906], [-119.1915053, 37.7140222], [-119.1915858, 37.714071], [-119.1917092, 37.7141007], [-119.1918299, 37.7142726], [-119.1918969, 37.7143298], [-119.1920418, 37.7144083], [-119.1921222, 37.7144826], [-119.1921437, 37.7145378], [-119.1921222, 37.7146566], [-119.1921625, 37.7146778], [-119.1921383, 37.7148157], [-119.1921544, 37.7148709], [-119.1921786, 37.7149049], [-119.1923046, 37.7149155], [-119.1924065, 37.7150003], [-119.1924575, 37.7150704], [-119.1925299, 37.7152486], [-119.1926426, 37.7153738], [-119.1927123, 37.7155753], [-119.1928491, 37.7156454], [-119.1928598, 37.7156645], [-119.1928357, 37.7158024], [-119.1927257, 37.7158236], [-119.1925219, 37.7157196], [-119.1924199, 37.7157472], [-119.1923341, 37.7157387], [-119.1922805, 37.715709], [-119.1922456, 37.7156411], [-119.1921786, 37.7156284], [-119.192023, 37.7157217], [-119.1920203, 37.7157599], [-119.191905, 37.7157557], [-119.1918165, 37.7157048], [-119.191736, 37.7156008], [-119.1915107, 37.7154692], [-119.1913471, 37.7154226], [-119.1912103, 37.7154098], [-119.1911137, 37.7153632], [-119.191044, 37.7153589], [-119.1910332, 37.7153271], [-119.1910118, 37.7153228], [-119.1908589, 37.7153462], [-119.1905746, 37.7153122], [-119.1904244, 37.7153547], [-119.1903493, 37.7154014], [-119.190301, 37.7154035], [-119.1902715, 37.715378], [-119.1902259, 37.7153759], [-119.1901159, 37.7153865], [-119.1900703, 37.7154098], [-119.1900462, 37.7154098], [-119.1899148, 37.7153165], [-119.1898263, 37.7152995], [-119.1897807, 37.7152953], [-119.1896948, 37.7153207], [-119.1896278, 37.7153207], [-119.1895983, 37.7153441], [-119.1896036, 37.7154226], [-119.1896251, 37.7154289], [-119.1896653, 37.715412], [-119.1897002, 37.715482], [-119.1897029, 37.7155775], [-119.189668, 37.7156454], [-119.1896814, 37.7156602], [-119.1897592, 37.7156623], [-119.1898155, 37.7157005], [-119.1898584, 37.7156899], [-119.1899201, 37.7157196], [-119.1899362, 37.7157069], [-119.1899335, 37.7156369], [-119.1899577, 37.7156305], [-119.1900757, 37.715656], [-119.1901669, 37.7156241], [-119.1902635, 37.715622], [-119.1902849, 37.7156347], [-119.1904083, 37.7155753], [-119.1905049, 37.7155817], [-119.1905612, 37.7156241], [-119.19058, 37.7156602], [-119.1906765, 37.7156581], [-119.1907677, 37.715692], [-119.1907623, 37.7157323], [-119.1907838, 37.7157918], [-119.1908562, 37.7158278], [-119.1909528, 37.715953], [-119.1909528, 37.7159721], [-119.1909072, 37.7160124], [-119.1908938, 37.7160697], [-119.1909313, 37.7161355], [-119.1908509, 37.7161694], [-119.1908482, 37.7162395], [-119.1908669, 37.7162501], [-119.190993, 37.7162055], [-119.1910654, 37.7162034], [-119.191162, 37.7161206], [-119.1911379, 37.7160294], [-119.1911486, 37.7160124], [-119.1911647, 37.7159997], [-119.1912156, 37.7159997], [-119.1912612, 37.7161143], [-119.1914946, 37.7161334], [-119.1916662, 37.7162776], [-119.1917118, 37.7162904], [-119.1917816, 37.7163371], [-119.1918781, 37.716371], [-119.1920525, 37.7163604], [-119.1921651, 37.716405], [-119.1922161, 37.7165004], [-119.1922456, 37.7166383], [-119.1922215, 37.7166999], [-119.1922241, 37.7167466], [-119.1923368, 37.7168272], [-119.1923395, 37.7168675], [-119.1921786, 37.7169969], [-119.1921169, 37.7170139], [-119.1920874, 37.7170627], [-119.1919747, 37.71712], [-119.1919398, 37.7172112], [-119.1919827, 37.7172324], [-119.192082, 37.7172282], [-119.1921008, 37.7172176], [-119.1920874, 37.7171667], [-119.1923717, 37.7170521], [-119.1924387, 37.7169354], [-119.1924468, 37.716859], [-119.1924629, 37.7168463], [-119.1925648, 37.7169227], [-119.1927928, 37.7169375], [-119.1927901, 37.7169736], [-119.1927069, 37.717033], [-119.1926613, 37.7170478], [-119.192597, 37.7170436], [-119.1925862, 37.7171667], [-119.1925299, 37.7172027], [-119.1924977, 37.7172536], [-119.1924226, 37.7173003], [-119.1923583, 37.7173831], [-119.192369, 37.7174], [-119.1926184, 37.717417], [-119.1927472, 37.717451], [-119.1928223, 37.7175019], [-119.1928437, 37.717538], [-119.1928437, 37.7175592], [-119.1927901, 37.7176186], [-119.192774, 37.7177353], [-119.1927445, 37.717765], [-119.1926345, 37.7177798], [-119.1925889, 37.7178201], [-119.1925889, 37.7178414], [-119.1926238, 37.7178668], [-119.1927284, 37.7178796], [-119.1928679, 37.7179687], [-119.1928786, 37.7179856], [-119.1928142, 37.7179963], [-119.1927847, 37.7180238], [-119.1928196, 37.7180726], [-119.1928732, 37.718079], [-119.1929296, 37.7180472], [-119.1930798, 37.7180641], [-119.1931012, 37.7181257], [-119.1931763, 37.7181129], [-119.193297, 37.718009], [-119.1933614, 37.7180344], [-119.1933373, 37.7181108], [-119.1933453, 37.7182487], [-119.1932675, 37.7182636], [-119.1932809, 37.7183442], [-119.1932514, 37.7184291], [-119.1932648, 37.7184864], [-119.1932327, 37.7185309], [-119.1934875, 37.7188937], [-119.1935009, 37.718951], [-119.1934902, 37.7190062], [-119.1935599, 37.7190401], [-119.1935438, 37.7190529], [-119.1935465, 37.7191377], [-119.193458, 37.7192162], [-119.1933051, 37.7193096], [-119.1930771, 37.7193775], [-119.1929644, 37.7194496], [-119.1927552, 37.7195493], [-119.1927043, 37.7196533], [-119.1927043, 37.7197339], [-119.192538, 37.7198167], [-119.1923046, 37.7198803], [-119.1922349, 37.7199524], [-119.1921571, 37.7199949], [-119.1920283, 37.7200267], [-119.1919935, 37.7200479], [-119.1919854, 37.720084], [-119.1920418, 37.7201455], [-119.192082, 37.7202558], [-119.1920739, 37.7202919], [-119.1919881, 37.7203513], [-119.1918379, 37.7204044], [-119.1917494, 37.720415], [-119.1917226, 37.7204447], [-119.1917387, 37.7205423], [-119.191862, 37.7206165], [-119.1918781, 37.720712], [-119.1918594, 37.7207862], [-119.1918084, 37.7208457], [-119.1917869, 37.7209199], [-119.1917628, 37.7209199], [-119.1917387, 37.7208945], [-119.1916689, 37.7209029], [-119.1916609, 37.7209454], [-119.1917145, 37.7209836], [-119.1917172, 37.7210175], [-119.1916153, 37.7210684], [-119.1915724, 37.7209623], [-119.1914168, 37.7209687], [-119.1913444, 37.7209326], [-119.1913417, 37.7208775], [-119.1914088, 37.7207141], [-119.191398, 37.720659], [-119.1912612, 37.7206759], [-119.1911459, 37.7206717], [-119.191111, 37.7206547], [-119.1910654, 37.7205953], [-119.1910252, 37.7205826], [-119.1909152, 37.7205932], [-119.1908616, 37.7206292], [-119.1908401, 37.7207056], [-119.1908482, 37.7207459], [-119.1909125, 37.7208096], [-119.190934, 37.720939], [-119.1910118, 37.7209814], [-119.190993, 37.7210048], [-119.190934, 37.721043], [-119.1909125, 37.7210027], [-119.1908455, 37.7209878], [-119.1908965, 37.7209305], [-119.1908696, 37.7208626], [-119.1907811, 37.7208478], [-119.1907811, 37.7208817], [-119.1908267, 37.7209008], [-119.190824, 37.7209369], [-119.1907758, 37.7209475], [-119.1907516, 37.7210027], [-119.1905504, 37.7211512], [-119.1904619, 37.721183], [-119.1903546, 37.7212488], [-119.1903412, 37.7212848], [-119.1903064, 37.7213103], [-119.1902903, 37.7213655], [-119.1902205, 37.7213612], [-119.1901481, 37.7212679], [-119.1900569, 37.7211978], [-119.1899228, 37.7212106], [-119.1898584, 37.7211978], [-119.1898504, 37.7211639], [-119.1898853, 37.7210918], [-119.1898638, 37.7210621], [-119.1898182, 37.7210578], [-119.1896975, 37.7211045], [-119.1896707, 37.7210345], [-119.1896063, 37.7210196], [-119.1895741, 37.7209963], [-119.1894856, 37.7209899], [-119.1894454, 37.7209284], [-119.1893944, 37.7209751], [-119.189381, 37.7210133], [-119.1893435, 37.7210366], [-119.1893005, 37.7211554], [-119.1893032, 37.7213909], [-119.1892013, 37.7214355], [-119.1891718, 37.7214652], [-119.1891718, 37.7215055], [-119.1892174, 37.7215967], [-119.1893193, 37.7216116], [-119.18933, 37.7216731], [-119.189263, 37.7217834], [-119.189086, 37.7218704], [-119.1890779, 37.7219107], [-119.1891262, 37.7219192], [-119.1891289, 37.7219786], [-119.1890565, 37.7220444], [-119.1890135, 37.7221101], [-119.1890162, 37.7221695], [-119.1891074, 37.7221908], [-119.1891128, 37.7222565], [-119.1891396, 37.7222862], [-119.1891101, 37.7223159], [-119.1891074, 37.7224623], [-119.1889921, 37.722579], [-119.1890806, 37.7226087], [-119.1890994, 37.7227042], [-119.188925, 37.7228018], [-119.1889223, 37.7228781], [-119.1888177, 37.7228463], [-119.1886407, 37.7229185], [-119.1886193, 37.7229142], [-119.1887453, 37.7227912], [-119.188689, 37.7227424], [-119.1885576, 37.7227699], [-119.1883028, 37.7228527], [-119.1881686, 37.7228697], [-119.1880238, 37.7229248], [-119.1879863, 37.7228888], [-119.1877744, 37.7228888], [-119.187718, 37.7229418], [-119.1876081, 37.7229779], [-119.187482, 37.7229524], [-119.1874391, 37.7229588], [-119.1873586, 37.7230182], [-119.1872084, 37.7230436], [-119.1871816, 37.7230373], [-119.1871628, 37.7229863], [-119.1871789, 37.7229736], [-119.1871414, 37.7229312], [-119.1871387, 37.722893], [-119.1872379, 37.7227954], [-119.1873345, 37.7227763], [-119.1873425, 37.7226872], [-119.1874927, 37.7226617], [-119.1876242, 37.7225599], [-119.1876483, 37.7225535], [-119.187659, 37.7225726], [-119.1876939, 37.7225238], [-119.1876885, 37.7224496], [-119.187718, 37.7224199], [-119.1878736, 37.7224199], [-119.1879112, 37.7223944], [-119.1879863, 37.7224029], [-119.1880024, 37.7223902], [-119.188005, 37.722335], [-119.1879326, 37.7223393], [-119.1878334, 37.7223838], [-119.187769, 37.7223944], [-119.1876107, 37.7223881], [-119.1875464, 37.722369], [-119.1874793, 37.7223711], [-119.1873962, 37.7223987], [-119.1873425, 37.7223732], [-119.1873023, 37.7223902], [-119.1872299, 37.7223902], [-119.1872111, 37.7223838], [-119.1871977, 37.7223159], [-119.1870797, 37.7222671], [-119.1870609, 37.7222799], [-119.1870609, 37.7223223], [-119.1870475, 37.7223584], [-119.187026, 37.7223668], [-119.1870207, 37.722405], [-119.1870931, 37.722596], [-119.1870394, 37.7226533], [-119.1870528, 37.7226914], [-119.1869938, 37.7228039], [-119.1870073, 37.7228612], [-119.1868866, 37.722946], [-119.1868195, 37.7229397], [-119.1866344, 37.7230161], [-119.1865432, 37.7230182], [-119.1864279, 37.7230755], [-119.1864306, 37.7231497], [-119.1863689, 37.7231667], [-119.1863877, 37.7232197], [-119.1863126, 37.7233152], [-119.1863313, 37.7233555], [-119.1863206, 37.7233788], [-119.1863555, 37.7234425], [-119.1863555, 37.7235083], [-119.1862857, 37.7234595], [-119.1861972, 37.7234255], [-119.1861838, 37.7233894], [-119.1862053, 37.7233788], [-119.1862133, 37.7233449], [-119.1861597, 37.7232346], [-119.1860551, 37.7232494], [-119.1860336, 37.7232791], [-119.186106, 37.7233873], [-119.1861543, 37.7233979], [-119.1861624, 37.723434], [-119.1860068, 37.7235061], [-119.1859022, 37.7235167], [-119.1858298, 37.7235549], [-119.1857064, 37.723591], [-119.185642, 37.7235761], [-119.1856179, 37.7236058], [-119.1856125, 37.723644], [-119.1856742, 37.7237119], [-119.1856957, 37.7237734], [-119.1856661, 37.7239198], [-119.1856474, 37.7239304], [-119.1856018, 37.7239453], [-119.1855562, 37.723941], [-119.1854382, 37.7239898], [-119.1852987, 37.7240026], [-119.185068, 37.724098], [-119.1849366, 37.7241044], [-119.1848534, 37.7240789], [-119.1848132, 37.7240959], [-119.1847488, 37.7240832], [-119.1846389, 37.7241235], [-119.1845611, 37.7241702], [-119.1844699, 37.724185], [-119.1843948, 37.7241511], [-119.1843304, 37.7241553], [-119.1842312, 37.7241956], [-119.1841829, 37.7242338], [-119.1840622, 37.7244057], [-119.1840193, 37.7244163], [-119.1840112, 37.724376], [-119.1839898, 37.7243738], [-119.1839254, 37.7244057], [-119.1838744, 37.7243951], [-119.183684, 37.7244969], [-119.1836464, 37.7245457], [-119.1835874, 37.7245669], [-119.183574, 37.724603], [-119.1836223, 37.7247663], [-119.1835794, 37.7248109], [-119.1835123, 37.7248236], [-119.1832924, 37.7248215], [-119.1832548, 37.7247812], [-119.1832012, 37.7247769], [-119.1831234, 37.7248427], [-119.1830698, 37.7249212], [-119.1828847, 37.7249424], [-119.182815, 37.7249912], [-119.1828176, 37.7251524], [-119.1827774, 37.7251758], [-119.1827801, 37.7252161], [-119.1828284, 37.7252606], [-119.1828525, 37.7252628], [-119.1829249, 37.7252076], [-119.183, 37.7252161], [-119.1830564, 37.7252606], [-119.1830564, 37.7253561], [-119.182992, 37.7253858], [-119.1828766, 37.7253879], [-119.1828713, 37.7253391], [-119.182772, 37.7253391], [-119.182764, 37.725267], [-119.1827264, 37.7252224], [-119.1826916, 37.7252458], [-119.1826943, 37.7253413], [-119.1826594, 37.7254219], [-119.1825521, 37.7254601], [-119.1825333, 37.7254304], [-119.1824609, 37.7253943], [-119.1824985, 37.7253264], [-119.1825816, 37.7252649], [-119.1825843, 37.7252118], [-119.1825548, 37.7251906], [-119.1824904, 37.7252012], [-119.1824716, 37.7252543], [-119.1824985, 37.7252564], [-119.1825011, 37.7252755], [-119.1824448, 37.7253349], [-119.1823563, 37.7253561], [-119.1823456, 37.725371], [-119.182367, 37.7254049], [-119.1823322, 37.7254643], [-119.1823, 37.7254898], [-119.1821444, 37.7255173], [-119.1822302, 37.7256149], [-119.1821685, 37.7256298], [-119.1821632, 37.7256467], [-119.182182, 37.7257019], [-119.182241, 37.7257316], [-119.1822517, 37.7258504], [-119.1822061, 37.7259331], [-119.1821927, 37.7259183], [-119.1821846, 37.7257528], [-119.1821632, 37.7257486], [-119.1820049, 37.7258377], [-119.181895, 37.7258716], [-119.181675, 37.7258822], [-119.1815624, 37.7258462], [-119.1815436, 37.725791], [-119.181557, 37.7257422], [-119.1815034, 37.7256701], [-119.1814631, 37.725668], [-119.1814363, 37.7256977], [-119.1813692, 37.7257168], [-119.1813827, 37.7258334], [-119.1813612, 37.725931], [-119.1810635, 37.7260159], [-119.1810179, 37.7260201], [-119.1809589, 37.7259989], [-119.1809669, 37.7260583], [-119.1809535, 37.7260732], [-119.1808516, 37.7261092], [-119.1807953, 37.7260901], [-119.1807067, 37.7261411], [-119.1806746, 37.726192], [-119.1806558, 37.7262726], [-119.1805109, 37.726298], [-119.1805163, 37.7263171], [-119.1806638, 37.7263044], [-119.1807577, 37.7264211], [-119.1807711, 37.7265208], [-119.1807362, 37.726542], [-119.1807899, 37.7265866], [-119.1808194, 37.7266608], [-119.1807094, 37.7268496], [-119.1806558, 37.726909], [-119.1805887, 37.7269536], [-119.1804144, 37.7270278], [-119.1802803, 37.7270533], [-119.1802347, 37.7270448], [-119.180181, 37.7270787], [-119.1800952, 37.7270915], [-119.1800442, 37.7271254], [-119.1800335, 37.7271636], [-119.1799745, 37.7271869], [-119.1798458, 37.7272018], [-119.1798162, 37.7271763], [-119.1797546, 37.7271869], [-119.1797358, 37.7272421], [-119.179768, 37.7272697], [-119.1797814, 37.7273079], [-119.1797492, 37.7273312], [-119.1797438, 37.7273757], [-119.1797733, 37.7274712], [-119.1797465, 37.7275009], [-119.1796795, 37.7275285], [-119.1794461, 37.7275603], [-119.179143, 37.7275094], [-119.1790009, 37.7274564], [-119.1789579, 37.7274161], [-119.1788963, 37.7274012], [-119.1788346, 37.7272633], [-119.178746, 37.7272676], [-119.1787246, 37.7273206], [-119.1786361, 37.7273227], [-119.1785744, 37.7273057], [-119.1785288, 37.7272485], [-119.1785181, 37.7271763], [-119.1785905, 37.727153], [-119.1786441, 37.7271127], [-119.1786495, 37.7270596], [-119.1786361, 37.7270299], [-119.1786012, 37.7270109], [-119.1784939, 37.7270257], [-119.1784939, 37.7271445], [-119.1784564, 37.72717], [-119.1783491, 37.7271742], [-119.1781881, 37.727119], [-119.1781399, 37.7270724], [-119.1780755, 37.7269154], [-119.1781211, 37.7268475], [-119.1781265, 37.7267733], [-119.177995, 37.7267839], [-119.1779789, 37.7267733], [-119.1779333, 37.7266672], [-119.1779199, 37.7265717], [-119.1778529, 37.726525], [-119.1778073, 37.7264699], [-119.177818, 37.7264317], [-119.1778716, 37.7264275], [-119.1778824, 37.7263914], [-119.1777429, 37.7263384], [-119.1777027, 37.7263532], [-119.1777563, 37.7264656], [-119.1777349, 37.7265356], [-119.1777778, 37.7266078], [-119.1778046, 37.7266099], [-119.1778287, 37.7266438], [-119.177826, 37.7267223], [-119.1778716, 37.7268284], [-119.1778368, 37.7270193], [-119.1778475, 37.7270766], [-119.1777295, 37.7271657], [-119.1776919, 37.7272485], [-119.1774532, 37.7273397], [-119.1774023, 37.7273163], [-119.1772923, 37.7273588], [-119.1772869, 37.7273248], [-119.1772467, 37.7273185], [-119.1771823, 37.7273927], [-119.1771036, 37.7274548], [-119.1770402, 37.7275052], [-119.176898, 37.7275539], [-119.1768256, 37.7275603], [-119.176729, 37.7276388], [-119.1766673, 37.7276621], [-119.176552, 37.7276643], [-119.1764608, 37.7276473], [-119.1763401, 37.7275985], [-119.1762784, 37.7275497], [-119.1761979, 37.7275158], [-119.1758412, 37.7272591], [-119.1757849, 37.7272039], [-119.1757607, 37.7270533], [-119.1756508, 37.7269048], [-119.1755435, 37.7268666], [-119.1754067, 37.7268581], [-119.1754362, 37.7269366], [-119.1754362, 37.7269939], [-119.1753852, 37.7271615], [-119.1754416, 37.7272739], [-119.1754094, 37.7272994], [-119.1754121, 37.7274012], [-119.1754228, 37.7274182], [-119.1754711, 37.7274309], [-119.1754791, 37.72745], [-119.1754469, 37.7275094], [-119.1754603, 37.7275242], [-119.1755354, 37.7275709], [-119.1756105, 37.7275752], [-119.1756079, 37.7276749], [-119.1755435, 37.7277279], [-119.1754362, 37.7277576], [-119.1753718, 37.7277534], [-119.1752377, 37.7276961], [-119.1751573, 37.7275476], [-119.1751599, 37.7275179], [-119.1752028, 37.7274945], [-119.1752055, 37.7274585], [-119.1751546, 37.7274245], [-119.1751546, 37.7273885], [-119.1750661, 37.727293], [-119.1750366, 37.7272251], [-119.1749346, 37.7271912], [-119.1748568, 37.7273673], [-119.1748971, 37.7274373], [-119.1749293, 37.7276303], [-119.1749507, 37.7276643], [-119.1749454, 37.7277194], [-119.1749802, 37.7277703], [-119.1749883, 37.7278128], [-119.1749722, 37.7278467], [-119.1748837, 37.7278679], [-119.1748139, 37.727921], [-119.1747978, 37.7280164], [-119.1746476, 37.7280737], [-119.1745672, 37.7280482], [-119.1745457, 37.7280546], [-119.1744384, 37.7281246], [-119.174417, 37.728149], [-119.174425, 37.7281861], [-119.1744451, 37.7282137], [-119.1744384, 37.7282328], [-119.1744679, 37.7282583], [-119.1744263, 37.7283102], [-119.1742896, 37.7283654], [-119.1741796, 37.7283622], [-119.1740803, 37.7284216], [-119.1738403, 37.7283707], [-119.1737786, 37.7282837], [-119.1736928, 37.7282752], [-119.1735292, 37.7283346], [-119.1735385, 37.7283866], [-119.1734742, 37.728463], [-119.173395, 37.7284672], [-119.1733682, 37.7284428], [-119.1733857, 37.7283665], [-119.173336, 37.7283028], [-119.1733052, 37.7282943], [-119.1731429, 37.728358], [-119.1729847, 37.7285701], [-119.1730061, 37.7286051], [-119.172868, 37.7286836], [-119.1725716, 37.7286688], [-119.1724509, 37.7286444], [-119.1723731, 37.7286062], [-119.1722363, 37.7286094], [-119.1719989, 37.7285712], [-119.1719131, 37.7285319], [-119.1718555, 37.7284534], [-119.1715604, 37.7283845], [-119.1715202, 37.7283601], [-119.1715108, 37.7283314], [-119.1714209, 37.7282975], [-119.1713566, 37.7281989], [-119.1713499, 37.728132], [-119.1712667, 37.7280949], [-119.1711809, 37.7280143], [-119.1710924, 37.7280058], [-119.1710682, 37.7281246], [-119.1710173, 37.7281469], [-119.1709368, 37.7281469], [-119.1708979, 37.7281172], [-119.1708416, 37.7280111], [-119.1707638, 37.7279793], [-119.170619, 37.7278509], [-119.1704527, 37.7277746], [-119.1703561, 37.7276314], [-119.1703534, 37.7275794], [-119.1704071, 37.7275592], [-119.1704848, 37.7275656], [-119.1705586, 37.7275476], [-119.170627, 37.7274712], [-119.1706257, 37.7274351], [-119.1707195, 37.7274012], [-119.1707477, 37.72738], [-119.1707437, 37.727363], [-119.1706605, 37.7272506], [-119.1705385, 37.7271784], [-119.1704714, 37.7271668], [-119.1704004, 37.7271997], [-119.1703346, 37.7271816], [-119.1702703, 37.7271413], [-119.1701871, 37.7271265], [-119.1700973, 37.7270904], [-119.1700624, 37.7271031], [-119.1700114, 37.7271541], [-119.1699377, 37.7271551], [-119.1699618, 37.7272156], [-119.1700557, 37.7272347], [-119.1700812, 37.7272569], [-119.1700999, 37.7272983], [-119.1700879, 37.7273301], [-119.1699363, 37.7273938], [-119.1697553, 37.7273556], [-119.1696118, 37.7273757], [-119.1695622, 37.727397], [-119.1695514, 37.7274383], [-119.169597, 37.7275815], [-119.1695648, 37.7276144], [-119.1695273, 37.7277481], [-119.1695501, 37.7278403], [-119.1695233, 37.7278817], [-119.1695729, 37.7278859], [-119.1696011, 37.7279093], [-119.1696292, 37.7279772], [-119.1696627, 37.7279931], [-119.1697365, 37.7280779], [-119.1697553, 37.7281532], [-119.1698197, 37.7281384], [-119.16988, 37.728149], [-119.1699752, 37.7281289], [-119.1700369, 37.7281681], [-119.1700932, 37.7281458], [-119.170289, 37.7281532], [-119.1703574, 37.7281405], [-119.1705211, 37.7282031], [-119.1706592, 37.7283389], [-119.1706257, 37.728358], [-119.1706337, 37.7284269], [-119.1706002, 37.7284768], [-119.1706377, 37.7286942], [-119.1706149, 37.7287515], [-119.1705747, 37.7287918], [-119.1705345, 37.7287971], [-119.1704553, 37.7287801], [-119.1703615, 37.728795], [-119.1701844, 37.7286762], [-119.1701509, 37.7286083], [-119.1701737, 37.7285627], [-119.1700865, 37.7284587], [-119.170159, 37.7284015], [-119.1701415, 37.7282742], [-119.1701187, 37.728272], [-119.1699296, 37.7283813], [-119.169884, 37.7284906], [-119.1698478, 37.7285203], [-119.1697647, 37.7285287], [-119.1697164, 37.7285096], [-119.1696078, 37.7284195], [-119.1696239, 37.7283802], [-119.1696091, 37.7283548], [-119.1695353, 37.7283134], [-119.1693959, 37.7281904], [-119.1693825, 37.7281554], [-119.1694187, 37.7281204], [-119.1693798, 37.7280801], [-119.1693409, 37.7280663], [-119.1693811, 37.7280132], [-119.1693556, 37.727991], [-119.1692631, 37.7280281], [-119.1692403, 37.7280907], [-119.1692537, 37.7281151], [-119.1691907, 37.7281586], [-119.1691867, 37.7281999], [-119.1691209, 37.7282339], [-119.1691303, 37.7283293], [-119.1690418, 37.728358], [-119.1689989, 37.7284492], [-119.1689278, 37.7284513], [-119.1688715, 37.7284768], [-119.168728, 37.7284874], [-119.1686797, 37.7285287], [-119.1686355, 37.7285998], [-119.168622, 37.728673], [-119.1685671, 37.7287197], [-119.1685148, 37.7287069], [-119.1684558, 37.7287345], [-119.1684128, 37.7287345], [-119.1683632, 37.728725], [-119.1683431, 37.7287048], [-119.168323, 37.7286518], [-119.1683096, 37.7284396], [-119.1683283, 37.7284174], [-119.1683927, 37.7283919], [-119.1684437, 37.7283972], [-119.1684544, 37.7284619], [-119.1684853, 37.7284916], [-119.1684946, 37.7285393], [-119.1685496, 37.7285977], [-119.1685724, 37.7285998], [-119.1686153, 37.7285139], [-119.1685818, 37.7284237], [-119.1686073, 37.7284057], [-119.1686811, 37.7284131], [-119.1687213, 37.7283527], [-119.168728, 37.728306], [-119.1686408, 37.7282286], [-119.1686596, 37.7281723], [-119.1686998, 37.7281893], [-119.1687535, 37.7281872], [-119.168779, 37.728131], [-119.1688259, 37.7281267], [-119.1688232, 37.7280748], [-119.1688487, 37.7280323], [-119.1688889, 37.7280291], [-119.1689788, 37.7280557], [-119.1690485, 37.7280249], [-119.169066, 37.7280695], [-119.1690525, 37.728096], [-119.1690619, 37.7281607], [-119.1691062, 37.7281819], [-119.1691343, 37.7281787], [-119.1691142, 37.7281098], [-119.1691317, 37.7280737], [-119.1691236, 37.7280376], [-119.1692135, 37.7279793], [-119.1692752, 37.7278902], [-119.1692752, 37.7278106], [-119.1692993, 37.7277077], [-119.1693194, 37.7276855], [-119.1693154, 37.727624], [-119.1693757, 37.7276102], [-119.1694079, 37.7275327], [-119.169412, 37.7274691], [-119.1695032, 37.7273312], [-119.1695702, 37.7272866], [-119.1696896, 37.7273121], [-119.1697687, 37.7272527], [-119.1698827, 37.7272633], [-119.1698854, 37.7272357], [-119.1698585, 37.7271965], [-119.1698009, 37.7271657], [-119.1697419, 37.7271], [-119.1697057, 37.7271159], [-119.1696601, 37.727101], [-119.1695876, 37.7270246], [-119.1695501, 37.7270098], [-119.1694669, 37.7267849], [-119.1694844, 37.7267595], [-119.1696949, 37.7267679], [-119.1697754, 37.7268093], [-119.169943, 37.7269377], [-119.1700879, 37.7269525], [-119.1701321, 37.7269366], [-119.1703253, 37.7270087], [-119.1703722, 37.7270724], [-119.1704111, 37.7270809], [-119.1704392, 37.7270607], [-119.1704607, 37.7269801], [-119.1705063, 37.726908], [-119.1705103, 37.7268411], [-119.1704728, 37.7266767], [-119.1704835, 37.726646], [-119.1705304, 37.7266279], [-119.1706578, 37.726716], [-119.1708013, 37.7267308], [-119.1708416, 37.7267648], [-119.1708429, 37.726856], [-119.1708764, 37.7269228], [-119.1708657, 37.7269822], [-119.1709341, 37.7269705], [-119.1710213, 37.7269928], [-119.1711031, 37.7270363], [-119.1711286, 37.7270777], [-119.1711608, 37.7270936], [-119.1711889, 37.7271551], [-119.1712359, 37.7271689], [-119.171256, 37.727206], [-119.1714129, 37.7272506], [-119.1714706, 37.7272294], [-119.1714746, 37.7271891], [-119.1713901, 37.7270342], [-119.1713364, 37.7269822], [-119.1712949, 37.7268963], [-119.1712667, 37.7268814], [-119.1712546, 37.726822], [-119.1711769, 37.7267351], [-119.1711433, 37.7267234], [-119.171146, 37.7266948], [-119.1711903, 37.726682], [-119.1713619, 37.7267934], [-119.171437, 37.7268157], [-119.1714692, 37.7267987], [-119.1715457, 37.7268592], [-119.1715711, 37.726856], [-119.1715886, 37.7268273], [-119.1715886, 37.7267902], [-119.1715041, 37.7266926], [-119.1713405, 37.7265728], [-119.1713338, 37.7265441], [-119.1713807, 37.7264762], [-119.171382, 37.7264158], [-119.1713244, 37.7262843], [-119.1713163, 37.7262249], [-119.1713472, 37.7261983], [-119.1713445, 37.7261538], [-119.17137, 37.7261336], [-119.1714504, 37.7261389], [-119.1714907, 37.7261803], [-119.1715953, 37.7262142], [-119.1716798, 37.7262917], [-119.1717187, 37.7263702], [-119.1716583, 37.7264221], [-119.171657, 37.7264572], [-119.1717321, 37.726525], [-119.1717643, 37.7265282], [-119.1717897, 37.7264911], [-119.1718353, 37.7265261], [-119.1719051, 37.7265187], [-119.1719466, 37.7265006], [-119.1720057, 37.7264317], [-119.1720392, 37.7264232], [-119.1720432, 37.7263415], [-119.1719949, 37.7262673], [-119.172007, 37.7261262], [-119.1719453, 37.7260466], [-119.1719373, 37.7259957], [-119.171952, 37.7259618], [-119.1719238, 37.7259098], [-119.1719306, 37.7258737], [-119.1719547, 37.7258706], [-119.1719896, 37.7259183], [-119.1720821, 37.7259597], [-119.1721773, 37.7260424], [-119.1722792, 37.7260721], [-119.1722873, 37.7260329], [-119.1723289, 37.726035], [-119.1723463, 37.7260594], [-119.1723919, 37.7260488], [-119.17253, 37.7262015], [-119.1726078, 37.7262429], [-119.1726802, 37.7263108], [-119.1727003, 37.7263553], [-119.1727312, 37.7263712], [-119.172762, 37.7264656], [-119.1727459, 37.7265834], [-119.1728036, 37.7266788], [-119.1728733, 37.726734], [-119.1729458, 37.7267489], [-119.1730182, 37.7267923], [-119.1730437, 37.7268348], [-119.1730812, 37.7268401], [-119.1731121, 37.726891], [-119.1731912, 37.7268867], [-119.1731992, 37.7269408], [-119.1732328, 37.7269525], [-119.173273, 37.7270628], [-119.1733776, 37.7270554], [-119.1734178, 37.7270872], [-119.1735479, 37.7271148], [-119.1735908, 37.7271604], [-119.1736163, 37.7272188], [-119.1735855, 37.7272241], [-119.1736083, 37.727293], [-119.1736458, 37.727293], [-119.1736686, 37.7273089], [-119.1737129, 37.7272665], [-119.1737504, 37.7272601], [-119.1736954, 37.7271954], [-119.173682, 37.7271222], [-119.1737343, 37.7270915], [-119.1738738, 37.7270819], [-119.1738725, 37.727014], [-119.1739301, 37.7269536], [-119.1739395, 37.7269048], [-119.1739047, 37.7268189], [-119.1737987, 37.7267276], [-119.1737585, 37.726646], [-119.173729, 37.7266163], [-119.1736874, 37.726611], [-119.1736981, 37.7265749], [-119.1736794, 37.7265537], [-119.1737048, 37.7264603], [-119.173623, 37.7263606], [-119.1736029, 37.7262683], [-119.1735747, 37.726227], [-119.1735774, 37.7261941], [-119.1735224, 37.7261283], [-119.1735184, 37.7260732], [-119.1734795, 37.7260307], [-119.1735426, 37.7259045], [-119.1735251, 37.7258016], [-119.1734621, 37.7257263], [-119.1734312, 37.7255863], [-119.1734648, 37.7255226], [-119.1735332, 37.725476], [-119.1735855, 37.7255396], [-119.173678, 37.7255195], [-119.1737089, 37.7255258], [-119.1737035, 37.725581], [-119.1737571, 37.7256319], [-119.1737813, 37.7256319], [-119.1738322, 37.7256637], [-119.1738416, 37.725703], [-119.1739114, 37.7256627], [-119.1740294, 37.7256499], [-119.1740897, 37.7256054], [-119.1740964, 37.725582], [-119.1740455, 37.725407], [-119.174201, 37.7251524], [-119.1742118, 37.7251079], [-119.1741259, 37.7249997], [-119.1741487, 37.7249679], [-119.1740964, 37.7249127], [-119.1740482, 37.724883], [-119.173965, 37.7248756], [-119.1738886, 37.7248894], [-119.1738457, 37.7248766], [-119.1737893, 37.7248374], [-119.1737705, 37.7247472], [-119.173792, 37.7246465], [-119.1738309, 37.7246115], [-119.1738524, 37.7245404], [-119.1739194, 37.7244587], [-119.1739945, 37.72429], [-119.1741528, 37.724115], [-119.1741823, 37.7240439], [-119.1742574, 37.72394], [-119.1743298, 37.7238986], [-119.1743392, 37.7238519], [-119.1744103, 37.7238233], [-119.1744626, 37.7238371], [-119.1745041, 37.723871], [-119.1744652, 37.7239612], [-119.1744626, 37.72401], [-119.1745323, 37.7240747], [-119.174539, 37.7241256], [-119.1745082, 37.7241723], [-119.1745068, 37.7242115], [-119.1745323, 37.7242635], [-119.174657, 37.724254], [-119.1747361, 37.7243675], [-119.1747965, 37.7244057], [-119.1749534, 37.7243558], [-119.1749802, 37.7243558], [-119.1750419, 37.7243982], [-119.1750889, 37.7243961], [-119.1751224, 37.7243675], [-119.175113, 37.7243208], [-119.1750848, 37.7243006], [-119.1749427, 37.724254], [-119.1748917, 37.7242211], [-119.1748676, 37.7241543], [-119.1749065, 37.7241171], [-119.1748153, 37.724045], [-119.1747871, 37.723957], [-119.1748555, 37.7238657], [-119.1748931, 37.7238456], [-119.1749024, 37.7237448], [-119.174936, 37.7237469], [-119.1749132, 37.7236769], [-119.1748703, 37.7236292], [-119.1749172, 37.723591], [-119.1749239, 37.7235517], [-119.1749601, 37.7235146], [-119.1749869, 37.7235199], [-119.1749936, 37.7235008], [-119.1750607, 37.7234998], [-119.1750379, 37.7234732], [-119.1750486, 37.7234669], [-119.1751626, 37.7234796], [-119.1751975, 37.7234616], [-119.1752887, 37.7234669], [-119.1753504, 37.7234552], [-119.1753557, 37.723399], [-119.1753303, 37.7234011], [-119.1753276, 37.7233364], [-119.1752954, 37.7233364], [-119.1752605, 37.7233025], [-119.175294, 37.7232865], [-119.1752927, 37.7232706], [-119.1752417, 37.723277], [-119.1752297, 37.7232303], [-119.1751492, 37.7232367], [-119.1751438, 37.7232134], [-119.175113, 37.723224], [-119.1751023, 37.7232059], [-119.1751009, 37.7230182], [-119.175168, 37.7228569], [-119.1752592, 37.7227975], [-119.1752766, 37.7227657], [-119.1754134, 37.7227678], [-119.1755462, 37.7226861], [-119.1756213, 37.7227381], [-119.1755864, 37.7227646], [-119.1756092, 37.7227827], [-119.1756924, 37.7227562], [-119.1757366, 37.7227095], [-119.1757822, 37.7227105], [-119.175797, 37.722684], [-119.1758922, 37.7226766], [-119.1759123, 37.7226861], [-119.1759324, 37.7226734], [-119.1759525, 37.722684], [-119.1759753, 37.7226692], [-119.1759807, 37.7226395], [-119.176029, 37.7225949], [-119.1759995, 37.7225461], [-119.1759887, 37.7224676], [-119.1760357, 37.7224464], [-119.1760384, 37.7223838], [-119.1761202, 37.7223499], [-119.1761027, 37.7223181], [-119.1761175, 37.7222926], [-119.1761604, 37.7222671], [-119.1762194, 37.722265], [-119.1762838, 37.7221833], [-119.176328, 37.7222035], [-119.1763844, 37.7221748], [-119.1763549, 37.7221197], [-119.17632, 37.7221112], [-119.176324, 37.72209], [-119.1763763, 37.7220624], [-119.1763951, 37.72202], [-119.176556, 37.7219001], [-119.1765895, 37.7216105], [-119.1766848, 37.7213973], [-119.1767156, 37.721375], [-119.176725, 37.7213315], [-119.1767505, 37.7213251], [-119.1767706, 37.7212456], [-119.1768403, 37.7211756], [-119.1769061, 37.7210663], [-119.176957, 37.7210334], [-119.1770643, 37.7210037], [-119.177126, 37.7209369], [-119.1772614, 37.7208775], [-119.1773754, 37.7208064], [-119.1774653, 37.7207926], [-119.1775069, 37.7207703], [-119.1775927, 37.720782], [-119.1776128, 37.7207438], [-119.1778153, 37.7207353], [-119.177877, 37.7207703], [-119.1779508, 37.7207587], [-119.177928, 37.7207926], [-119.1779816, 37.7208011], [-119.1780192, 37.7207788], [-119.1780299, 37.7207459], [-119.1781694, 37.7206653], [-119.178223, 37.72066], [-119.1782458, 37.7206218], [-119.1782914, 37.7206017], [-119.1784202, 37.7206038], [-119.1784537, 37.7206918], [-119.1785301, 37.7206802], [-119.1785891, 37.7207173], [-119.1786696, 37.7207247], [-119.1787393, 37.7206823], [-119.1788547, 37.7207088], [-119.1789284, 37.7205306], [-119.1790344, 37.7204818], [-119.1790545, 37.7202961], [-119.1791309, 37.7201763], [-119.1791591, 37.7200776], [-119.1792315, 37.7200097], [-119.1792744, 37.7199429], [-119.1794622, 37.7197742], [-119.179485, 37.7197721], [-119.1795118, 37.7197997], [-119.1795655, 37.7197763], [-119.1796459, 37.7197721], [-119.1798578, 37.7198241], [-119.1799638, 37.7198877], [-119.1800094, 37.7198888], [-119.180067, 37.7199514], [-119.1801167, 37.7199662], [-119.180181, 37.7199631], [-119.1802856, 37.7198941], [-119.18035, 37.7199312], [-119.1802977, 37.7198209], [-119.1802213, 37.7198379], [-119.1801408, 37.7197986], [-119.1801167, 37.719683], [-119.1801435, 37.7196639], [-119.180177, 37.7196745], [-119.1802159, 37.7196533], [-119.1802534, 37.7196554], [-119.1802709, 37.7196257], [-119.1802467, 37.7195069], [-119.1803594, 37.7194814], [-119.1803768, 37.7194082], [-119.1804452, 37.7193647], [-119.1805954, 37.7193669], [-119.1805995, 37.719439], [-119.1806249, 37.7194623], [-119.1806518, 37.7194549], [-119.1807, 37.7194687], [-119.1807604, 37.7194326], [-119.1808274, 37.7194295], [-119.1808838, 37.7194878], [-119.180979, 37.7195217], [-119.1809857, 37.7195313], [-119.1809455, 37.7195355], [-119.1808636, 37.7194995], [-119.1807859, 37.719508], [-119.180755, 37.7195716], [-119.1807564, 37.7196225], [-119.1808006, 37.7196119], [-119.1808315, 37.7196342], [-119.1808636, 37.7196363], [-119.1808838, 37.7196034], [-119.1809347, 37.719631], [-119.1809455, 37.7196098], [-119.1809052, 37.7195716], [-119.1809294, 37.7195642], [-119.1810018, 37.7196193], [-119.181042, 37.7196109], [-119.1810527, 37.7195907], [-119.1810286, 37.7195249], [-119.1811185, 37.7195546], [-119.1811493, 37.7195069], [-119.1811211, 37.7194549], [-119.1811225, 37.719387], [-119.1810688, 37.7192979], [-119.1810769, 37.7192512], [-119.1811305, 37.7192512], [-119.1811466, 37.7192268], [-119.1811252, 37.7191377], [-119.1811305, 37.7190624], [-119.1812271, 37.718986], [-119.1812941, 37.7189934], [-119.1813156, 37.7189754], [-119.1812968, 37.7188683], [-119.1812673, 37.7188545], [-119.18127, 37.7187643], [-119.1813397, 37.7187049], [-119.1814403, 37.718672], [-119.1814457, 37.7186126], [-119.1815329, 37.7186041], [-119.1815449, 37.7185691], [-119.1815288, 37.7185267], [-119.1815744, 37.7184949], [-119.1815718, 37.7184142], [-119.1816227, 37.7183527], [-119.1817139, 37.7183209], [-119.1817474, 37.7182753], [-119.1817769, 37.7182646], [-119.1818239, 37.7182668], [-119.1818467, 37.7183145], [-119.1819084, 37.7183315], [-119.1819674, 37.7183283], [-119.1819768, 37.7182816], [-119.1819339, 37.7181914], [-119.1819043, 37.718166], [-119.181907, 37.7181437], [-119.1820009, 37.718097], [-119.1820478, 37.7181267], [-119.1820827, 37.7180928], [-119.1820438, 37.718062], [-119.1821001, 37.7180482], [-119.1821216, 37.7180578], [-119.1822208, 37.7180132], [-119.1821954, 37.7179538], [-119.182253, 37.7178583], [-119.1823201, 37.7178095], [-119.1823979, 37.7177883], [-119.1824394, 37.7178021], [-119.182654, 37.7178095], [-119.1828914, 37.7177576], [-119.1830497, 37.7178318], [-119.1832857, 37.7177225], [-119.1833836, 37.7176621], [-119.1833983, 37.7176292], [-119.1833608, 37.7176016], [-119.183338, 37.7176059], [-119.1833138, 37.717643], [-119.1832642, 37.7176356], [-119.183228, 37.7176525], [-119.1831543, 37.7176005], [-119.1831583, 37.7175486], [-119.1831677, 37.717539], [-119.1831918, 37.717556], [-119.1832227, 37.7175274], [-119.1831864, 37.7174637], [-119.1832186, 37.7174234], [-119.1832562, 37.717416], [-119.1832924, 37.717365], [-119.183287, 37.7173438], [-119.1832374, 37.7173481], [-119.1832146, 37.7173332], [-119.1832146, 37.717277], [-119.1832468, 37.7172494], [-119.1832683, 37.7173067], [-119.1833232, 37.7173364], [-119.183334, 37.7173078], [-119.1833165, 37.717294], [-119.1832937, 37.7172993], [-119.183279, 37.717278], [-119.1832817, 37.7172314], [-119.1833232, 37.7172133], [-119.1833635, 37.7171709], [-119.1834104, 37.7171507], [-119.1834225, 37.7171741], [-119.1836089, 37.7171794], [-119.183684, 37.717138], [-119.1837645, 37.7170542], [-119.1838248, 37.7170234], [-119.1838275, 37.7170033], [-119.1838007, 37.7169916], [-119.1838034, 37.7169789], [-119.183853, 37.7169418], [-119.1838235, 37.7169269], [-119.1838288, 37.7169099], [-119.1838516, 37.7168601], [-119.1838919, 37.7168314], [-119.183912, 37.7167593], [-119.1839214, 37.7167444], [-119.1839482, 37.7167434], [-119.1839777, 37.7166978], [-119.1840273, 37.7166776], [-119.1840662, 37.7166373], [-119.1840729, 37.7165036], [-119.1840287, 37.7164156], [-119.1840327, 37.7163943], [-119.1840716, 37.7163837], [-119.1841038, 37.7163487], [-119.1842164, 37.7162872], [-119.1843277, 37.7161578], [-119.1844068, 37.7161355], [-119.1844994, 37.7161843], [-119.1844887, 37.7162129], [-119.1845249, 37.7161991], [-119.1845664, 37.7162257], [-119.1846778, 37.7161419], [-119.1846617, 37.7161058], [-119.1845691, 37.7160867], [-119.1845383, 37.716058], [-119.1845624, 37.7160358], [-119.1844954, 37.7159795], [-119.1844806, 37.7158872], [-119.1844055, 37.715883], [-119.1843599, 37.7158342], [-119.1843626, 37.7157769], [-119.1843787, 37.715761], [-119.1844229, 37.7157599], [-119.1844779, 37.7157981], [-119.1845383, 37.7158162], [-119.1845477, 37.7158268], [-119.1845235, 37.7158533], [-119.1845718, 37.715849], [-119.1845866, 37.7158639], [-119.1845892, 37.7159085], [-119.1845651, 37.7159509], [-119.1846214, 37.7159138], [-119.1846482, 37.7158607], [-119.1847113, 37.7158056], [-119.1847274, 37.7157599], [-119.1847113, 37.7157016], [-119.184604, 37.7155074], [-119.1846375, 37.7154767], [-119.1846442, 37.7154385], [-119.1846737, 37.7154311], [-119.1846992, 37.7154586], [-119.1847555, 37.7154661], [-119.1847985, 37.7156061], [-119.1848226, 37.715587], [-119.1848347, 37.715535], [-119.1848615, 37.7155202], [-119.1848977, 37.7155149], [-119.1849218, 37.7155456], [-119.1849621, 37.7155456], [-119.1849728, 37.7155637], [-119.1850519, 37.7155265], [-119.1851297, 37.7155308], [-119.1852061, 37.7156358], [-119.1851887, 37.7156899], [-119.1852437, 37.7157249], [-119.1853094, 37.7157323], [-119.1852491, 37.7156347], [-119.1852129, 37.7156114], [-119.1851914, 37.7155499], [-119.1852115, 37.7155308], [-119.1852155, 37.7154671], [-119.1852611, 37.7154799], [-119.1852786, 37.7154512], [-119.1852424, 37.7154247], [-119.1852236, 37.7153759], [-119.1852357, 37.7153154], [-119.1852021, 37.715291], [-119.185123, 37.7153048], [-119.1850761, 37.7152613], [-119.1850694, 37.7152072], [-119.1850224, 37.7151786], [-119.1850197, 37.7151436], [-119.1850841, 37.7151075], [-119.1850667, 37.7150566], [-119.1850962, 37.7150184], [-119.1850694, 37.7149971], [-119.1850264, 37.7150279], [-119.185013, 37.7150226], [-119.1849983, 37.714995], [-119.1850197, 37.7149759], [-119.1850171, 37.7149473], [-119.184954, 37.7149483], [-119.1849326, 37.7149261], [-119.185013, 37.7148688], [-119.185009, 37.7148592], [-119.1849487, 37.7148762], [-119.1849406, 37.7148667], [-119.1849527, 37.7148274], [-119.1850251, 37.7147468], [-119.1849983, 37.7147203], [-119.1849902, 37.7146587], [-119.185005, 37.7146227], [-119.1849473, 37.7145643], [-119.1849272, 37.7143362], [-119.1849782, 37.7143044], [-119.1849607, 37.7142736], [-119.185009, 37.7142078], [-119.1849969, 37.7141866], [-119.1850117, 37.7141484], [-119.18506, 37.7141389], [-119.18506, 37.7140784], [-119.1850305, 37.7140614], [-119.1850305, 37.7139405], [-119.1851498, 37.7137442], [-119.1851686, 37.7136837], [-119.1852303, 37.7136275], [-119.1852732, 37.7136137], [-119.1853134, 37.7135395], [-119.1854247, 37.7134949], [-119.1854784, 37.7135076], [-119.1854945, 37.7135267], [-119.1855548, 37.7135193], [-119.1856098, 37.7134387], [-119.1857158, 37.7133453], [-119.1858096, 37.7132], [-119.1858767, 37.7131628], [-119.1859236, 37.7131586], [-119.1860417, 37.713114], [-119.1861235, 37.7130366], [-119.1860859, 37.7129963], [-119.1861328, 37.7128403], [-119.1861516, 37.7128403], [-119.1861771, 37.7128042], [-119.186212, 37.7128212], [-119.1862375, 37.7128011], [-119.1862455, 37.7126812], [-119.1862267, 37.7126239], [-119.1862495, 37.7125698], [-119.1862254, 37.7125104], [-119.1862388, 37.7124881], [-119.186279, 37.7124891], [-119.1862804, 37.7123693], [-119.1863233, 37.7123502], [-119.1863072, 37.7123162], [-119.1863152, 37.712277], [-119.1863488, 37.7122377], [-119.186444, 37.7122345], [-119.1864695, 37.7121783], [-119.1864748, 37.7120775], [-119.1864333, 37.7119947], [-119.1864507, 37.7118993], [-119.1864212, 37.7117507], [-119.1863997, 37.7117242], [-119.1864333, 37.7116722], [-119.1864896, 37.7116436], [-119.1865392, 37.7115301], [-119.18657, 37.7115322], [-119.1866063, 37.7114929], [-119.1866519, 37.7115067], [-119.1866291, 37.7114579], [-119.1866492, 37.7113974], [-119.1866827, 37.7113592], [-119.1866988, 37.7112415], [-119.1866975, 37.7112075], [-119.1866519, 37.7111545], [-119.186684, 37.7110728], [-119.186684, 37.7110176], [-119.1867109, 37.7110038], [-119.1867323, 37.7110219], [-119.1867618, 37.7110144], [-119.186798, 37.7110293], [-119.1868892, 37.7109646], [-119.1869348, 37.7109497], [-119.1871186, 37.7110346], [-119.1871762, 37.711111], [-119.1872272, 37.7111343], [-119.1871896, 37.7111831], [-119.1872084, 37.7112234], [-119.187195, 37.7112574], [-119.1872258, 37.7113391], [-119.1872098, 37.7113645], [-119.1872406, 37.7113698], [-119.1872486, 37.7114112], [-119.187368, 37.7115884], [-119.1873935, 37.7115948], [-119.1875061, 37.7116924], [-119.1875182, 37.7116722], [-119.1874941, 37.7116043], [-119.1875558, 37.7116446], [-119.1876309, 37.7117327], [-119.1878133, 37.7118759], [-119.1878548, 37.7119682], [-119.1879353, 37.712034], [-119.1879889, 37.7122568], [-119.1879165, 37.7122992], [-119.1879058, 37.7123226], [-119.1877502, 37.7123077], [-119.1877288, 37.712365], [-119.1877502, 37.7124053], [-119.1878548, 37.7124117], [-119.1879085, 37.7124329], [-119.1879863, 37.7124181], [-119.1880667, 37.7124584], [-119.1881391, 37.712469], [-119.1882303, 37.7124563], [-119.1883054, 37.7124902], [-119.1882598, 37.7125326], [-119.1882679, 37.712573], [-119.1882196, 37.7126472], [-119.1881338, 37.71266], [-119.188174, 37.7127236], [-119.1881579, 37.7127363], [-119.1881686, 37.7127597], [-119.1882089, 37.712783], [-119.1881472, 37.7129018], [-119.1880989, 37.7129061], [-119.1879728, 37.7128318], [-119.1878763, 37.7128021], [-119.1878307, 37.7127427], [-119.1878361, 37.7126621], [-119.1877475, 37.7126239], [-119.1877154, 37.7125942], [-119.1876617, 37.7125899], [-119.1876322, 37.7126196], [-119.1875035, 37.7126239], [-119.1874203, 37.71266], [-119.1873747, 37.712713], [-119.1876161, 37.712783], [-119.1878226, 37.712783]], [[-119.1735452, 37.7279634], [-119.1735667, 37.7279485], [-119.173615, 37.7278913], [-119.1734326, 37.727694], [-119.1734219, 37.7276749], [-119.1734487, 37.7276494], [-119.173438, 37.7276324], [-119.1733629, 37.7275773], [-119.1733012, 37.7275646], [-119.1732582, 37.7275773], [-119.1732422, 37.7275921], [-119.1732475, 37.7276494], [-119.1731966, 37.7277152], [-119.1731912, 37.7277512], [-119.1730812, 37.7277894], [-119.1730866, 37.7278446], [-119.1731724, 37.7279316], [-119.1731858, 37.7279867], [-119.1732529, 37.7279782], [-119.1732958, 37.7279316], [-119.1733816, 37.7279464], [-119.1734326, 37.7279761], [-119.1735452, 37.7279634]], [[-119.1738738, 37.7263532], [-119.173898, 37.7262758], [-119.1739529, 37.7262206], [-119.173902, 37.7260933], [-119.173902, 37.7259968], [-119.1738497, 37.726001], [-119.1738242, 37.7259841], [-119.1738282, 37.7260965], [-119.173733, 37.7262058], [-119.1737008, 37.7262026], [-119.1736995, 37.726262], [-119.1737652, 37.7263553], [-119.1738094, 37.7263341], [-119.1738376, 37.7263394], [-119.1738537, 37.7263171], [-119.1738564, 37.7263585], [-119.1738738, 37.7263532]], [[-119.1747388, 37.7258048], [-119.1746557, 37.7257496], [-119.1745403, 37.7256033], [-119.1745377, 37.7255842], [-119.1745672, 37.7255598], [-119.1745202, 37.7254993], [-119.1744344, 37.7254728], [-119.1743727, 37.7254951], [-119.1743539, 37.7255693], [-119.1743888, 37.7255842], [-119.1743942, 37.7256033], [-119.1743539, 37.7257242], [-119.1744143, 37.7257953], [-119.1744478, 37.7258727], [-119.1744693, 37.7258844], [-119.1745149, 37.7258568], [-119.1745766, 37.7259034], [-119.174598, 37.7260159], [-119.1746342, 37.7260435], [-119.1747388, 37.7260339], [-119.1748475, 37.7259862], [-119.1747898, 37.7259215], [-119.1747388, 37.7258048]], [[-119.1751881, 37.7266428], [-119.1753061, 37.7267595], [-119.1753235, 37.7267584], [-119.1752324, 37.7264656], [-119.1751787, 37.7263882], [-119.1751036, 37.7263267], [-119.1750835, 37.7262768], [-119.1750513, 37.7262556], [-119.1749708, 37.7262482], [-119.1749775, 37.7262991], [-119.1749199, 37.7264359], [-119.1749306, 37.7264847], [-119.1749534, 37.7265081], [-119.1749829, 37.7265102], [-119.1750392, 37.7264762], [-119.1750741, 37.7265282], [-119.1751438, 37.7265356], [-119.1751881, 37.7266428]], [[-119.175282, 37.7240461], [-119.1752357, 37.724036], [-119.1751921, 37.7240636], [-119.1752149, 37.7240853], [-119.1752256, 37.7240492], [-119.1752753, 37.7240567], [-119.175282, 37.7240461]], [[-119.175919, 37.7253731], [-119.1758332, 37.7253975], [-119.1758238, 37.7254166], [-119.1758479, 37.7254282], [-119.1759257, 37.7253932], [-119.175919, 37.7253731]], [[-119.1759016, 37.723617], [-119.1759116, 37.7235841], [-119.1758882, 37.7235682], [-119.1758493, 37.723609], [-119.1759016, 37.723617]], [[-119.1762301, 37.7264105], [-119.1762623, 37.726402], [-119.1763173, 37.7263702], [-119.17632, 37.7262906], [-119.1763736, 37.7262418], [-119.1763844, 37.7261665], [-119.1764367, 37.7261304], [-119.1765131, 37.72614], [-119.1766056, 37.7262005], [-119.1766365, 37.7261909], [-119.1766647, 37.7261601], [-119.1766244, 37.7260721], [-119.1766995, 37.7260191], [-119.1767102, 37.7259809], [-119.1767009, 37.725965], [-119.1765493, 37.7259088], [-119.1765104, 37.7258812], [-119.1764729, 37.7257868], [-119.176438, 37.7257815], [-119.1763683, 37.7258207], [-119.1763347, 37.7258674], [-119.1762999, 37.7258684], [-119.1762476, 37.725896], [-119.1762342, 37.7259215], [-119.1761738, 37.7259331], [-119.176143, 37.7259862], [-119.1760987, 37.726018], [-119.1761068, 37.7260339], [-119.1761403, 37.7260307], [-119.1761376, 37.726088], [-119.1760665, 37.7261867], [-119.1760692, 37.7262132], [-119.1760947, 37.7262312], [-119.176041, 37.7263267], [-119.1761161, 37.72635], [-119.1761604, 37.7263447], [-119.1761617, 37.7263596], [-119.1761255, 37.7263702], [-119.1761269, 37.7263882], [-119.1761738, 37.7263829], [-119.1762167, 37.7263553], [-119.1762301, 37.7264105]], [[-119.1761534, 37.7264823], [-119.1761346, 37.7264802], [-119.1760984, 37.7264964], [-119.1761108, 37.7265144], [-119.1761336, 37.7265208], [-119.1761577, 37.7264985], [-119.1761534, 37.7264823]], [[-119.1763347, 37.7246783], [-119.1763964, 37.7246762], [-119.1764085, 37.7246401], [-119.176387, 37.7245796], [-119.1763991, 37.7245658], [-119.1763642, 37.7245319], [-119.1763347, 37.724534], [-119.1762704, 37.7245871], [-119.1761859, 37.7246136], [-119.176147, 37.7246486], [-119.1761363, 37.7246953], [-119.1762275, 37.7246804], [-119.1762261, 37.7247048], [-119.1762395, 37.7247069], [-119.1763347, 37.7246783]], [[-119.1761966, 37.7228845], [-119.176214, 37.7228527], [-119.1762663, 37.7228325], [-119.1762784, 37.722806], [-119.1763267, 37.7227922], [-119.1763146, 37.7227763], [-119.1762757, 37.7227689], [-119.1762234, 37.7228272], [-119.1761376, 37.7228644], [-119.1761483, 37.7228781], [-119.1761966, 37.7228845]], [[-119.176269, 37.7249562], [-119.1761845, 37.7249795], [-119.1761631, 37.7249997], [-119.1761778, 37.7250262], [-119.1762006, 37.7250273], [-119.1762757, 37.7249817], [-119.176269, 37.7249562]], [[-119.1762838, 37.7265038], [-119.1761845, 37.7265897], [-119.1761805, 37.7266088], [-119.1762435, 37.7266396], [-119.1763012, 37.7265919], [-119.1763428, 37.726507], [-119.1762838, 37.7265038]], [[-119.1763093, 37.7254569], [-119.1762838, 37.7254887], [-119.1763683, 37.7255057], [-119.1764112, 37.7254866], [-119.1763924, 37.725441], [-119.1764206, 37.7253826], [-119.1763911, 37.7253741], [-119.1763629, 37.7254622], [-119.1763093, 37.7254569]], [[-119.1765788, 37.7252193], [-119.1766056, 37.7251896], [-119.1766271, 37.7251227], [-119.1766284, 37.7250708], [-119.176603, 37.725057], [-119.1766137, 37.7250082], [-119.1766968, 37.7249106], [-119.1765842, 37.7249074], [-119.1765305, 37.7248682], [-119.1764675, 37.7248618], [-119.1764018, 37.7248851], [-119.1763334, 37.7249329], [-119.1763294, 37.7249509], [-119.1763589, 37.7249594], [-119.1763669, 37.7250262], [-119.1763924, 37.7250655], [-119.1763803, 37.7251089], [-119.1764434, 37.7251429], [-119.1764326, 37.7252405], [-119.1764782, 37.7252628], [-119.1764581, 37.7253116], [-119.1765091, 37.7252776], [-119.1764957, 37.7252352], [-119.1765399, 37.7252097], [-119.1765788, 37.7252193]], [[-119.1767196, 37.725599], [-119.1767384, 37.7255142], [-119.176674, 37.7255014], [-119.1766432, 37.7254685], [-119.1766419, 37.7254325], [-119.1766043, 37.7253826], [-119.1765802, 37.7253763], [-119.1764139, 37.7255078], [-119.1764072, 37.7255163], [-119.1764313, 37.7255226], [-119.1763978, 37.7255576], [-119.1764125, 37.7255672], [-119.1764648, 37.725529], [-119.1765828, 37.7255969], [-119.1765627, 37.7256743], [-119.1766191, 37.7256277], [-119.1766003, 37.7255852], [-119.1766284, 37.7255555], [-119.1766499, 37.7255576], [-119.1766593, 37.7255757], [-119.1766445, 37.7255969], [-119.1766901, 37.7255884], [-119.1767196, 37.725599]], [[-119.1766982, 37.7257677], [-119.1766338, 37.7256902], [-119.1765895, 37.7257178], [-119.1766016, 37.7257634], [-119.1766727, 37.7258016], [-119.1766942, 37.7257931], [-119.1766982, 37.7257677]], [[-119.1768202, 37.7265897], [-119.1766915, 37.7266841], [-119.1767035, 37.7267022], [-119.1768055, 37.726699], [-119.1768202, 37.7266534], [-119.1768537, 37.7266237], [-119.1768202, 37.7265897]], [[-119.1767044, 37.7252615], [-119.1767591, 37.7253106], [-119.1768758, 37.7252154], [-119.1768721, 37.7251317], [-119.1768028, 37.7251721], [-119.1767044, 37.7252615]], [[-119.1769476, 37.7257284], [-119.1770026, 37.7256934], [-119.1769677, 37.7256001], [-119.1770241, 37.7255661], [-119.1770133, 37.725529], [-119.1769865, 37.7255163], [-119.1770013, 37.7254834], [-119.1769624, 37.7254484], [-119.1769034, 37.7254749], [-119.1769128, 37.7255035], [-119.1768712, 37.7255099], [-119.1768135, 37.7255534], [-119.1768028, 37.7255884], [-119.1768323, 37.7256425], [-119.1768041, 37.7256574], [-119.1767639, 37.7256372], [-119.1767116, 37.7257412], [-119.176788, 37.7257899], [-119.1767921, 37.725826], [-119.1767733, 37.7258345], [-119.1768001, 37.72586], [-119.1768229, 37.7258695], [-119.1769061, 37.7258621], [-119.1769195, 37.7258334], [-119.1768873, 37.725808], [-119.1768819, 37.7257422], [-119.1769476, 37.7257284]], [[-119.1767867, 37.7259109], [-119.1767558, 37.7258801], [-119.1767438, 37.7259183], [-119.1767518, 37.7259469], [-119.1767719, 37.7259353], [-119.1767867, 37.7259109]], [[-119.1767894, 37.7248841], [-119.1767612, 37.724901], [-119.1768081, 37.7249307], [-119.1767894, 37.7248841]], [[-119.176898, 37.7265855], [-119.1769181, 37.7265749], [-119.1769288, 37.7265314], [-119.1769584, 37.7265144], [-119.1770066, 37.7264381], [-119.177008, 37.726419], [-119.1769865, 37.7264094], [-119.1768993, 37.7264837], [-119.1769007, 37.7265314], [-119.1768537, 37.7265675], [-119.176898, 37.7265855]], [[-119.1769074, 37.7267234], [-119.1768739, 37.7267945], [-119.1768913, 37.7268698], [-119.1769382, 37.7268836], [-119.1769651, 37.7268178], [-119.1769382, 37.7267414], [-119.1769074, 37.7267234]], [[-119.1769235, 37.7266969], [-119.1769838, 37.7267085], [-119.1769932, 37.7266916], [-119.1769744, 37.7266714], [-119.1769879, 37.7266364], [-119.176961, 37.7266237], [-119.1769235, 37.7266969]], [[-119.1770549, 37.7271986], [-119.1771314, 37.7271275], [-119.1771381, 37.7270724], [-119.1771099, 37.7270395], [-119.1771354, 37.7270225], [-119.1771381, 37.7269249], [-119.17713, 37.7269164], [-119.1770992, 37.7269302], [-119.177071, 37.7270034], [-119.177008, 37.7270448], [-119.1769825, 37.7270862], [-119.1769838, 37.7271339], [-119.17702, 37.727153], [-119.1770549, 37.7271986]], [[-119.1772829, 37.7248554], [-119.177307, 37.7248331], [-119.1772574, 37.7248342], [-119.1772427, 37.7247981], [-119.177193, 37.7247536], [-119.1771542, 37.7247557], [-119.1771153, 37.724778], [-119.1771099, 37.7248512], [-119.1770723, 37.7248979], [-119.1770697, 37.7249509], [-119.1770254, 37.7250114], [-119.1771635, 37.7250135], [-119.1771837, 37.7249901], [-119.1772212, 37.7250082], [-119.1773365, 37.7250071], [-119.17735, 37.7249923], [-119.1773781, 37.7249954], [-119.1774063, 37.7249657], [-119.1773969, 37.7249265], [-119.1773701, 37.7249063], [-119.1773526, 37.724918], [-119.1773607, 37.7249615], [-119.17724, 37.7249827], [-119.1772762, 37.7249467], [-119.1772829, 37.7248554]], [[-119.177468, 37.7252394], [-119.17748, 37.7251811], [-119.1774143, 37.725075], [-119.1773701, 37.725058], [-119.1773044, 37.7250835], [-119.1772909, 37.7251715], [-119.1772185, 37.7251461], [-119.1771743, 37.7251758], [-119.1772051, 37.7252224], [-119.1771676, 37.7252999], [-119.1770549, 37.7253359], [-119.1770388, 37.7253625], [-119.1770804, 37.7256372], [-119.1771166, 37.7256139], [-119.17713, 37.7256266], [-119.1771729, 37.7256202], [-119.1772011, 37.7256054], [-119.1772118, 37.7255767], [-119.1772547, 37.7255683], [-119.1772695, 37.7255428], [-119.177303, 37.7255439], [-119.1773567, 37.7255173], [-119.1773754, 37.7255322], [-119.1774224, 37.7255173], [-119.1773835, 37.7254558], [-119.1774277, 37.7254399], [-119.1774613, 37.7254431], [-119.1775069, 37.7254823], [-119.1775484, 37.7254813], [-119.1775699, 37.7254611], [-119.1775793, 37.7254017], [-119.1775672, 37.725267], [-119.1775525, 37.7252511], [-119.177468, 37.7252394]], [[-119.1771474, 37.7265781], [-119.1771045, 37.7265866], [-119.1770428, 37.7265611], [-119.1770563, 37.7266163], [-119.1771474, 37.7266767], [-119.1771917, 37.7266258], [-119.1771474, 37.7265781]], [[-119.1770589, 37.7268051], [-119.1770938, 37.7268242], [-119.1771622, 37.7269154], [-119.1771823, 37.7269175], [-119.1772252, 37.7268867], [-119.1772413, 37.7268263], [-119.1772105, 37.726786], [-119.1770643, 37.7267213], [-119.1770576, 37.7267393], [-119.1770589, 37.7268051]], [[-119.1772641, 37.7266661], [-119.1773017, 37.7266651], [-119.1773607, 37.7266343], [-119.1773607, 37.7265696], [-119.1774237, 37.7265272], [-119.1773956, 37.7264667], [-119.1773164, 37.7264943], [-119.1773272, 37.7265293], [-119.1772749, 37.7265388], [-119.1772252, 37.7266269], [-119.1772641, 37.7266661]], [[-119.17748, 37.7264572], [-119.1775109, 37.7264306], [-119.1775028, 37.7264126], [-119.1774586, 37.726419], [-119.17748, 37.7264572]], [[-119.1775699, 37.7261856], [-119.1775243, 37.7262291], [-119.1775189, 37.7262577], [-119.1775645, 37.7263405], [-119.1776101, 37.7263129], [-119.1776504, 37.7263288], [-119.1776544, 37.7263097], [-119.1777389, 37.7262768], [-119.1777161, 37.726192], [-119.1777483, 37.7261654], [-119.1777281, 37.7261548], [-119.1777067, 37.7261633], [-119.1776772, 37.7261421], [-119.1776396, 37.7261464], [-119.1775699, 37.7261856]], [[-119.178227, 37.7210886], [-119.1782257, 37.7211289], [-119.1782928, 37.721114], [-119.1783236, 37.7210727], [-119.1783759, 37.7210642], [-119.1783611, 37.7210398], [-119.1782995, 37.7210493], [-119.1782646, 37.7209857], [-119.1783638, 37.7209846], [-119.1783598, 37.720957], [-119.178164, 37.721008], [-119.178227, 37.7210886]], [[-119.1781707, 37.7267563], [-119.1781828, 37.7267849], [-119.1783249, 37.726803], [-119.178329, 37.7267605], [-119.1783705, 37.7267478], [-119.1783759, 37.7266714], [-119.1783692, 37.7266205], [-119.1783236, 37.7266067], [-119.1782297, 37.7266788], [-119.1781721, 37.7266704], [-119.1781694, 37.7266799], [-119.1781855, 37.7267075], [-119.1781707, 37.7267563]], [[-119.1787554, 37.7211353], [-119.1788788, 37.7211215], [-119.1788735, 37.721079], [-119.1788453, 37.7210663], [-119.1788051, 37.7209623], [-119.1787823, 37.7209602], [-119.1787702, 37.7209284], [-119.178675, 37.7209252], [-119.1786589, 37.7209613], [-119.1786723, 37.7210313], [-119.1787085, 37.7210589], [-119.1787165, 37.7210865], [-119.1786844, 37.7210907], [-119.1786052, 37.721026], [-119.1786079, 37.7210684], [-119.1785543, 37.7211162], [-119.1785342, 37.7211225], [-119.1784684, 37.7211013], [-119.1784054, 37.7211193], [-119.1784671, 37.7211947], [-119.1785891, 37.7212371], [-119.1785784, 37.7211851], [-119.1786066, 37.7211193], [-119.1787554, 37.7211353]], [[-119.1786991, 37.7267971], [-119.1786287, 37.7267844], [-119.1785683, 37.7267314], [-119.1784865, 37.7267441], [-119.1784356, 37.7267865], [-119.1784416, 37.7268178], [-119.1785201, 37.7268666], [-119.1785717, 37.7267966], [-119.1786193, 37.7268395], [-119.1787051, 37.7268093], [-119.1786991, 37.7267971]], [[-119.1787494, 37.7209003], [-119.1787648, 37.7209019], [-119.1787568, 37.720826], [-119.1787293, 37.7208319], [-119.1787494, 37.7209003]], [[-119.1788439, 37.720835], [-119.1788198, 37.7208828], [-119.1788909, 37.7209263], [-119.1789499, 37.7208722], [-119.1789284, 37.720782], [-119.1788493, 37.7207618], [-119.1787957, 37.7207682], [-119.1787876, 37.7207937], [-119.1788439, 37.720835]], [[-119.1791068, 37.7215946], [-119.1789915, 37.7215978], [-119.178856, 37.7216551], [-119.178907, 37.721706], [-119.1790344, 37.7216932], [-119.1791068, 37.7215946]], [[-119.1789486, 37.7209772], [-119.1789177, 37.7210048], [-119.1789754, 37.7210822], [-119.1790062, 37.721078], [-119.179033, 37.7210164], [-119.1790062, 37.7210016], [-119.17897, 37.7210058], [-119.1789486, 37.7209772]], [[-119.1789325, 37.7272564], [-119.1789553, 37.7272548], [-119.1789687, 37.727232], [-119.1789412, 37.7272272], [-119.1789325, 37.7272564]], [[-119.1792516, 37.7215023], [-119.1792932, 37.72148], [-119.1792691, 37.7214376], [-119.1792329, 37.7214843], [-119.1792516, 37.7215023]], [[-119.1792838, 37.720399], [-119.1792771, 37.7204234], [-119.1793308, 37.7204203], [-119.179375, 37.7204447], [-119.1794045, 37.7204351], [-119.1793884, 37.7203895], [-119.1792838, 37.720399]], [[-119.180342, 37.723765], [-119.1803943, 37.723766], [-119.1804385, 37.723713], [-119.1805042, 37.7237257], [-119.1804908, 37.7236663], [-119.1804667, 37.7236515], [-119.1803715, 37.7236472], [-119.1802937, 37.7236652], [-119.180342, 37.723765]], [[-119.1804754, 37.7259257], [-119.1804841, 37.725905], [-119.1804653, 37.7258806], [-119.1804412, 37.7258838], [-119.1804754, 37.7259257]], [[-119.1809347, 37.7198845], [-119.180873, 37.7197976], [-119.1808864, 37.7197816], [-119.1808704, 37.7197541], [-119.18081, 37.7197212], [-119.1807765, 37.719665], [-119.1807014, 37.7196395], [-119.180645, 37.7196512], [-119.1806343, 37.7196692], [-119.1806424, 37.7197339], [-119.1806746, 37.719788], [-119.1807148, 37.7197901], [-119.1808382, 37.7198994], [-119.1808797, 37.7199121], [-119.1809347, 37.7198845]], [[-119.1808261, 37.7200267], [-119.1808516, 37.7200341], [-119.1808704, 37.7200002], [-119.1808006, 37.7199917], [-119.1808261, 37.7200267]], [[-119.1810823, 37.7199058], [-119.1810326, 37.719822], [-119.1809857, 37.7198464], [-119.1810407, 37.719927], [-119.1810621, 37.719928], [-119.1810823, 37.7199058]], [[-119.1810675, 37.7197339], [-119.1810648, 37.7197827], [-119.1811091, 37.7198294], [-119.1811627, 37.71984], [-119.1811976, 37.7198039], [-119.1811627, 37.7197519], [-119.1810675, 37.7197339]], [[-119.1812204, 37.7200532], [-119.1811855, 37.7199991], [-119.181093, 37.7199874], [-119.18116, 37.7200628], [-119.181211, 37.7200702], [-119.1812204, 37.7200532]], [[-119.1812526, 37.725582], [-119.1812325, 37.7255714], [-119.1812056, 37.7255863], [-119.1812224, 37.7256123], [-119.1812459, 37.7256033], [-119.1812526, 37.725582]], [[-119.181384, 37.7193372], [-119.1813411, 37.7193382], [-119.181388, 37.7194019], [-119.1814162, 37.7194135], [-119.1814269, 37.7193997], [-119.181384, 37.7193372]], [[-119.1813988, 37.7241978], [-119.1814551, 37.7241384], [-119.1814202, 37.7241235], [-119.1813988, 37.7241299], [-119.1813532, 37.7241956], [-119.1813988, 37.7241978]], [[-119.1816133, 37.7191918], [-119.181667, 37.7191844], [-119.1816831, 37.7191579], [-119.1816348, 37.7190677], [-119.1815986, 37.7190603], [-119.1815664, 37.7190719], [-119.1815329, 37.7190582], [-119.1815168, 37.7190688], [-119.1815409, 37.7190953], [-119.1815275, 37.7191207], [-119.1816133, 37.7191918]], [[-119.1816723, 37.7204128], [-119.1816536, 37.7203895], [-119.181549, 37.7204521], [-119.1815597, 37.720468], [-119.1816281, 37.720486], [-119.1816723, 37.7204128]], [[-119.1816254, 37.7237809], [-119.1816509, 37.7237841], [-119.1817139, 37.7237618], [-119.1817153, 37.7237246], [-119.1817488, 37.7236812], [-119.1817059, 37.7236727], [-119.181667, 37.7236875], [-119.1815758, 37.7236674], [-119.181553, 37.7237087], [-119.1816254, 37.7237809]], [[-119.181667, 37.7248215], [-119.1817917, 37.724901], [-119.1818252, 37.7249032], [-119.1818319, 37.7248872], [-119.1818225, 37.7248204], [-119.1817595, 37.7247663], [-119.1817112, 37.7247515], [-119.1816442, 37.7247642], [-119.181667, 37.7248215]], [[-119.1824327, 37.7205561], [-119.1824515, 37.7205518], [-119.1824743, 37.7204807], [-119.1824354, 37.7204309], [-119.1823778, 37.720416], [-119.182308, 37.7203439], [-119.1822369, 37.7203259], [-119.1821457, 37.7202718], [-119.1821538, 37.7202505], [-119.1821216, 37.7202548], [-119.1820264, 37.7201869], [-119.1819271, 37.7201964], [-119.181789, 37.7201572], [-119.1817568, 37.7201689], [-119.1817515, 37.7202123], [-119.1816844, 37.7201943], [-119.1817273, 37.7202718], [-119.1816951, 37.7203163], [-119.1817112, 37.7203481], [-119.1818199, 37.7204128], [-119.1818775, 37.7204192], [-119.1819754, 37.720398], [-119.1820344, 37.7204065], [-119.1822249, 37.7204574], [-119.1822946, 37.7205019], [-119.1824327, 37.7205561]], [[-119.182528, 37.7235072], [-119.182485, 37.7234414], [-119.1823295, 37.7234245], [-119.1820747, 37.7234351], [-119.1820626, 37.7234128], [-119.1819888, 37.7234351], [-119.1818574, 37.7234351], [-119.181852, 37.7234542], [-119.1819137, 37.7235242], [-119.1817997, 37.7236207], [-119.1818145, 37.7236578], [-119.1818507, 37.7236493], [-119.1818936, 37.723678], [-119.1820787, 37.7236812], [-119.1821176, 37.7236748], [-119.1821283, 37.7236493], [-119.1821659, 37.7236451], [-119.1821967, 37.7236759], [-119.1823201, 37.7237045], [-119.1823912, 37.7237512], [-119.182363, 37.7237045], [-119.1823791, 37.7236949], [-119.1825481, 37.7237395], [-119.1824931, 37.7236822], [-119.182528, 37.7235072]], [[-119.1821927, 37.7250559], [-119.1821685, 37.7250262], [-119.182072, 37.7249721], [-119.1820653, 37.7248947], [-119.1820371, 37.7248565], [-119.1819982, 37.7248416], [-119.1818923, 37.7248979], [-119.1819111, 37.7249456], [-119.1818789, 37.7250061], [-119.1818789, 37.7250708], [-119.1818507, 37.7251005], [-119.1818641, 37.725128], [-119.1819701, 37.7251683], [-119.1820103, 37.7251514], [-119.1821001, 37.7251546], [-119.1821256, 37.7250856], [-119.1821739, 37.7250761], [-119.1821927, 37.7250559]], [[-119.1819982, 37.7207046], [-119.1819245, 37.7207375], [-119.1819365, 37.720765], [-119.1821256, 37.7207077], [-119.182182, 37.7207067], [-119.1822302, 37.7207279], [-119.1822262, 37.7206696], [-119.1819982, 37.7207046]], [[-119.1822088, 37.7252946], [-119.1821229, 37.7253243], [-119.1821069, 37.7253582], [-119.1821229, 37.7253922], [-119.1822115, 37.7253752], [-119.1822302, 37.7253625], [-119.1822088, 37.7252946]], [[-119.1823134, 37.7205942], [-119.1822624, 37.7205804], [-119.1822571, 37.7206409], [-119.1823335, 37.7206367], [-119.1823456, 37.7206218], [-119.1823134, 37.7205942]], [[-119.1828498, 37.7241002], [-119.1828565, 37.7240545], [-119.1828404, 37.7240333], [-119.1828632, 37.7240238], [-119.1828297, 37.723957], [-119.1827439, 37.7238986], [-119.1826916, 37.723906], [-119.1826715, 37.7239559], [-119.1825669, 37.7239951], [-119.1825628, 37.724063], [-119.1826071, 37.7241097], [-119.1825588, 37.7241341], [-119.1825816, 37.7241543], [-119.182642, 37.7241521], [-119.1826245, 37.7241171], [-119.1826527, 37.7241055], [-119.1826916, 37.7241543], [-119.1827855, 37.7241946], [-119.1827439, 37.7241988], [-119.1827425, 37.7242264], [-119.1826782, 37.7242232], [-119.1826741, 37.7242519], [-119.182654, 37.7242476], [-119.1826393, 37.7242816], [-119.1826245, 37.7243547], [-119.1827345, 37.724341], [-119.1828083, 37.7242762], [-119.1828096, 37.7242497], [-119.1828337, 37.7242455], [-119.1828646, 37.7242614], [-119.182878, 37.7242115], [-119.1829585, 37.7242232], [-119.1830014, 37.7241978], [-119.1829491, 37.7241787], [-119.1829316, 37.7241458], [-119.1829504, 37.7241246], [-119.1829209, 37.7241002], [-119.1828498, 37.7241002]], [[-119.1832106, 37.7225695], [-119.1832495, 37.7225249], [-119.1832079, 37.7224655], [-119.1831636, 37.7224623], [-119.1831341, 37.7224305], [-119.1830269, 37.7223775], [-119.1829571, 37.7222788], [-119.182882, 37.7222608], [-119.1828364, 37.7221801], [-119.1827305, 37.7222003], [-119.1826795, 37.7222311], [-119.1826996, 37.7222374], [-119.1827372, 37.7222979], [-119.1827372, 37.722335], [-119.1829236, 37.722526], [-119.1829491, 37.7225928], [-119.1830255, 37.7226289], [-119.1830403, 37.7226819], [-119.1830657, 37.7226734], [-119.1831274, 37.7227095], [-119.1831677, 37.7226999], [-119.1832106, 37.7225695]], [[-119.1830537, 37.7238466], [-119.1830483, 37.7238275], [-119.1830121, 37.7238328], [-119.1830255, 37.7238668], [-119.183047, 37.7238647], [-119.1830537, 37.7238466]], [[-119.1830792, 37.724097], [-119.1830979, 37.7240736], [-119.1830483, 37.7240259], [-119.1830188, 37.724045], [-119.1830416, 37.7240843], [-119.1830792, 37.724097]], [[-119.1831402, 37.7220351], [-119.1830825, 37.722003], [-119.1830694, 37.7220062], [-119.1831164, 37.7220497], [-119.1831402, 37.7220351]], [[-119.1831194, 37.7213039], [-119.1830872, 37.7213177], [-119.1830885, 37.7213453], [-119.1831328, 37.7213952], [-119.1831838, 37.7214153], [-119.1831931, 37.7213612], [-119.1831717, 37.7213145], [-119.1831194, 37.7213039]], [[-119.1831824, 37.7210674], [-119.1832079, 37.7210631], [-119.1832039, 37.7210377], [-119.1831811, 37.7210366], [-119.1831663, 37.7210525], [-119.1831824, 37.7210674]], [[-119.1837363, 37.7194125], [-119.1836706, 37.7192544], [-119.1836169, 37.7192587], [-119.1835271, 37.7193159], [-119.1834869, 37.719265], [-119.1835029, 37.7191664], [-119.1833916, 37.7191229], [-119.1833353, 37.7191791], [-119.1832937, 37.7191844], [-119.1832736, 37.7192035], [-119.1833863, 37.7192608], [-119.1834708, 37.7193467], [-119.1835043, 37.7193541], [-119.1835566, 37.7194316], [-119.1835512, 37.7194698], [-119.1835834, 37.7195048], [-119.1836733, 37.7195196], [-119.1837081, 37.719543], [-119.1837645, 37.7195313], [-119.1838449, 37.7195557], [-119.183861, 37.719578], [-119.1839026, 37.7195674], [-119.1839455, 37.7195334], [-119.1839281, 37.7194867], [-119.1838034, 37.7194539], [-119.1837363, 37.7194125]], [[-119.1836397, 37.7243569], [-119.1836411, 37.7243993], [-119.18368, 37.7243919], [-119.1837055, 37.7243717], [-119.1836746, 37.7243303], [-119.1836867, 37.7242211], [-119.1836357, 37.7241893], [-119.1835016, 37.7242603], [-119.1835137, 37.7242826], [-119.1834815, 37.7243229], [-119.1834319, 37.7243325], [-119.1833916, 37.7243144], [-119.1833434, 37.7243197], [-119.183287, 37.7243558], [-119.1833501, 37.7243929], [-119.183397, 37.7243876], [-119.183456, 37.7244025], [-119.183507, 37.7243643], [-119.1835512, 37.7243516], [-119.1835579, 37.7243144], [-119.1836022, 37.7242709], [-119.1835915, 37.7243431], [-119.1836397, 37.7243569]], [[-119.1833018, 37.7188163], [-119.1833527, 37.7188863], [-119.1834037, 37.7189043], [-119.1834278, 37.7189033], [-119.1835043, 37.718846], [-119.183507, 37.7187707], [-119.1834426, 37.7187208], [-119.1833608, 37.7187208], [-119.183334, 37.718741], [-119.1833112, 37.7187632], [-119.1833018, 37.7188163]], [[-119.1834775, 37.7226214], [-119.1835043, 37.7225779], [-119.1835418, 37.7225567], [-119.1835713, 37.7225737], [-119.1835874, 37.7225652], [-119.1835512, 37.7225302], [-119.1835526, 37.7224878], [-119.1834292, 37.7225058], [-119.1833514, 37.7225896], [-119.1833635, 37.722631], [-119.1833876, 37.7226278], [-119.1834439, 37.7226798], [-119.1834171, 37.7227084], [-119.1833889, 37.7227127], [-119.1833796, 37.7227498], [-119.1833997, 37.7227572], [-119.1834734, 37.7227222], [-119.1834962, 37.7226925], [-119.1834775, 37.7226214]], [[-119.183456, 37.7196034], [-119.1834909, 37.7196109], [-119.1834788, 37.7195217], [-119.1834305, 37.719561], [-119.183456, 37.7196034]], [[-119.1834882, 37.7238583], [-119.1835432, 37.723853], [-119.1835338, 37.7238042], [-119.1835016, 37.7238042], [-119.1834761, 37.723835], [-119.1834882, 37.7238583]], [[-119.183967, 37.7227031], [-119.183975, 37.7226554], [-119.1840649, 37.7226246], [-119.1840541, 37.7225917], [-119.1840018, 37.7225557], [-119.1840032, 37.7225196], [-119.1839562, 37.7224963], [-119.1838744, 37.7225238], [-119.1838101, 37.7226002], [-119.1837376, 37.7226002], [-119.1837645, 37.7226564], [-119.1838127, 37.7226352], [-119.1838731, 37.7226978], [-119.1839401, 37.7227222], [-119.183967, 37.7227031]], [[-119.1838476, 37.7224496], [-119.1838288, 37.7224857], [-119.1838691, 37.7224687], [-119.18392, 37.7224708], [-119.1838986, 37.7224093], [-119.1839294, 37.7223615], [-119.1838342, 37.7223626], [-119.183806, 37.7223997], [-119.1838476, 37.7224496]], [[-119.183979, 37.7239612], [-119.1840018, 37.7239612], [-119.1840555, 37.7238689], [-119.1840434, 37.7238212], [-119.1840877, 37.7237724], [-119.184089, 37.7237193], [-119.1840582, 37.7236886], [-119.1839522, 37.7236992], [-119.183912, 37.723678], [-119.1838261, 37.7236939], [-119.1838329, 37.7237193], [-119.1838074, 37.7237883], [-119.1838972, 37.7239538], [-119.1839616, 37.723941], [-119.183979, 37.7239612]], [[-119.1841829, 37.717243], [-119.1842741, 37.71719], [-119.1843599, 37.7171773], [-119.184368, 37.7171603], [-119.1843519, 37.7171454], [-119.1842473, 37.7171433], [-119.1841856, 37.7171709], [-119.1840568, 37.7170839], [-119.1839656, 37.7171115], [-119.1839522, 37.7171306], [-119.1839817, 37.7171751], [-119.1841587, 37.717243], [-119.1841829, 37.717243]], [[-119.1845544, 37.7222937], [-119.1845356, 37.7221844], [-119.1845101, 37.7221674], [-119.1843733, 37.7221345], [-119.1842821, 37.7220666], [-119.1841775, 37.7220677], [-119.1841185, 37.7220518], [-119.184081, 37.7220857], [-119.1840984, 37.722142], [-119.1840756, 37.7222417], [-119.1840957, 37.7222523], [-119.184089, 37.7222926], [-119.1841574, 37.7223965], [-119.1842996, 37.7224422], [-119.18438, 37.7224506], [-119.1844431, 37.7224231], [-119.1845544, 37.7222937]], [[-119.1841534, 37.7235708], [-119.1841185, 37.7235305], [-119.1840823, 37.7235475], [-119.1841145, 37.7235804], [-119.1841292, 37.7236472], [-119.1841534, 37.7235708]], [[-119.1841829, 37.7187049], [-119.1841453, 37.7187261], [-119.1841668, 37.7187664], [-119.1842231, 37.7187452], [-119.1842204, 37.718724], [-119.1841829, 37.7187049]], [[-119.1841467, 37.7231147], [-119.1841748, 37.7231614], [-119.1843049, 37.7232102], [-119.1843814, 37.7231974], [-119.1844337, 37.723138], [-119.184431, 37.7230977], [-119.1844001, 37.7230882], [-119.1842955, 37.7231465], [-119.1842996, 37.7231105], [-119.1842499, 37.7230691], [-119.1841467, 37.7231147]], [[-119.1844551, 37.7233916], [-119.1844283, 37.7233693], [-119.1843398, 37.7233767], [-119.1843049, 37.7234001], [-119.184435, 37.7234011], [-119.1844551, 37.7233916]], [[-119.1845235, 37.7226978], [-119.1844833, 37.7226745], [-119.1844283, 37.7226861], [-119.1844605, 37.7227307], [-119.1844967, 37.722736], [-119.1845235, 37.7226978]], [[-119.1852719, 37.7191886], [-119.1852665, 37.7190486], [-119.1853014, 37.7190295], [-119.1854569, 37.7190359], [-119.1855669, 37.7190104], [-119.1856769, 37.7189128], [-119.1856849, 37.7188768], [-119.1854408, 37.7189531], [-119.1853389, 37.718968], [-119.1852799, 37.7189998], [-119.1851324, 37.719038], [-119.1850814, 37.7190783], [-119.1850519, 37.7190873], [-119.1850787, 37.7191335], [-119.1852075, 37.7191908], [-119.1852289, 37.7192205], [-119.1852504, 37.7192205], [-119.1852719, 37.7191886]], [[-119.1865164, 37.7164941], [-119.1865218, 37.7164559], [-119.1864789, 37.7163837], [-119.1864145, 37.7163286], [-119.1863233, 37.7162819], [-119.1863233, 37.716197], [-119.186275, 37.716074], [-119.1861945, 37.7160358], [-119.1861033, 37.716023], [-119.1859639, 37.7161249], [-119.1859263, 37.7162352], [-119.1858995, 37.7162649], [-119.1857225, 37.7163328], [-119.1856098, 37.716405], [-119.1855884, 37.7164389], [-119.1856206, 37.7166256], [-119.1856849, 37.7167147], [-119.1857117, 37.7168251], [-119.1858083, 37.7169184], [-119.1858995, 37.7170712], [-119.1860282, 37.7171603], [-119.1860551, 37.7171985], [-119.1859263, 37.7172452], [-119.1858244, 37.7172324], [-119.1857439, 37.7171815], [-119.185642, 37.7170415], [-119.1855508, 37.7170033], [-119.1854972, 37.7170075], [-119.1854113, 37.71705], [-119.1853416, 37.7171179], [-119.1852611, 37.7172112], [-119.1852504, 37.7172834], [-119.185288, 37.7173385], [-119.1853684, 37.717381], [-119.1854543, 37.7173767], [-119.1856366, 37.7172918], [-119.1857117, 37.7172961], [-119.185862, 37.7173597], [-119.1859478, 37.7173767], [-119.186039, 37.7173682], [-119.186216, 37.7173131], [-119.1862857, 37.7173555], [-119.1864467, 37.7174022], [-119.186495, 37.7174022], [-119.1865701, 37.717364], [-119.1865701, 37.7172452], [-119.1866237, 37.7171773], [-119.186613, 37.7170966], [-119.1866827, 37.7170585], [-119.1867256, 37.7169906], [-119.1867685, 37.7168845], [-119.1867632, 37.7168081], [-119.1866827, 37.7166596], [-119.1865915, 37.7166214], [-119.1865164, 37.7164941]], [[-119.1861731, 37.7152252], [-119.1862831, 37.715238], [-119.186275, 37.7151913], [-119.1862401, 37.7151658], [-119.1861919, 37.7151573], [-119.1860631, 37.7151573], [-119.1859612, 37.7151764], [-119.1859022, 37.7151001], [-119.185921, 37.715064], [-119.1858834, 37.7149897], [-119.1857895, 37.7148964], [-119.1856661, 37.7149494], [-119.1855776, 37.7150088], [-119.185473, 37.7150216], [-119.1854462, 37.7150873], [-119.1854569, 37.715117], [-119.1855481, 37.7151658], [-119.1855964, 37.7151701], [-119.1856366, 37.7151913], [-119.1856715, 37.7151743], [-119.185819, 37.7151871], [-119.1858619, 37.7152486], [-119.1859263, 37.7152592], [-119.1860417, 37.7153228], [-119.1861731, 37.7152847], [-119.1861731, 37.7152252]], [[-119.1855401, 37.722247], [-119.1855817, 37.7222586], [-119.1856661, 37.722317], [-119.1856836, 37.7222841], [-119.1856366, 37.7222183], [-119.1855642, 37.7221939], [-119.1855414, 37.7222003], [-119.1855401, 37.722247]], [[-119.1855964, 37.7199737], [-119.1856179, 37.7200055], [-119.1856661, 37.7199715], [-119.1856661, 37.7199524], [-119.1856554, 37.7199355], [-119.1856018, 37.7199355], [-119.1855964, 37.7199737]], [[-119.1861972, 37.7191547], [-119.1862428, 37.7191568], [-119.1862428, 37.7191207], [-119.1861731, 37.7190232], [-119.1860873, 37.7190041], [-119.1861355, 37.718898], [-119.1860631, 37.7187919], [-119.1859773, 37.7187983], [-119.1859344, 37.7188407], [-119.1858888, 37.7188534], [-119.185819, 37.7189001], [-119.1858164, 37.7189213], [-119.1858405, 37.7189998], [-119.1860604, 37.7192141], [-119.1861731, 37.7191802], [-119.1861972, 37.7191547]], [[-119.1861127, 37.7226331], [-119.1861543, 37.7225652], [-119.1862106, 37.7225313], [-119.1862214, 37.7224825], [-119.1861691, 37.7224453], [-119.1862093, 37.7223615], [-119.1861637, 37.7223393], [-119.1861033, 37.7224231], [-119.1860443, 37.7224178], [-119.18598, 37.7224432], [-119.1859236, 37.7224294], [-119.1858794, 37.7224697], [-119.1859464, 37.7225366], [-119.185992, 37.7226681], [-119.185988, 37.7227148], [-119.1859424, 37.7227668], [-119.1859277, 37.7228325], [-119.1858847, 37.722876], [-119.1858901, 37.7229121], [-119.1859491, 37.7229025], [-119.1860242, 37.7229185], [-119.1860363, 37.7229004], [-119.1861114, 37.7228686], [-119.1860966, 37.7228156], [-119.1861369, 37.7227848], [-119.1861248, 37.7226925], [-119.1861409, 37.7226586], [-119.1861127, 37.7226331]], [[-119.1860443, 37.7218937], [-119.1859826, 37.7219012], [-119.1859142, 37.7219553], [-119.18598, 37.7220253], [-119.1860457, 37.7220316], [-119.1860712, 37.7219383], [-119.1860443, 37.7218937]], [[-119.1859565, 37.7194645], [-119.1860001, 37.7194295], [-119.1859438, 37.71943], [-119.1859324, 37.7194427], [-119.1859565, 37.7194645]], [[-119.1860752, 37.7221908], [-119.1860524, 37.7221833], [-119.1860041, 37.7222067], [-119.1860162, 37.7222342], [-119.1860537, 37.7222396], [-119.1860752, 37.7221908]], [[-119.1861516, 37.7229556], [-119.1861409, 37.7229248], [-119.186106, 37.7229354], [-119.186098, 37.7229641], [-119.1861355, 37.722981], [-119.1861516, 37.7229556]], [[-119.1862093, 37.7219266], [-119.1861315, 37.721934], [-119.1861194, 37.72195], [-119.1861624, 37.722003], [-119.186224, 37.7220094], [-119.1862509, 37.7219457], [-119.1862093, 37.7219266]], [[-119.1861798, 37.7217972], [-119.1861235, 37.7218449], [-119.1861248, 37.7218651], [-119.1861637, 37.7218746], [-119.1862066, 37.7218619], [-119.18622, 37.7218142], [-119.1861798, 37.7217972]], [[-119.1882545, 37.7133283], [-119.1882169, 37.7133114], [-119.1882116, 37.7132732], [-119.188351, 37.7132604], [-119.1882706, 37.7131756], [-119.1882223, 37.7131713], [-119.1881794, 37.7132222], [-119.1881847, 37.7132604], [-119.1881633, 37.7132901], [-119.1881633, 37.7134047], [-119.1881418, 37.7134854], [-119.1880506, 37.7136042], [-119.1880024, 37.7136084], [-119.187938, 37.7135914], [-119.1878951, 37.7135999], [-119.1878521, 37.7136636], [-119.1877663, 37.7136806], [-119.1875517, 37.7137867], [-119.1875088, 37.7137697], [-119.1874069, 37.7136636], [-119.1873103, 37.7136593], [-119.1872674, 37.7136424], [-119.1872031, 37.7135575], [-119.1871816, 37.7134854], [-119.1871494, 37.7134641], [-119.1869402, 37.7135193], [-119.1868115, 37.7135066], [-119.1867364, 37.7135533], [-119.1866827, 37.7136127], [-119.1865915, 37.7136339], [-119.1865486, 37.7136296], [-119.1865057, 37.7135702], [-119.1865271, 37.713532], [-119.1865808, 37.7135278], [-119.1866291, 37.7135448], [-119.1866773, 37.713532], [-119.1868007, 37.7134217], [-119.1867042, 37.7133453], [-119.1866773, 37.7132817], [-119.1866344, 37.7132647], [-119.1865861, 37.7132732], [-119.1865432, 37.7132604], [-119.1864842, 37.7131289], [-119.1864038, 37.7130695], [-119.1862857, 37.7130228], [-119.1862053, 37.7130355], [-119.1861516, 37.7130949], [-119.186157, 37.7131331], [-119.1861945, 37.7131543], [-119.1861945, 37.7131925], [-119.186157, 37.713252], [-119.1861355, 37.7133665], [-119.1861677, 37.7134981], [-119.1861945, 37.713532], [-119.1863769, 37.7136084], [-119.1864306, 37.713723], [-119.1865057, 37.7137654], [-119.186613, 37.7137612], [-119.1866183, 37.7137994], [-119.1865003, 37.7138503], [-119.186495, 37.7140667], [-119.1866452, 37.714071], [-119.1866559, 37.7141474], [-119.1868329, 37.7142535], [-119.1869402, 37.7142238], [-119.1870368, 37.7142153], [-119.1870797, 37.7142365], [-119.1872835, 37.7142365], [-119.1873318, 37.7142492], [-119.1873801, 37.7142365], [-119.1873908, 37.7142025], [-119.1874284, 37.7141771], [-119.1875786, 37.7141771], [-119.1876698, 37.7141474], [-119.1877288, 37.7140964], [-119.1878307, 37.7140837], [-119.1879755, 37.7141134], [-119.188233, 37.7140667], [-119.1885495, 37.7139819], [-119.1887105, 37.7138885], [-119.1887426, 37.71374], [-119.1887319, 37.7136678], [-119.1886085, 37.7135108], [-119.1885227, 37.7134302], [-119.1884047, 37.7133708], [-119.1883832, 37.7133411], [-119.1882545, 37.7133283]], [[-119.1862415, 37.7197031], [-119.1861919, 37.7196925], [-119.1861463, 37.719718], [-119.186157, 37.7197329], [-119.186224, 37.7197148], [-119.1862415, 37.7197031]], [[-119.1865714, 37.7228919], [-119.186621, 37.7228516], [-119.186617, 37.7227127], [-119.1865808, 37.7227074], [-119.1865714, 37.7227349], [-119.1865392, 37.7227296], [-119.1864319, 37.7227615], [-119.1862187, 37.7228941], [-119.1862294, 37.72291], [-119.1861959, 37.7230086], [-119.1862173, 37.723016], [-119.1862884, 37.722998], [-119.18633, 37.7230426], [-119.1863555, 37.7230436], [-119.1864306, 37.723015], [-119.1864306, 37.7229736], [-119.1864923, 37.7229429], [-119.1865231, 37.7229036], [-119.1865794, 37.7229333], [-119.1865714, 37.7228919]], [[-119.1869563, 37.7181575], [-119.186908, 37.7180684], [-119.1869134, 37.718026], [-119.1869402, 37.717992], [-119.1870207, 37.7179305], [-119.1870099, 37.717852], [-119.1869482, 37.7178201], [-119.1868758, 37.7178329], [-119.1868249, 37.7178732], [-119.1864869, 37.7180196], [-119.1862965, 37.7179453], [-119.1862696, 37.7179496], [-119.1862643, 37.7179687], [-119.1862857, 37.7180408], [-119.1864064, 37.7181978], [-119.1865164, 37.7182848], [-119.1866988, 37.718376], [-119.186739, 37.7184397], [-119.1867471, 37.71855], [-119.1868275, 37.7186285], [-119.1868705, 37.7187685], [-119.1869214, 37.7187049], [-119.1870019, 37.7185055], [-119.1870958, 37.718376], [-119.1870448, 37.7182021], [-119.1869563, 37.7181575]], [[-119.1871105, 37.7192788], [-119.1870676, 37.7193181], [-119.1870475, 37.7193053], [-119.186971, 37.7193372], [-119.1869523, 37.7193181], [-119.1869281, 37.7193202], [-119.1868705, 37.7193414], [-119.1868597, 37.7194019], [-119.1867766, 37.7194602], [-119.1867578, 37.7194942], [-119.1867323, 37.7194984], [-119.1866827, 37.7194676], [-119.1865084, 37.7195748], [-119.1864654, 37.7196204], [-119.1864923, 37.7196766], [-119.1863836, 37.7196522], [-119.1863233, 37.7196713], [-119.1863126, 37.7196872], [-119.1864319, 37.7196819], [-119.1865164, 37.7196957], [-119.1865741, 37.7197562], [-119.1866612, 37.7197912], [-119.186786, 37.7197435], [-119.1867954, 37.7197148], [-119.1867672, 37.7196724], [-119.1867524, 37.7195854], [-119.1868195, 37.7195377], [-119.1867846, 37.7194804], [-119.1868477, 37.7194401], [-119.1868718, 37.7194698], [-119.1869697, 37.7194613], [-119.187022, 37.7195345], [-119.1870528, 37.7196543], [-119.1869764, 37.7197159], [-119.1869549, 37.719787], [-119.1869845, 37.7198145], [-119.187073, 37.719771], [-119.1872017, 37.7197435], [-119.1872165, 37.7196968], [-119.187254, 37.7196607], [-119.1872527, 37.7196098], [-119.1871548, 37.7194645], [-119.1871414, 37.7193732], [-119.1871628, 37.7193117], [-119.1871494, 37.7192831], [-119.1871105, 37.7192788]], [[-119.1869885, 37.7167784], [-119.1870394, 37.7167423], [-119.1871092, 37.7166214], [-119.187026, 37.7165641], [-119.1867954, 37.7165047], [-119.1867712, 37.7164771], [-119.1867337, 37.7164856], [-119.1867632, 37.7166277], [-119.1868195, 37.7166638], [-119.1868866, 37.7166808], [-119.1869617, 37.7167763], [-119.1869885, 37.7167784]], [[-119.1876188, 37.7162352], [-119.1876483, 37.7162076], [-119.1876698, 37.716127], [-119.1876537, 37.7160252], [-119.1876268, 37.7159891], [-119.1875759, 37.7159891], [-119.1875571, 37.7160018], [-119.187431, 37.7159976], [-119.1873693, 37.7159636], [-119.1873211, 37.71597], [-119.1872111, 37.7161228], [-119.1870958, 37.7161864], [-119.1870233, 37.7161758], [-119.1869804, 37.716127], [-119.1869536, 37.7161228], [-119.1869, 37.7161291], [-119.1867846, 37.7161885], [-119.1867846, 37.7162076], [-119.1868249, 37.7162458], [-119.1868168, 37.7163031], [-119.1868436, 37.7163307], [-119.1868812, 37.716475], [-119.1869053, 37.716475], [-119.1869509, 37.716511], [-119.1870394, 37.7164983], [-119.1870824, 37.7165365], [-119.1871038, 37.7165301], [-119.1871494, 37.7164028], [-119.1872138, 37.7163986], [-119.1872942, 37.7164262], [-119.1873398, 37.7164156], [-119.1874284, 37.7163413], [-119.1874364, 37.716284], [-119.1874605, 37.7162543], [-119.1876188, 37.7162352]], [[-119.1870663, 37.7152422], [-119.1871119, 37.7153037], [-119.1872245, 37.715325], [-119.1872916, 37.7153059], [-119.1872942, 37.7152083], [-119.1872486, 37.715134], [-119.1871172, 37.7151467], [-119.1870475, 37.7151701], [-119.1870663, 37.7152422]], [[-119.187364, 37.7155393], [-119.1872782, 37.7155647], [-119.1872728, 37.7155838], [-119.1872942, 37.7156199], [-119.1873184, 37.7156135], [-119.1873747, 37.7155753], [-119.187364, 37.7155393]], [[-119.1879004, 37.7146842], [-119.1879272, 37.7146481], [-119.187938, 37.7145696], [-119.1878736, 37.714506], [-119.1878012, 37.7144614], [-119.1877502, 37.7144529], [-119.1876993, 37.7144105], [-119.1875866, 37.714368], [-119.1874874, 37.7143532], [-119.1874418, 37.7143659], [-119.1873586, 37.7144296], [-119.1873935, 37.7145399], [-119.1873747, 37.714612], [-119.1873908, 37.714646], [-119.1874498, 37.7146672], [-119.1874874, 37.7147096], [-119.1875437, 37.7147372], [-119.1876456, 37.7147648], [-119.1876993, 37.7147945], [-119.1877824, 37.7147775], [-119.1879004, 37.7146842]], [[-119.1874445, 37.7184312], [-119.1873854, 37.7184291], [-119.1873667, 37.7185033], [-119.1874364, 37.7186264], [-119.1874632, 37.7186328], [-119.1874874, 37.7185585], [-119.1874445, 37.7184312]], [[-119.1879997, 37.7186179], [-119.1879943, 37.7185309], [-119.1879246, 37.7184885], [-119.1877475, 37.71855], [-119.1876939, 37.7185076], [-119.1876805, 37.7184736], [-119.1876188, 37.7184779], [-119.1876027, 37.7185352], [-119.1875544, 37.7186009], [-119.1875652, 37.7186794], [-119.1875437, 37.7187685], [-119.1875571, 37.7187834], [-119.1876027, 37.7187792], [-119.1876483, 37.718794], [-119.1877207, 37.7187495], [-119.1877744, 37.7187537], [-119.1877905, 37.7187707], [-119.1877931, 37.7188089], [-119.1878334, 37.7188831], [-119.1878119, 37.7189149], [-119.1878119, 37.7189553], [-119.1878441, 37.7190041], [-119.1877931, 37.7190635], [-119.1877851, 37.7191462], [-119.187828, 37.7191632], [-119.1879031, 37.7190656], [-119.1879407, 37.7190422], [-119.1880748, 37.7190889], [-119.1881257, 37.7190847], [-119.1881338, 37.7190677], [-119.188107, 37.7190019], [-119.1881257, 37.7189701], [-119.1881177, 37.7188959], [-119.188056, 37.7188407], [-119.1879916, 37.7188216], [-119.187946, 37.7188258], [-119.1879058, 37.7187876], [-119.187946, 37.7187601], [-119.1879782, 37.7186879], [-119.1880399, 37.7186582], [-119.1880372, 37.7186391], [-119.1879997, 37.7186179]], [[-119.1876054, 37.7219287], [-119.1875625, 37.7219744], [-119.1875692, 37.7220751], [-119.1875947, 37.7220772], [-119.1876416, 37.7220094], [-119.1877167, 37.7219733], [-119.1876979, 37.7218948], [-119.1876604, 37.7218969], [-119.1876416, 37.7219203], [-119.1876054, 37.7219287]], [[-119.1880775, 37.7173852], [-119.1880614, 37.7174616], [-119.1880238, 37.7174828], [-119.1879326, 37.7174786], [-119.1879138, 37.7173894], [-119.1878575, 37.7173619], [-119.187777, 37.7173746], [-119.1877019, 37.7174213], [-119.1876832, 37.7174573], [-119.1876349, 37.7174616], [-119.1875812, 37.717504], [-119.1875866, 37.7175655], [-119.1876563, 37.7176398], [-119.1877073, 37.7178796], [-119.1876242, 37.718009], [-119.1877127, 37.7181129], [-119.1879326, 37.718096], [-119.1879863, 37.7181342], [-119.1880345, 37.7181448], [-119.1880801, 37.7181172], [-119.1881365, 37.7180366], [-119.1881526, 37.7179623], [-119.1881257, 37.7178562], [-119.1881338, 37.7178032], [-119.1881043, 37.7177353], [-119.1881204, 37.7177013], [-119.1881016, 37.7176907], [-119.1880962, 37.7176334], [-119.1881284, 37.717608], [-119.188166, 37.7176547], [-119.1882116, 37.7176398], [-119.1882384, 37.7175698], [-119.1883081, 37.7175486], [-119.1883242, 37.7174764], [-119.188343, 37.7174616], [-119.1883242, 37.7174298], [-119.1882598, 37.7174298], [-119.1882116, 37.7173406], [-119.1881901, 37.7173322], [-119.1880775, 37.7173852]], [[-119.188233, 37.7166405], [-119.1882679, 37.7167656], [-119.1883028, 37.7168123], [-119.1883108, 37.7165895], [-119.1883779, 37.7165195], [-119.1884288, 37.7164113], [-119.1883591, 37.7163031], [-119.1882974, 37.7161631], [-119.1882384, 37.7161058], [-119.1881123, 37.7161015], [-119.1880479, 37.7160443], [-119.187997, 37.7160782], [-119.1879407, 37.7160145], [-119.1878146, 37.7159785], [-119.1877395, 37.71597], [-119.1877154, 37.7159742], [-119.18771, 37.7159933], [-119.1877529, 37.7160718], [-119.1877529, 37.7160931], [-119.1877127, 37.7161143], [-119.18771, 37.7161334], [-119.1877905, 37.7162501], [-119.1878361, 37.7163731], [-119.18782, 37.7164686], [-119.1878843, 37.7164898], [-119.1878924, 37.7165047], [-119.1879407, 37.7166426], [-119.1879138, 37.7167253], [-119.1879889, 37.7168144], [-119.1880104, 37.7168123], [-119.1880131, 37.7167911], [-119.1879541, 37.7167317], [-119.1879728, 37.7166362], [-119.1879192, 37.716545], [-119.1879246, 37.7165047], [-119.1879514, 37.716475], [-119.1880319, 37.716475], [-119.1881177, 37.7164941], [-119.188233, 37.7166405]], [[-119.1877757, 37.7227975], [-119.1877878, 37.7227699], [-119.1877489, 37.7227593], [-119.1877408, 37.722788], [-119.1877757, 37.7227975]], [[-119.18795, 37.7218789], [-119.1879796, 37.721933], [-119.1879541, 37.7219892], [-119.1880117, 37.721986], [-119.1880251, 37.7218863], [-119.187997, 37.7218672], [-119.18795, 37.7218789]], [[-119.1880868, 37.7226013], [-119.1880949, 37.7225854], [-119.1880707, 37.7225758], [-119.1880184, 37.722613], [-119.188056, 37.7226183], [-119.1880868, 37.7226013]], [[-119.1881713, 37.7210408], [-119.1880761, 37.7212074], [-119.1880949, 37.7212265], [-119.1881512, 37.7211947], [-119.1882531, 37.7211034], [-119.1882505, 37.7210759], [-119.1881713, 37.7210408]], [[-119.1884717, 37.7216879], [-119.1884717, 37.7216328], [-119.1884436, 37.7216094], [-119.1884261, 37.7216211], [-119.18841, 37.7216105], [-119.1884959, 37.7215182], [-119.1883886, 37.7214896], [-119.1883135, 37.7215182], [-119.1882451, 37.721637], [-119.1881566, 37.7216954], [-119.1881754, 37.7217463], [-119.1882129, 37.7217537], [-119.1882424, 37.721742], [-119.1883256, 37.721776], [-119.1883403, 37.7217198], [-119.1883966, 37.721706], [-119.1884127, 37.7216816], [-119.1884717, 37.7216879]], [[-119.1883403, 37.7192968], [-119.1883256, 37.7192841], [-119.1882759, 37.7193159], [-119.1883014, 37.7193722], [-119.1883296, 37.7193605], [-119.1883403, 37.7192968]], [[-119.1884851, 37.7170245], [-119.1885254, 37.7170054], [-119.1885683, 37.7170224], [-119.1886032, 37.7169778], [-119.1884771, 37.7169842], [-119.1884905, 37.7168569], [-119.1884664, 37.716842], [-119.1884449, 37.7168781], [-119.1883993, 37.7168823], [-119.1883671, 37.7168632], [-119.1883162, 37.7170309], [-119.1883189, 37.7170945], [-119.188343, 37.7171263], [-119.1883403, 37.7173385], [-119.1883805, 37.7174361], [-119.1884288, 37.7174998], [-119.18852, 37.7174425], [-119.1885254, 37.7173852], [-119.1884556, 37.7172664], [-119.1884396, 37.7171539], [-119.1884851, 37.7170245]], [[-119.1883899, 37.7226098], [-119.1884275, 37.7226066], [-119.1884355, 37.7225811], [-119.1883725, 37.722597], [-119.1883899, 37.7226098]], [[-119.1888754, 37.7212286], [-119.1888271, 37.7211936], [-119.1888003, 37.7211416], [-119.1887641, 37.7210483], [-119.1887735, 37.7210101], [-119.1887373, 37.7209931], [-119.1886461, 37.7208701], [-119.1885777, 37.7209072], [-119.1885951, 37.7209698], [-119.1885294, 37.721008], [-119.1885374, 37.721026], [-119.1885696, 37.7210345], [-119.1885737, 37.7211002], [-119.1887386, 37.7212848], [-119.1887185, 37.721306], [-119.1886541, 37.7213135], [-119.1886313, 37.7213326], [-119.1886394, 37.72141], [-119.1886233, 37.721444], [-119.1887453, 37.7214514], [-119.1887721, 37.7215076], [-119.1887815, 37.7215012], [-119.1887896, 37.7214673], [-119.1888647, 37.7213877], [-119.1888432, 37.7213729], [-119.1887788, 37.7214344], [-119.1887534, 37.7213389], [-119.1888084, 37.7213018], [-119.1888687, 37.7212859], [-119.1888754, 37.7212286]], [[-119.1896063, 37.715692], [-119.1895527, 37.7156454], [-119.1894802, 37.7156284], [-119.1894561, 37.7155669], [-119.1894668, 37.715482], [-119.1894507, 37.715465], [-119.1892979, 37.7154544], [-119.1892603, 37.7153929], [-119.1891745, 37.7153568], [-119.1888016, 37.7153907], [-119.1886863, 37.7155414], [-119.1887641, 37.7156284], [-119.1887641, 37.7156623], [-119.1886327, 37.7157026], [-119.1886058, 37.7157323], [-119.1886407, 37.7159488], [-119.1886997, 37.7160464], [-119.1887561, 37.7160718], [-119.188807, 37.7161312], [-119.1889331, 37.7161991], [-119.188925, 37.7162564], [-119.1889438, 37.7163668], [-119.1889223, 37.7164898], [-119.1889358, 37.7165238], [-119.1889572, 37.7165238], [-119.188976, 37.7164877], [-119.1890699, 37.7164325], [-119.1891369, 37.7164431], [-119.1892147, 37.7165047], [-119.189271, 37.7164962], [-119.189432, 37.7164007], [-119.1894695, 37.7163519], [-119.1894722, 37.7163116], [-119.1893756, 37.7162161], [-119.1892979, 37.7162161], [-119.1892442, 37.7162034], [-119.1892308, 37.7161864], [-119.1891852, 37.7160931], [-119.1892201, 37.7160358], [-119.1892201, 37.7159594], [-119.1892549, 37.715936], [-119.189381, 37.7159573], [-119.1895178, 37.7158745], [-119.1895634, 37.7158681], [-119.1896144, 37.7159], [-119.1896331, 37.7159466], [-119.1897887, 37.7158066], [-119.1897082, 37.7157239], [-119.1896063, 37.715692]], [[-119.1887064, 37.7222852], [-119.188691, 37.7222974], [-119.1886997, 37.7223419], [-119.1887299, 37.7223557], [-119.1887755, 37.7223223], [-119.1887661, 37.7222921], [-119.1887996, 37.7222602], [-119.1887554, 37.7222852], [-119.1887064, 37.7222852]], [[-119.189145, 37.7165386], [-119.1891007, 37.716546], [-119.189086, 37.7165704], [-119.189086, 37.7165906], [-119.1891088, 37.7165906], [-119.1891705, 37.7165556], [-119.189145, 37.7165386]], [[-119.1893944, 37.7187717], [-119.1894226, 37.7186763], [-119.1893475, 37.7186073], [-119.1893099, 37.7186222], [-119.1892912, 37.7186094], [-119.1892509, 37.7185564], [-119.1892308, 37.7185755], [-119.1892268, 37.7186158], [-119.1891718, 37.7186381], [-119.1891584, 37.7186741], [-119.1892885, 37.718881], [-119.1893005, 37.7189309], [-119.1892858, 37.7189913], [-119.1893367, 37.7189765], [-119.1893904, 37.7188608], [-119.1893944, 37.7187717]], [[-119.1895781, 37.7177427], [-119.1896224, 37.7177756], [-119.1896318, 37.7177692], [-119.1896908, 37.7175984], [-119.1896841, 37.7175539], [-119.1896465, 37.7175178], [-119.1895781, 37.7175263], [-119.1895473, 37.7175878], [-119.1895781, 37.7177427]], [[-119.1899255, 37.7183336], [-119.1899657, 37.7183739], [-119.1900301, 37.7185161], [-119.1900489, 37.7185224], [-119.1900569, 37.7185055], [-119.1900891, 37.7183697], [-119.1900516, 37.718236], [-119.1899523, 37.7182127], [-119.1899148, 37.7182233], [-119.1899255, 37.7183336]], [[-119.1904593, 37.7165047], [-119.1904593, 37.7164644], [-119.190419, 37.7163583], [-119.1902983, 37.7161631], [-119.1902661, 37.7161419], [-119.1902286, 37.7160782], [-119.1901884, 37.7160549], [-119.190124, 37.7160824], [-119.1900945, 37.7161291], [-119.1899952, 37.7161949], [-119.1899925, 37.7162543], [-119.1900274, 37.7162819], [-119.1900435, 37.7163201], [-119.1900247, 37.716354], [-119.1899899, 37.7163731], [-119.190006, 37.7164304], [-119.1900221, 37.7164474], [-119.1900972, 37.7164389], [-119.1901293, 37.7164707], [-119.1901803, 37.7164877], [-119.1903573, 37.7165132], [-119.1904593, 37.7165047]], [[-119.1907463, 37.7180238], [-119.1907892, 37.7179581], [-119.1906309, 37.7178371], [-119.1905987, 37.7177904], [-119.1905317, 37.7177713], [-119.1905156, 37.7177374], [-119.1904914, 37.7177332], [-119.190419, 37.7178286], [-119.1902581, 37.7178477], [-119.1902205, 37.7178647], [-119.1901347, 37.7179984], [-119.1901481, 37.7180535], [-119.1902554, 37.7180175], [-119.1903225, 37.7180451], [-119.1903546, 37.7180748], [-119.1903359, 37.7181702], [-119.190352, 37.7182339], [-119.1903707, 37.7182466], [-119.1904217, 37.7182509], [-119.1904673, 37.718236], [-119.1905612, 37.7181702], [-119.1907436, 37.7180811], [-119.1907463, 37.7180238]], [[-119.190529, 37.718463], [-119.190596, 37.7185097], [-119.1906175, 37.7185055], [-119.1907007, 37.7184121], [-119.1906926, 37.7183909], [-119.1906658, 37.7183803], [-119.1905612, 37.7183675], [-119.1905344, 37.7184079], [-119.190529, 37.718463]], [[-119.1907597, 37.7190019], [-119.1907409, 37.7191101], [-119.1907623, 37.719142], [-119.1908026, 37.7191568], [-119.1908777, 37.7191144], [-119.190883, 37.7190741], [-119.1908374, 37.7190019], [-119.1908053, 37.7189892], [-119.1907597, 37.7190019]], [[-119.190985, 37.718724], [-119.1909689, 37.7187113], [-119.1908965, 37.7187431], [-119.1909045, 37.7187601], [-119.1909742, 37.7187579], [-119.190985, 37.718724]], [[-119.1910802, 37.7173226], [-119.1911124, 37.7174266], [-119.1911687, 37.7174213], [-119.1911848, 37.7173947], [-119.1911325, 37.7173215], [-119.1911942, 37.7172802], [-119.1912264, 37.7172314], [-119.1912103, 37.7172165], [-119.1911915, 37.7172282], [-119.1910882, 37.7172961], [-119.1910802, 37.7173226]], [[-119.1920149, 37.7151213], [-119.1920203, 37.71503], [-119.1919291, 37.7148327], [-119.1918701, 37.7147818], [-119.1917709, 37.7147372], [-119.1917172, 37.7146672], [-119.1915858, 37.7146672], [-119.191457, 37.7147606], [-119.191457, 37.7147818], [-119.191516, 37.7148221], [-119.191559, 37.7148921], [-119.19139, 37.7149961], [-119.1913229, 37.7150788], [-119.1912398, 37.7150979], [-119.1912183, 37.715151], [-119.1911593, 37.7152061], [-119.1911754, 37.7152825], [-119.1911942, 37.7152953], [-119.191272, 37.7152974], [-119.1913551, 37.7152804], [-119.1914302, 37.7153292], [-119.1915858, 37.7153547], [-119.1916367, 37.7153122], [-119.1917092, 37.715291], [-119.191913, 37.7152825], [-119.192023, 37.7152104], [-119.192031, 37.7151913], [-119.1920149, 37.7151213]], [[-119.1918406, 37.7197286], [-119.1918097, 37.719701], [-119.1917869, 37.719718], [-119.1918071, 37.7197604], [-119.1918352, 37.7197594], [-119.1918406, 37.7197286]], [[-119.1926077, 37.719142], [-119.1924334, 37.7191855], [-119.1924039, 37.7192162], [-119.1924642, 37.719264], [-119.1925085, 37.7192703], [-119.1925728, 37.7192056], [-119.1926077, 37.719142]]]]}, "properties": {"id": "thousand_island_lake", "name": "Thousand Island Lake", "osm": ["relation/207450"], "found_by": "name", "area_km2": 1.3522}}]}