{"type": "FeatureCollection", "features": [{"type": "Feature", "geometry": {"type": "MultiPolygon", "coordinates": [[[[-119.3261737, 38.1676886], [-119.3260986, 38.1675241], [-119.32612, 38.1673217], [-119.3261844, 38.167115], [-119.3264204, 38.1667734], [-119.3267906, 38.1661787], [-119.32693, 38.1658877], [-119.3270481, 38.1656557], [-119.3270749, 38.1654617], [-119.3270963, 38.1651665], [-119.3271714, 38.1648164], [-119.327268, 38.164614], [-119.3274987, 38.1643778], [-119.327783, 38.1641542], [-119.3279976, 38.1638927], [-119.3281639, 38.1636903], [-119.3283784, 38.1635638], [-119.3285233, 38.1634794], [-119.3286738, 38.1633853], [-119.3287325, 38.1633487], [-119.3290436, 38.1632643], [-119.329344, 38.1631968], [-119.3297142, 38.1630661], [-119.3300307, 38.1628931], [-119.3301863, 38.1627202], [-119.3304008, 38.1623406], [-119.3304491, 38.1621128], [-119.3304813, 38.1618851], [-119.3305135, 38.1617332], [-119.3305832, 38.1616151], [-119.3307656, 38.161438], [-119.331125, 38.1611048], [-119.3315434, 38.1608306], [-119.3317956, 38.1605859], [-119.3321979, 38.1602443], [-119.332493, 38.1599912], [-119.3327612, 38.1597972], [-119.3331099, 38.1595863], [-119.3333298, 38.1594851], [-119.333421, 38.1594429], [-119.33348, 38.1593627], [-119.3335551, 38.1591771], [-119.3336517, 38.1590464], [-119.3339252, 38.1588903], [-119.3343115, 38.1586204], [-119.3346065, 38.1584179], [-119.3348104, 38.1582323], [-119.3351269, 38.1579623], [-119.3353307, 38.1577936], [-119.3355453, 38.1576839], [-119.3357438, 38.1576291], [-119.3361193, 38.157608], [-119.3366772, 38.1575996], [-119.3372244, 38.1575574], [-119.3374872, 38.1574562], [-119.3377984, 38.1573507], [-119.3381202, 38.1572495], [-119.3383348, 38.1571482], [-119.3385279, 38.157009], [-119.3385923, 38.1569289], [-119.3386459, 38.156756], [-119.3386513, 38.156524], [-119.3386728, 38.1563848], [-119.3387371, 38.1562582], [-119.3388552, 38.1560979], [-119.3389785, 38.1559334], [-119.3392468, 38.1557225], [-119.3394935, 38.1555622], [-119.3396866, 38.1554399], [-119.3399119, 38.1553766], [-119.3400621, 38.1553218], [-119.3403196, 38.1551741], [-119.340722, 38.1548957], [-119.3408293, 38.154824], [-119.3410331, 38.1547903], [-119.3412262, 38.1548156], [-119.3417648, 38.1549186], [-119.3420202, 38.1549674], [-119.3421488, 38.1550163], [-119.3423313, 38.1550855], [-119.3425244, 38.1551109], [-119.3427604, 38.155056], [-119.342806, 38.1550551], [-119.3429697, 38.1550518], [-119.343066, 38.1550755], [-119.3432272, 38.1551151], [-119.3434525, 38.1551783], [-119.3436509, 38.1551446], [-119.343828, 38.1550518], [-119.343946, 38.1549759], [-119.3440694, 38.1548957], [-119.3441767, 38.1547987], [-119.3443269, 38.1546679], [-119.3444341, 38.1546553], [-119.3446219, 38.1546384], [-119.3448257, 38.1545751], [-119.3449706, 38.1544697], [-119.3451208, 38.15436], [-119.3452388, 38.1543178], [-119.3454212, 38.1543052], [-119.345668, 38.1542672], [-119.3458772, 38.1543009], [-119.3461722, 38.1544465], [-119.3463919, 38.1545594], [-119.3465906, 38.1546616], [-119.3467784, 38.154746], [-119.3469769, 38.1547713], [-119.34717, 38.1547671], [-119.3473899, 38.1547164], [-119.3475562, 38.1546489], [-119.3478674, 38.1545772], [-119.3484253, 38.1544887], [-119.3486559, 38.154476], [-119.3487686, 38.1545097], [-119.3488169, 38.1545772], [-119.3488008, 38.1546489], [-119.3487847, 38.1547164], [-119.3486774, 38.154805], [-119.3485916, 38.1549063], [-119.3485004, 38.1550455], [-119.3483609, 38.1552332], [-119.3482348, 38.1553492], [-119.348157, 38.1553977], [-119.3480444, 38.1554272], [-119.3479049, 38.1554736], [-119.3477681, 38.1554799], [-119.3477145, 38.1554567], [-119.3476743, 38.1554167], [-119.347634, 38.1553808], [-119.347626, 38.1553977], [-119.347634, 38.1554525], [-119.3476716, 38.1554884], [-119.3477172, 38.1555369], [-119.347744, 38.1555917], [-119.3477842, 38.155617], [-119.3478218, 38.1556086], [-119.3478405, 38.1555875], [-119.3478969, 38.1555369], [-119.3479854, 38.1555095], [-119.3480927, 38.1554905], [-119.3481463, 38.1555053], [-119.3481839, 38.1555685], [-119.3481678, 38.1557246], [-119.3481302, 38.155868], [-119.3480605, 38.1560578], [-119.3479747, 38.1561633], [-119.3477976, 38.1562645], [-119.3476743, 38.1562814], [-119.3475884, 38.1562898], [-119.3475348, 38.1563278], [-119.3475187, 38.1564459], [-119.3475562, 38.1566062], [-119.3475455, 38.1567623], [-119.347508, 38.1570069], [-119.3474919, 38.1572516], [-119.3474865, 38.1574034], [-119.3475026, 38.1575806], [-119.3475026, 38.1578126], [-119.3474329, 38.1579602], [-119.3473953, 38.1581163], [-119.3473846, 38.1582597], [-119.3474597, 38.1584706], [-119.3474919, 38.1586183], [-119.3474543, 38.1588059], [-119.3474007, 38.1589051], [-119.3474007, 38.1590316], [-119.3474114, 38.1591455], [-119.3474168, 38.159272], [-119.3474114, 38.1593817], [-119.3473983, 38.159423], [-119.3473631, 38.1595336], [-119.3473202, 38.159639], [-119.3472505, 38.1597107], [-119.3469554, 38.1598647], [-119.3466979, 38.1599786], [-119.3465155, 38.1601009], [-119.3461132, 38.1603877], [-119.3457269, 38.1606239], [-119.3454641, 38.1607167], [-119.3451744, 38.1607504], [-119.3445146, 38.1607547], [-119.3441659, 38.1607842], [-119.3439138, 38.1608348], [-119.3436455, 38.1609445], [-119.3433183, 38.1611132], [-119.342798, 38.1614253], [-119.3421542, 38.1618134], [-119.3418538, 38.1619821], [-119.34165, 38.1621592], [-119.3414676, 38.1624123], [-119.341253, 38.1626696], [-119.3409955, 38.1628762], [-119.3406844, 38.163104], [-119.340443, 38.1632938], [-119.3402391, 38.1635595], [-119.3401426, 38.1637451], [-119.3400085, 38.1639897], [-119.3398583, 38.1642639], [-119.3396973, 38.1644748], [-119.3395418, 38.1646351], [-119.3393379, 38.1647742], [-119.3388873, 38.1650526], [-119.3385708, 38.1653183], [-119.3383777, 38.1654955], [-119.338206, 38.1657359], [-119.3380344, 38.1660016], [-119.3378251, 38.1662673], [-119.337632, 38.1664444], [-119.3373745, 38.1665878], [-119.3372136, 38.1666975], [-119.336999, 38.1669421], [-119.3367523, 38.167153], [-119.3363017, 38.1674271], [-119.3356686, 38.1679374], [-119.3353736, 38.1681736], [-119.3350947, 38.1683634], [-119.3348694, 38.1684646], [-119.3346226, 38.1684984], [-119.3343705, 38.1685574], [-119.3333298, 38.1689244], [-119.3329516, 38.1690973], [-119.3326941, 38.1692132], [-119.3325815, 38.1693313], [-119.332391, 38.1694937], [-119.3322489, 38.1696097], [-119.3322113, 38.1697531], [-119.3322194, 38.1699576], [-119.3321899, 38.1701896], [-119.3321872, 38.1703077], [-119.3321756, 38.1703642], [-119.3321604, 38.1704384], [-119.3320853, 38.1705607], [-119.3320155, 38.1706999], [-119.3320048, 38.1708622], [-119.3319806, 38.1709297], [-119.331919, 38.1709592], [-119.3318036, 38.1709318], [-119.3317366, 38.1709297], [-119.3316829, 38.1709656], [-119.3316695, 38.1709972], [-119.3317151, 38.1710331], [-119.331817, 38.1710457], [-119.3319994, 38.1710626], [-119.3321201, 38.1711427], [-119.3321845, 38.1712397], [-119.3322301, 38.1713683], [-119.3322381, 38.1714358], [-119.3322167, 38.1715159], [-119.3321255, 38.1716235], [-119.3320799, 38.1717163], [-119.3320102, 38.1717669], [-119.3319029, 38.1717922], [-119.3318117, 38.1717795], [-119.3318003, 38.1717697], [-119.3317527, 38.1717289], [-119.3316829, 38.1716319], [-119.3315327, 38.1715687], [-119.3313986, 38.171556], [-119.3313503, 38.1715855], [-119.3313772, 38.1716403], [-119.3315434, 38.1717373], [-119.331581, 38.1717795], [-119.3315327, 38.1718301], [-119.3314254, 38.1718807], [-119.3311518, 38.1719566], [-119.3307281, 38.172003], [-119.3302882, 38.172003], [-119.3298322, 38.172003], [-119.329403, 38.1720326], [-119.3292046, 38.1719988], [-119.3289256, 38.1718976], [-119.3286091, 38.1717669], [-119.328432, 38.1716572], [-119.3278581, 38.1712776], [-119.3275469, 38.1710373], [-119.3273592, 38.170915], [-119.3272304, 38.1708222], [-119.3269944, 38.1706535], [-119.326576, 38.1703583], [-119.3263989, 38.1702022], [-119.3262648, 38.1700377], [-119.326179, 38.1698986], [-119.3261629, 38.1697172], [-119.3261951, 38.1694304], [-119.3261951, 38.169228], [-119.326092, 38.1690536], [-119.3260171, 38.168927], [-119.3259377, 38.1687008], [-119.3259484, 38.1685574], [-119.3261415, 38.1683972], [-119.3262531, 38.1681391], [-119.3262524, 38.1680544], [-119.3262649, 38.167929], [-119.3261737, 38.1676886]]]]}, "properties": {"id": "twin_lakes_bridgeport", "name": "Lower Twin Lake (Bridgeport)", "osm": ["relation/12005445"], "found_by": "name", "area_km2": 1.6914}}]}