{"type": "FeatureCollection", "features": [{"type": "Feature", "geometry": {"type": "MultiPolygon", "coordinates": [[[[-122.0684666, 43.698808], [-122.0690623, 43.6989376], [-122.0695824, 43.6991183], [-122.0699608, 43.6993061], [-122.0700654, 43.6994709], [-122.0700735, 43.6997152], [-122.0702154, 43.7000297], [-122.0702103, 43.7003513], [-122.0701003, 43.7005103], [-122.0699903, 43.7007565], [-122.0699742, 43.7011153], [-122.0701027, 43.7014608], [-122.069977, 43.7019268], [-122.0702202, 43.7022946], [-122.0704006, 43.7028967], [-122.0701535, 43.7032795], [-122.0700544, 43.703617], [-122.070158, 43.7038555], [-122.0702241, 43.7040281], [-122.0701535, 43.7042323], [-122.0698411, 43.7042862], [-122.0697531, 43.704569], [-122.0695672, 43.7046893], [-122.0693423, 43.7047529], [-122.0689803, 43.7049085], [-122.0684032, 43.7050287], [-122.0681293, 43.7050287], [-122.0671609, 43.7054105], [-122.0669262, 43.7057994], [-122.0665153, 43.7059409], [-122.0660165, 43.7059833], [-122.0656937, 43.7063651], [-122.0656741, 43.7069591], [-122.0656448, 43.7071076], [-122.0654883, 43.7072349], [-122.0652535, 43.7071925], [-122.0649698, 43.7073197], [-122.0647253, 43.7073197], [-122.064647, 43.7071783], [-122.0642264, 43.7072773], [-122.0640406, 43.7074894], [-122.063395, 43.7076803], [-122.063258, 43.7079208], [-122.0633852, 43.708147], [-122.0633461, 43.7082814], [-122.0633461, 43.7084652], [-122.0632972, 43.7086632], [-122.0626516, 43.7088541], [-122.0625537, 43.7089814], [-122.0617908, 43.7094198], [-122.0611256, 43.7096602], [-122.0608028, 43.7098723], [-122.0604115, 43.7100137], [-122.0604229, 43.7101644], [-122.0606321, 43.7101257], [-122.0608038, 43.7101567], [-122.0609126, 43.7102425], [-122.0608322, 43.7103602], [-122.060793, 43.710445], [-122.060392, 43.7106218], [-122.0601572, 43.7109329], [-122.0592964, 43.7112157], [-122.0588563, 43.7116187], [-122.0582107, 43.7118945], [-122.0578096, 43.7117389], [-122.0575064, 43.7118026], [-122.0564503, 43.7115898], [-122.0557065, 43.7115056], [-122.0549729, 43.7115268], [-122.0544056, 43.7116329], [-122.0539165, 43.7115692], [-122.053085, 43.7118521], [-122.0529187, 43.7122268], [-122.0532318, 43.7125238], [-122.0536817, 43.7134005], [-122.053623, 43.7136621], [-122.0532122, 43.7143408], [-122.0528215, 43.714736], [-122.0527133, 43.7148923], [-122.0529503, 43.7149337], [-122.053138, 43.7148446], [-122.053532, 43.7148158], [-122.0536906, 43.7148329], [-122.0538187, 43.7148923], [-122.0539534, 43.7150888], [-122.0539165, 43.7152529], [-122.0538729, 43.7154184], [-122.0537698, 43.7155427], [-122.0535725, 43.7155619], [-122.0534372, 43.7156488], [-122.0534867, 43.7158255], [-122.0534959, 43.7160376], [-122.0537227, 43.7161784], [-122.0540241, 43.7164548], [-122.053936, 43.7167093], [-122.0542002, 43.7169497], [-122.0539947, 43.7171759], [-122.0541438, 43.7172116], [-122.0543175, 43.7172183], [-122.0544153, 43.7173456], [-122.0547381, 43.7172607], [-122.0551392, 43.7172607], [-122.0552194, 43.7171845], [-122.055155, 43.7170604], [-122.0551628, 43.7167389], [-122.0559022, 43.7159952], [-122.0559168, 43.7156859], [-122.0559919, 43.7154107], [-122.0559275, 43.7152827], [-122.0559353, 43.715064], [-122.0565361, 43.7146297], [-122.0569736, 43.7145034], [-122.0574188, 43.7144646], [-122.0577998, 43.7144822], [-122.0581226, 43.7149064], [-122.0585921, 43.7150125], [-122.0586313, 43.7152104], [-122.0584259, 43.7154225], [-122.0585614, 43.7155813], [-122.0591301, 43.71567], [-122.0592182, 43.7159881], [-122.0593649, 43.7161861], [-122.0595312, 43.7166457], [-122.0590714, 43.7174728], [-122.0592377, 43.7179394], [-122.0594529, 43.7182576], [-122.0597366, 43.7184838], [-122.059717, 43.7186605], [-122.060079, 43.7188938], [-122.0604996, 43.7189363], [-122.0606072, 43.7190847], [-122.0605485, 43.7192049], [-122.0607539, 43.7193534], [-122.0607246, 43.719523], [-122.0610851, 43.7200888], [-122.0612691, 43.7203809], [-122.0613426, 43.7207711], [-122.061252, 43.7210623], [-122.0610881, 43.7212108], [-122.0609272, 43.7212612], [-122.0607823, 43.7212147], [-122.0606965, 43.7211216], [-122.0605463, 43.7211236], [-122.0604122, 43.7211682], [-122.0603877, 43.7213721], [-122.0604926, 43.721552], [-122.0607126, 43.7215869], [-122.0610935, 43.7214822], [-122.0616859, 43.7216395], [-122.0622361, 43.7218001], [-122.0625872, 43.7225079], [-122.0631266, 43.723095], [-122.0638317, 43.7234384], [-122.0641673, 43.7238199], [-122.0642609, 43.7241207], [-122.0643604, 43.7243976], [-122.0642531, 43.7246418], [-122.0641029, 43.724762], [-122.0637244, 43.724958], [-122.0634884, 43.7252372], [-122.0635742, 43.7262916], [-122.0634699, 43.7265297], [-122.0632017, 43.7266111], [-122.0632553, 43.7267856], [-122.0634323, 43.7267274], [-122.0636523, 43.7267352], [-122.0637596, 43.7268437], [-122.0642877, 43.727536], [-122.0649988, 43.7280493], [-122.0655859, 43.7285555], [-122.0661843, 43.7291851], [-122.0663828, 43.7297046], [-122.0667983, 43.7300441], [-122.0670855, 43.7303635], [-122.0671821, 43.7307279], [-122.0674288, 43.730883], [-122.0675224, 43.7316876], [-122.0675683, 43.7321893], [-122.0673806, 43.7324102], [-122.0673806, 43.7325536], [-122.0676863, 43.7325614], [-122.0680296, 43.7326854], [-122.0682925, 43.7328017], [-122.0684022, 43.7329978], [-122.0682442, 43.7332591], [-122.0683837, 43.7333986], [-122.0683891, 43.733542], [-122.0681852, 43.7340188], [-122.0683891, 43.7342359], [-122.0687294, 43.7342808], [-122.0689362, 43.7347708], [-122.068904, 43.7354219], [-122.0686918, 43.7361142], [-122.0686305, 43.7369103], [-122.0688957, 43.7370831], [-122.0694673, 43.7369103], [-122.0697248, 43.7370188], [-122.0696712, 43.7372902], [-122.069478, 43.73767], [-122.0694214, 43.7380211], [-122.069872, 43.7384009], [-122.0699823, 43.7386312], [-122.0699072, 43.7389645], [-122.0696175, 43.7390885], [-122.0695639, 43.7394219], [-122.0699072, 43.7396776], [-122.0699472, 43.73999], [-122.0698428, 43.740228], [-122.0695395, 43.7407651], [-122.0695531, 43.7412279], [-122.0690382, 43.7416697], [-122.0688421, 43.7420285], [-122.0689523, 43.7422278], [-122.0689309, 43.7426541], [-122.0684987, 43.7437261], [-122.0685554, 43.7441656], [-122.068255, 43.7447624], [-122.0682305, 43.7452607], [-122.0681048, 43.7456615], [-122.0679116, 43.7459948], [-122.0675361, 43.7461885], [-122.067458, 43.746493], [-122.0677722, 43.7467001], [-122.0679086, 43.7470433], [-122.0678687, 43.7475449], [-122.0675546, 43.7480586], [-122.0670748, 43.7482889], [-122.0671392, 43.7485679], [-122.0675224, 43.7486167], [-122.0680189, 43.7486764], [-122.0680804, 43.7493452], [-122.0680082, 43.7497227], [-122.0677799, 43.7499187], [-122.0675469, 43.7501877], [-122.0671713, 43.7503195], [-122.06675, 43.7503527], [-122.066592, 43.7498002], [-122.0660955, 43.7494615], [-122.0655191, 43.7493042], [-122.065205, 43.7489887], [-122.0646042, 43.7483687], [-122.064175, 43.7475626], [-122.0636601, 43.7471286], [-122.0625443, 43.7467566], [-122.0607418, 43.7466326], [-122.059111, 43.7467566], [-122.0573086, 43.7465706], [-122.0557636, 43.7467566], [-122.0542187, 43.7466946], [-122.0527596, 43.7462605], [-122.0510429, 43.7462605], [-122.0498413, 43.7465706], [-122.0490688, 43.7463845], [-122.0485539, 43.7465706], [-122.0482105, 43.7472526], [-122.0470947, 43.7477486], [-122.0461506, 43.7481207], [-122.0457566, 43.7483587], [-122.0456249, 43.7488725], [-122.0445842, 43.7495157], [-122.0435221, 43.7494537], [-122.0430607, 43.7496087], [-122.0429993, 43.7497615], [-122.0437152, 43.7498412], [-122.0439756, 43.7498002], [-122.0446056, 43.7501667], [-122.0450592, 43.7505287], [-122.0452386, 43.7508099], [-122.0472878, 43.7516082], [-122.0475776, 43.7523444], [-122.0481033, 43.7526234], [-122.0484817, 43.7522647], [-122.0489538, 43.7523267], [-122.0493907, 43.7527009], [-122.0492649, 43.7529932], [-122.0494229, 43.7532822], [-122.0498765, 43.7534427], [-122.0503563, 43.7539254], [-122.0504022, 43.7542874], [-122.0502842, 43.7546438], [-122.0503348, 43.7548863], [-122.050724, 43.7549771], [-122.0512682, 43.7547313], [-122.0519442, 43.7543826], [-122.0528668, 43.7545454], [-122.0535106, 43.7552196], [-122.0537037, 43.7562425], [-122.0534462, 43.7572344], [-122.0526094, 43.7587068], [-122.0519013, 43.7592182], [-122.0510429, 43.7598381], [-122.0506996, 43.760396], [-122.0506283, 43.7609475], [-122.05075, 43.7615039], [-122.0510744, 43.7619237], [-122.0508176, 43.7618652], [-122.051169, 43.7627535], [-122.0514123, 43.7626315], [-122.0514191, 43.7629439], [-122.0515745, 43.7633783], [-122.0513109, 43.7636322], [-122.0513921, 43.7640959], [-122.0521017, 43.7641105], [-122.05271, 43.7643936], [-122.0525478, 43.7646962], [-122.0527166, 43.7648281], [-122.0528454, 43.765417], [-122.0531458, 43.7657889], [-122.053467, 43.7658238], [-122.0535684, 43.7660141], [-122.0534467, 43.7662533], [-122.053467, 43.766512], [-122.0532034, 43.7667463], [-122.0530171, 43.7668116], [-122.0528454, 43.7671835], [-122.0526289, 43.7674735], [-122.052487, 43.7673271], [-122.0526289, 43.7667999], [-122.0522301, 43.7667609], [-122.0519395, 43.7666438], [-122.0518179, 43.7660873], [-122.0513312, 43.7657798], [-122.0506138, 43.7652], [-122.0501417, 43.7645182], [-122.0493692, 43.7637434], [-122.048468, 43.7630305], [-122.0476097, 43.7623176], [-122.0470089, 43.7619767], [-122.0464189, 43.7618604], [-122.0462257, 43.762124], [-122.0462578, 43.7624416], [-122.0459068, 43.7626796], [-122.0455498, 43.7625656], [-122.0452631, 43.7626098], [-122.0451206, 43.7628445], [-122.0450592, 43.7630825], [-122.0451207, 43.7633792], [-122.0448661, 43.7637721], [-122.0447237, 43.764216], [-122.0443696, 43.7644484], [-122.0438868, 43.7645104], [-122.0434362, 43.7644174], [-122.0432699, 43.7641386], [-122.0430422, 43.7640472], [-122.0425862, 43.7641866], [-122.0425618, 43.7643129], [-122.0426399, 43.7644617], [-122.042197, 43.7646112], [-122.0417196, 43.7642973], [-122.0415562, 43.764361], [-122.041744, 43.764574], [-122.0416582, 43.7646089], [-122.041406, 43.764512], [-122.0413739, 43.7643978], [-122.0414436, 43.7643028], [-122.0409042, 43.7639332], [-122.0403892, 43.7637124], [-122.0397079, 43.7631312], [-122.0394158, 43.7629779], [-122.0392656, 43.7627648], [-122.0390403, 43.7626718], [-122.0388979, 43.7625036], [-122.0387101, 43.7623215], [-122.038697, 43.7621914], [-122.0385414, 43.7621062], [-122.0382464, 43.7622147], [-122.0382113, 43.7623486], [-122.0375193, 43.7623718], [-122.0372272, 43.762296], [-122.0370072, 43.7622883], [-122.0366449, 43.7621162], [-122.0366073, 43.7619612], [-122.0362401, 43.7618931], [-122.036106, 43.7618931], [-122.0360041, 43.7618001], [-122.0359504, 43.761835], [-122.0360148, 43.7620016], [-122.0358509, 43.7620813], [-122.0356339, 43.7620984], [-122.035293, 43.7619457], [-122.0349497, 43.7617598], [-122.0347434, 43.7616606], [-122.0344698, 43.7616296], [-122.0344269, 43.7617149], [-122.0345986, 43.7618505], [-122.0346922, 43.7620077], [-122.0345635, 43.7624106], [-122.0343787, 43.7624161], [-122.0339066, 43.7622689], [-122.0338661, 43.7620891], [-122.0337296, 43.7619125], [-122.0337537, 43.7618175], [-122.0338663, 43.7617982], [-122.033976, 43.7617114], [-122.0339388, 43.7615735], [-122.0337832, 43.761558], [-122.0336866, 43.7616722], [-122.0334908, 43.7616529], [-122.0328253, 43.7613084], [-122.0327693, 43.7611666], [-122.0324153, 43.7611318], [-122.0320314, 43.7610469], [-122.0309961, 43.7610585], [-122.0303768, 43.7608083], [-122.0298857, 43.7607369], [-122.0295721, 43.7606301], [-122.0293546, 43.760737], [-122.0291108, 43.7606765], [-122.0288426, 43.7605216], [-122.0287299, 43.760386], [-122.0287567, 43.7603124], [-122.0288453, 43.7602775], [-122.0290196, 43.7602368], [-122.0290974, 43.7601399], [-122.0290571, 43.7600605], [-122.0288694, 43.7600954], [-122.0287219, 43.7602329], [-122.0286358, 43.7603165], [-122.0284644, 43.7602678], [-122.0283061, 43.7601806], [-122.0278526, 43.7598904], [-122.0274717, 43.7598827], [-122.0272946, 43.759931], [-122.027185, 43.7598377], [-122.026957, 43.7597777], [-122.0270294, 43.7599017], [-122.0268604, 43.7600702], [-122.0269165, 43.7602275], [-122.0267531, 43.7602969], [-122.0265812, 43.760272], [-122.026332, 43.7601438], [-122.0262111, 43.7598458], [-122.0260528, 43.7595668], [-122.0254412, 43.7593576], [-122.025227, 43.7592546], [-122.0250765, 43.7589334], [-122.0250848, 43.7587683], [-122.0249128, 43.7587299], [-122.0247627, 43.7588849], [-122.0245135, 43.7589757], [-122.0246342, 43.759057], [-122.0246715, 43.7591504], [-122.0246208, 43.7593108], [-122.0243418, 43.7594948], [-122.0240951, 43.7595064], [-122.0239824, 43.759584], [-122.0237085, 43.7596308], [-122.0237651, 43.7597428], [-122.0236468, 43.7598226], [-122.023446, 43.7599017], [-122.0232153, 43.7598629], [-122.0230624, 43.7598009], [-122.0229468, 43.7597102], [-122.0228476, 43.7597451], [-122.0228344, 43.7598978], [-122.0224667, 43.7600356], [-122.0224214, 43.7603201], [-122.0225096, 43.7606672], [-122.0225984, 43.7608509], [-122.0224399, 43.7610585], [-122.0226276, 43.7614343], [-122.0222282, 43.7615289], [-122.0221502, 43.7616978], [-122.021901, 43.7617265], [-122.0217669, 43.7616684], [-122.0216865, 43.761587], [-122.021603, 43.7613878], [-122.0215309, 43.7610795], [-122.0213968, 43.7608548], [-122.0214957, 43.7606517], [-122.0213724, 43.7605161], [-122.0210451, 43.760303], [-122.0205677, 43.7605316], [-122.0205545, 43.760692], [-122.0203078, 43.7606533], [-122.0201063, 43.7605355], [-122.0193446, 43.7605122], [-122.0191383, 43.7606533], [-122.0188833, 43.760551], [-122.0184946, 43.7603705], [-122.0182502, 43.7602061], [-122.0180923, 43.7600993], [-122.0179743, 43.759983], [-122.0177943, 43.7599621], [-122.0178884, 43.7601458], [-122.0178586, 43.7603766], [-122.0176899, 43.7604363], [-122.0175773, 43.7606262], [-122.0172686, 43.7606129], [-122.0170647, 43.7607951], [-122.0172072, 43.7609593], [-122.0170838, 43.7611453], [-122.0171881, 43.7613064], [-122.0171213, 43.7614397], [-122.017014, 43.7615134], [-122.0168477, 43.7614902], [-122.016818, 43.7612522], [-122.0166332, 43.7611725], [-122.0165312, 43.76094], [-122.0163673, 43.7608609], [-122.0161825, 43.7608315], [-122.0158768, 43.7609284], [-122.0156968, 43.7606169], [-122.0154262, 43.7605177], [-122.0151121, 43.7604464], [-122.0147073, 43.7604944], [-122.0146108, 43.7603007], [-122.014404, 43.7602178], [-122.0143694, 43.760417], [-122.0146644, 43.7605758], [-122.0144713, 43.7606998], [-122.0142889, 43.7606068], [-122.0140499, 43.7605549], [-122.0139749, 43.7607059], [-122.0136023, 43.7608586], [-122.0130605, 43.760816], [-122.0129317, 43.7609749], [-122.0128, 43.7612174], [-122.0123172, 43.7607021], [-122.0121884, 43.760427], [-122.0117784, 43.7602], [-122.0115477, 43.7601109], [-122.0110888, 43.7600473], [-122.0108986, 43.7599365], [-122.0107669, 43.75947], [-122.0104665, 43.7594196], [-122.0102817, 43.7596576], [-122.0100778, 43.7597854], [-122.0100052, 43.7600047], [-122.0095682, 43.7601961], [-122.0090986, 43.7602449], [-122.0089805, 43.7604773], [-122.0091605, 43.7608199], [-122.009061, 43.7609848], [-122.0091444, 43.7612809], [-122.0089781, 43.7615909], [-122.0086104, 43.7616629], [-122.0083612, 43.761649], [-122.0081598, 43.7618179], [-122.0079053, 43.7618621], [-122.0072907, 43.7615699], [-122.0069903, 43.7615311], [-122.0067734, 43.7613894], [-122.0066392, 43.7612383], [-122.0065397, 43.7606129], [-122.0062611, 43.7601826], [-122.0062501, 43.7595979], [-122.0064408, 43.7594716], [-122.0063925, 43.7593747], [-122.0062262, 43.7592546], [-122.0061749, 43.7589159], [-122.0058102, 43.7586912], [-122.0051557, 43.7583542], [-122.0051104, 43.7582085], [-122.005263, 43.7580015], [-122.0055098, 43.7572964], [-122.0057166, 43.7570035], [-122.0060194, 43.7568508], [-122.0060676, 43.7564983], [-122.0059121, 43.756196], [-122.0056332, 43.7558782], [-122.0053411, 43.755845], [-122.0049894, 43.7560332], [-122.004531, 43.7560426], [-122.0043725, 43.7559596], [-122.0041663, 43.7558024], [-122.0039434, 43.7557659], [-122.0037019, 43.755456], [-122.0039809, 43.7547778], [-122.0045149, 43.7544579], [-122.0048768, 43.7539099], [-122.005325, 43.753586], [-122.0056224, 43.7534682], [-122.0057702, 43.7532102], [-122.0062369, 43.7528227], [-122.0065451, 43.7527474], [-122.0066071, 43.7525941], [-122.006253, 43.7524197], [-122.0062393, 43.7523057], [-122.0061886, 43.7520903], [-122.0062262, 43.7518966], [-122.005896, 43.7516857], [-122.0056307, 43.7516137], [-122.0054561, 43.7514377], [-122.0055288, 43.7512766], [-122.0057511, 43.7511664], [-122.0059633, 43.750893], [-122.0063657, 43.7505907], [-122.0067114, 43.7502248], [-122.0072693, 43.7500117], [-122.0079989, 43.7498877], [-122.0083154, 43.7499071], [-122.0089484, 43.7503876], [-122.0093, 43.7504822], [-122.0093215, 43.7506721], [-122.0096081, 43.7507983], [-122.0098335, 43.7507208], [-122.0096701, 43.7506333], [-122.0097131, 43.7504822], [-122.0094794, 43.7503798], [-122.0095092, 43.7501993], [-122.0094127, 43.7500753], [-122.0092702, 43.7500466], [-122.0092464, 43.7499436], [-122.009638, 43.7497459], [-122.0094717, 43.7496491], [-122.0092356, 43.7498118], [-122.0090801, 43.7495522], [-122.0087767, 43.7491902], [-122.0087714, 43.7489383], [-122.0088548, 43.7487772], [-122.0090717, 43.7486477], [-122.009458, 43.7486167], [-122.0096366, 43.7486522], [-122.0097399, 43.7486842], [-122.0098686, 43.7486725], [-122.0098391, 43.7490659], [-122.0098686, 43.7491153], [-122.0099638, 43.749123], [-122.0100135, 43.7490911], [-122.0100427, 43.7486128], [-122.0102066, 43.748409], [-122.0103192, 43.7481998], [-122.0106167, 43.7482757], [-122.010904, 43.7481688], [-122.010904, 43.7479285], [-122.0106059, 43.7477409], [-122.010566, 43.7474209], [-122.0107538, 43.7472348], [-122.0108313, 43.7469736], [-122.0110434, 43.7467233], [-122.0113463, 43.7466016], [-122.0122475, 43.7463535], [-122.0124704, 43.7463087], [-122.0124543, 43.7461149], [-122.0122475, 43.7460125], [-122.012111, 43.746142], [-122.0120037, 43.7461808], [-122.0118159, 43.7461033], [-122.0115877, 43.7459079], [-122.0112956, 43.7458514], [-122.0111775, 43.7457719], [-122.0112097, 43.7456867], [-122.0113492, 43.7456809], [-122.0113385, 43.7455181], [-122.0111746, 43.7454235], [-122.0109308, 43.7452449], [-122.0109493, 43.7450223], [-122.0111454, 43.7448903], [-122.0113865, 43.7448014], [-122.0114106, 43.7446387], [-122.0111666, 43.744538], [-122.0107779, 43.7445899], [-122.0106304, 43.7445124], [-122.0105311, 43.7443652], [-122.0106086, 43.7441852], [-122.0110163, 43.7439043], [-122.011365, 43.7437764], [-122.0114458, 43.7436695], [-122.0112792, 43.7433637], [-122.0112768, 43.7432355], [-122.0114214, 43.7431369], [-122.0119927, 43.7430633], [-122.0122692, 43.74297], [-122.0124406, 43.742697], [-122.012473, 43.7425204], [-122.0124326, 43.7421196], [-122.0129156, 43.7414411], [-122.0132643, 43.7412938], [-122.0134735, 43.7409954], [-122.01361, 43.7406876], [-122.0141387, 43.7399761], [-122.0142138, 43.7397087], [-122.0146936, 43.7391606], [-122.0149863, 43.7387785], [-122.015391, 43.7384745], [-122.0159865, 43.7382188], [-122.0158124, 43.7379723], [-122.0157534, 43.7377766], [-122.0159277, 43.737389], [-122.0163244, 43.7369901], [-122.016601, 43.7368134], [-122.0167965, 43.7368351], [-122.017116, 43.7367243], [-122.0170462, 43.7364917], [-122.0171398, 43.7363389], [-122.0176977, 43.7356878], [-122.0180279, 43.7355731], [-122.0184542, 43.7356218], [-122.0187599, 43.7353661], [-122.018854, 43.7351816], [-122.0187519, 43.7348932], [-122.0185, 43.7348212], [-122.0183682, 43.7345657], [-122.0183551, 43.7342591], [-122.0184032, 43.734087], [-122.0184574, 43.733924], [-122.0187491, 43.7334242], [-122.0193017, 43.7329667], [-122.0198572, 43.7319993], [-122.0202726, 43.7316256], [-122.0203024, 43.7314218], [-122.0207876, 43.7309434], [-122.0213455, 43.7305402], [-122.0214314, 43.7300131], [-122.0214665, 43.7296077], [-122.0217586, 43.729137], [-122.0217477, 43.7290124], [-122.0216996, 43.7284625], [-122.0218766, 43.7277919], [-122.0225633, 43.7270786], [-122.0232338, 43.7267258], [-122.0242209, 43.7265708], [-122.0252079, 43.7264622], [-122.0262379, 43.725904], [-122.0269674, 43.7252527], [-122.0275253, 43.7244773], [-122.027697, 43.7237796], [-122.0273966, 43.7233454], [-122.0270533, 43.7229732], [-122.0272142, 43.7223606], [-122.0270533, 43.7220427], [-122.0268524, 43.7217458], [-122.0270855, 43.7212829], [-122.0273644, 43.7212441], [-122.0277399, 43.7206781], [-122.0278394, 43.7204005], [-122.0281047, 43.720112], [-122.0290274, 43.7195925], [-122.0295853, 43.7190962], [-122.029714, 43.7184449], [-122.0297331, 43.7179386], [-122.0299906, 43.7177021], [-122.0298106, 43.7174329], [-122.0298082, 43.7172485], [-122.030012, 43.7169499], [-122.0299369, 43.7166436], [-122.0301432, 43.7162427], [-122.03035, 43.7158333], [-122.0306045, 43.7155215], [-122.0307174, 43.7152905], [-122.0306501, 43.7150716], [-122.030535, 43.7150074], [-122.0305109, 43.7147903], [-122.030744, 43.7146297], [-122.0313877, 43.7143505], [-122.0323748, 43.7139783], [-122.032761, 43.7136371], [-122.0331902, 43.7132028], [-122.033791, 43.7129236], [-122.034263, 43.7126445], [-122.0340056, 43.7123963], [-122.0338476, 43.7121381], [-122.0340914, 43.711869], [-122.0346064, 43.7113416], [-122.0350355, 43.7108453], [-122.0352072, 43.7105041], [-122.0355076, 43.7100698], [-122.0362372, 43.7097596], [-122.0367307, 43.7096355], [-122.0371598, 43.7098759], [-122.037546, 43.7097518], [-122.0375061, 43.7094859], [-122.0376104, 43.7092322], [-122.0379108, 43.708922], [-122.0376319, 43.7086738], [-122.0378679, 43.7082395], [-122.0375246, 43.7078982], [-122.0377392, 43.707557], [-122.03834, 43.7073088], [-122.0388121, 43.7069986], [-122.0392841, 43.7071227], [-122.0392412, 43.7074329], [-122.0397562, 43.7073398], [-122.039842, 43.7070606], [-122.0402283, 43.7067814], [-122.0401103, 43.7066495], [-122.0397562, 43.7066263], [-122.0391554, 43.706603], [-122.0390374, 43.7062152], [-122.0392412, 43.7059128], [-122.0396275, 43.7056956], [-122.0406574, 43.7054785], [-122.0413441, 43.7056336], [-122.0418591, 43.7060679], [-122.0422024, 43.7059748], [-122.0427603, 43.7060679], [-122.0435703, 43.7061144], [-122.0440102, 43.706382], [-122.0444822, 43.7067853], [-122.0449758, 43.7064635], [-122.0452493, 43.7059399], [-122.045204, 43.7057476], [-122.0458072, 43.7055289], [-122.0462525, 43.7050557], [-122.0462954, 43.7046835], [-122.0462501, 43.7043865], [-122.0459414, 43.7042336], [-122.0460755, 43.7039505], [-122.0467514, 43.7037411], [-122.0469582, 43.7036923], [-122.0472235, 43.7038962], [-122.0478028, 43.7042142], [-122.048074, 43.7044214], [-122.0483422, 43.7043904], [-122.0482856, 43.7042453], [-122.0484251, 43.7038962], [-122.0480389, 43.7037101], [-122.0475937, 43.7036325], [-122.047087, 43.703576], [-122.0465476, 43.7033146], [-122.0462203, 43.7033416], [-122.0459229, 43.7032386], [-122.0458073, 43.7030275], [-122.0456088, 43.702853], [-122.0451021, 43.7029012], [-122.044729, 43.7028064], [-122.0444823, 43.7025583], [-122.0446003, 43.7018757], [-122.0443726, 43.7014973], [-122.0449919, 43.7012436], [-122.0450777, 43.7009488], [-122.0447881, 43.7005726], [-122.0450133, 43.6997893], [-122.0449275, 43.6995061], [-122.0448715, 43.6992013], [-122.0452494, 43.6988468], [-122.0454884, 43.6988833], [-122.0457965, 43.6986684], [-122.0459443, 43.6985498], [-122.0464725, 43.6983271], [-122.0467812, 43.6983171], [-122.0471567, 43.6981891], [-122.0472986, 43.6980362], [-122.0475668, 43.6978617], [-122.047618, 43.6975259], [-122.0476482, 43.6974895], [-122.0478025, 43.6974619], [-122.0477897, 43.6974333], [-122.0472342, 43.697373], [-122.046966, 43.6971636], [-122.0469207, 43.6970643], [-122.04658, 43.6969131], [-122.0464915, 43.6969131], [-122.0461831, 43.69701], [-122.0459792, 43.6971186], [-122.0457941, 43.6971438], [-122.0457029, 43.6971206], [-122.0456225, 43.6970566], [-122.0454294, 43.6968239], [-122.0456249, 43.6966128], [-122.0460111, 43.6963956], [-122.0456731, 43.696163], [-122.0455015, 43.6956781], [-122.0457405, 43.6955013], [-122.0461077, 43.695395], [-122.0462447, 43.6951251], [-122.0462257, 43.6948055], [-122.0460516, 43.6945433], [-122.0461881, 43.694274], [-122.0461911, 43.6938994], [-122.0463652, 43.6938125], [-122.0467785, 43.6938684], [-122.0466954, 43.6939634], [-122.0467731, 43.6940216], [-122.047091, 43.6940158], [-122.0473981, 43.6939382], [-122.0473203, 43.693882], [-122.0471165, 43.6938373], [-122.0469017, 43.6938493], [-122.0469552, 43.6933975], [-122.0470494, 43.693209], [-122.0472157, 43.6931159], [-122.0473592, 43.6930926], [-122.0475282, 43.6931237], [-122.047673, 43.6932429], [-122.0479332, 43.6932061], [-122.0480818, 43.693091], [-122.0479584, 43.6929669], [-122.0477186, 43.6930015], [-122.0476234, 43.6929869], [-122.0475671, 43.6929181], [-122.0474397, 43.692888], [-122.0472787, 43.6929268], [-122.0471178, 43.6928987], [-122.0469797, 43.6929898], [-122.0467514, 43.6930367], [-122.0464821, 43.6931101], [-122.046403, 43.6931072], [-122.0462635, 43.6929879], [-122.0462944, 43.6926485], [-122.0462407, 43.6925098], [-122.0462595, 43.6923246], [-122.0463802, 43.6922267], [-122.0466227, 43.6921989], [-122.0467463, 43.6921385], [-122.0469609, 43.6921491], [-122.0469649, 43.6920415], [-122.046454, 43.6919484], [-122.0461455, 43.6919426], [-122.0455659, 43.6918653], [-122.0451611, 43.6917137], [-122.0449919, 43.6916016], [-122.0449948, 43.6914538], [-122.0448285, 43.6913646], [-122.0446891, 43.6913898], [-122.0443321, 43.6913533], [-122.0441204, 43.6913937], [-122.0439461, 43.6913666], [-122.0438066, 43.6913181], [-122.0434472, 43.6913355], [-122.0433855, 43.6914015], [-122.0436215, 43.691578], [-122.0435947, 43.6917312], [-122.0434499, 43.6918475], [-122.0434167, 43.6919556], [-122.0433533, 43.6921617], [-122.0430851, 43.6922354], [-122.0428813, 43.6922471], [-122.0426077, 43.6921928], [-122.0423394, 43.6923363], [-122.0418137, 43.6924022], [-122.041449, 43.6923595], [-122.0410115, 43.6924123], [-122.040773, 43.692441], [-122.0406091, 43.6923579], [-122.0405585, 43.6921734], [-122.0404214, 43.6919817], [-122.0404619, 43.6918398], [-122.0411134, 43.6913766], [-122.0413041, 43.6913704], [-122.041508, 43.6915799], [-122.0417494, 43.6916071], [-122.0420283, 43.6915062], [-122.0420283, 43.6913355], [-122.0418996, 43.6911261], [-122.0421219, 43.6909383], [-122.0426851, 43.690306], [-122.0431144, 43.6896776], [-122.044434, 43.6892199], [-122.0452923, 43.6884131], [-122.046451, 43.6874511], [-122.0470518, 43.6867373], [-122.0477814, 43.6856822], [-122.0483393, 43.6848753], [-122.0484738, 43.6846641], [-122.0483737, 43.684392], [-122.0485705, 43.6841514], [-122.0488512, 43.6839713], [-122.0491444, 43.683587], [-122.0496644, 43.6834303], [-122.0498639, 43.683235], [-122.0497584, 43.6828905], [-122.0500279, 43.6825681], [-122.0503393, 43.6824273], [-122.0508078, 43.6822029], [-122.0513601, 43.6820511], [-122.0519442, 43.681927], [-122.0523224, 43.6819611], [-122.0524613, 43.6817783], [-122.0522712, 43.6816263], [-122.0522096, 43.6813807], [-122.0524662, 43.6811594], [-122.0528025, 43.68112], [-122.0532745, 43.6809959], [-122.0542187, 43.6811511], [-122.0549491, 43.6813676], [-122.0551995, 43.6815345], [-122.0555921, 43.6815621], [-122.0557207, 43.6817097], [-122.0554781, 43.681916], [-122.0551199, 43.681989], [-122.0551034, 43.682391], [-122.0555491, 43.6826408], [-122.0564074, 43.6829201], [-122.0568365, 43.6830132], [-122.0572228, 43.6829511], [-122.0574652, 43.682925], [-122.0576246, 43.6827173], [-122.0577389, 43.682327], [-122.0576948, 43.6820821], [-122.0579094, 43.6816476], [-122.0582527, 43.6813062], [-122.05866, 43.6812578], [-122.0590681, 43.6813062], [-122.0595402, 43.6813062], [-122.0599693, 43.6812442], [-122.0605702, 43.681089], [-122.0609689, 43.6810375], [-122.0615572, 43.6811511], [-122.0618697, 43.6812707], [-122.0620485, 43.6815841], [-122.0621046, 43.68195], [-122.0620602, 43.6822312], [-122.0617799, 43.6822714], [-122.0616001, 43.6822994], [-122.061557, 43.6825462], [-122.0616823, 43.6829494], [-122.0615899, 43.6831468], [-122.0615056, 43.6834628], [-122.0613024, 43.6838618], [-122.0614285, 43.6844098], [-122.0616209, 43.6847864], [-122.0615291, 43.6851266], [-122.0614291, 43.6854316], [-122.0615572, 43.6855891], [-122.0620293, 43.6860235], [-122.0624384, 43.6863926], [-122.0627313, 43.6868154], [-122.0629413, 43.6872669], [-122.0631248, 43.6878103], [-122.06293, 43.6884144], [-122.0630198, 43.6887626], [-122.0629188, 43.6893024], [-122.0629753, 43.6895797], [-122.0629577, 43.6899336], [-122.0629287, 43.690352], [-122.0630322, 43.6908547], [-122.0632498, 43.6913695], [-122.0634621, 43.691743], [-122.0637532, 43.6919014], [-122.0637474, 43.6920904], [-122.0636935, 43.6923152], [-122.0638084, 43.6925809], [-122.0639759, 43.6928509], [-122.0642493, 43.6928119], [-122.0644754, 43.6927575], [-122.0647091, 43.6926949], [-122.0649644, 43.6928315], [-122.0650829, 43.6929821], [-122.0650763, 43.6931608], [-122.0647331, 43.6932773], [-122.0644754, 43.6934091], [-122.0640892, 43.6936573], [-122.0643896, 43.6942158], [-122.0650763, 43.6950226], [-122.0653338, 43.6956122], [-122.0655974, 43.695926], [-122.065671, 43.6962015], [-122.0658923, 43.6965075], [-122.0658527, 43.696864], [-122.0656593, 43.6974696], [-122.06545, 43.697905], [-122.0652908, 43.6980013], [-122.0651192, 43.6985598], [-122.0653767, 43.698808], [-122.0659346, 43.6989321], [-122.0671791, 43.698808], [-122.0684666, 43.698808]], [[-122.0077467, 43.7591212], [-122.0074785, 43.7589005], [-122.0072479, 43.7589315], [-122.0068026, 43.7592724], [-122.0068777, 43.7594506], [-122.0071245, 43.7595746], [-122.0071113, 43.7598126], [-122.0072371, 43.7600744], [-122.007165, 43.7602426], [-122.0072347, 43.7605061], [-122.0074034, 43.7606633], [-122.0076585, 43.760723], [-122.0077068, 43.7608548], [-122.0078677, 43.7609594], [-122.0080418, 43.7609229], [-122.0077307, 43.7606013], [-122.0076263, 43.7594174], [-122.0077467, 43.7591212]], [[-122.0167512, 43.7592081], [-122.0165044, 43.7591888], [-122.0163888, 43.7592647], [-122.0165068, 43.759377], [-122.0166171, 43.7594561], [-122.0168072, 43.759501], [-122.0170569, 43.7594871], [-122.0171696, 43.7593941], [-122.0172256, 43.7592996], [-122.0171481, 43.7591733], [-122.0169359, 43.7591601], [-122.0167512, 43.7592081]], [[-122.0467408, 43.6951529], [-122.0469104, 43.695172], [-122.0470853, 43.6950686], [-122.0470906, 43.6949843], [-122.0470217, 43.6949345], [-122.0468892, 43.6949268], [-122.0468097, 43.6949574], [-122.0467355, 43.6950188], [-122.0466242, 43.6950724], [-122.0467408, 43.6951529]], [[-122.047223, 43.6958158], [-122.0472972, 43.6957775], [-122.0473714, 43.6956817], [-122.0473555, 43.695605], [-122.0472601, 43.6955629], [-122.0471807, 43.6955667], [-122.047133, 43.695651], [-122.047027, 43.6957161], [-122.0470323, 43.6958119], [-122.0469846, 43.6958847], [-122.0468892, 43.695969], [-122.0471436, 43.6960265], [-122.047186, 43.6959231], [-122.047223, 43.6958158]], [[-122.0528358, 43.6826785], [-122.0532185, 43.6825446], [-122.0534037, 43.6825044], [-122.0535025, 43.6824375], [-122.0535333, 43.6823392], [-122.0535189, 43.6821167], [-122.053315, 43.6820546], [-122.053197, 43.6819383], [-122.0531407, 43.6818471], [-122.0530361, 43.6817385], [-122.0528543, 43.681817], [-122.0527309, 43.6819152], [-122.0526938, 43.6821116], [-122.0528235, 43.6822276], [-122.0530282, 43.6822158], [-122.0531702, 43.6821613], [-122.053256, 43.6823029], [-122.0531917, 43.6824154], [-122.0529315, 43.6824891], [-122.0527411, 43.6824697], [-122.0525908, 43.6825066], [-122.052446, 43.6824562], [-122.0522309, 43.6826205], [-122.0523667, 43.6827589], [-122.0528358, 43.6826785]], [[-122.0555949, 43.7176905], [-122.05555, 43.7176637], [-122.0554474, 43.7177506], [-122.055374, 43.7178687], [-122.0553535, 43.7179929], [-122.0552858, 43.7180667], [-122.0550609, 43.718102], [-122.0548734, 43.7181615], [-122.0547284, 43.7182364], [-122.0547871, 43.7185545], [-122.0551392, 43.7186535], [-122.0551783, 43.7187807], [-122.0550512, 43.7188726], [-122.0550218, 43.7190635], [-122.0551658, 43.7190455], [-122.0554326, 43.7189787], [-122.0554903, 43.7189253], [-122.0555794, 43.7188726], [-122.0558141, 43.7188444], [-122.0560489, 43.7186181], [-122.0559804, 43.718406], [-122.0557554, 43.7183636], [-122.0556671, 43.7182569], [-122.0557505, 43.7181867], [-122.0558435, 43.7181091], [-122.0556283, 43.717996], [-122.05555, 43.7178546], [-122.0555949, 43.7176905]]]]}, "properties": {"id": "waldo_lake", "name": "Waldo Lake", "osm": ["relation/1730152"], "found_by": "name", "area_km2": 24.5164}}]}